{
  "type": "FeatureCollection",
  "features": [
    {
      "type": "Feature",
      "geometry": {
        "type": "Point",
        "coordinates": [
          14.4314734,
          50.1358649
        ]
      },
      "properties": {
        "@type": "node",
        "@id": 391019310,
        "@url": "https://www.openstreetmap.org/node/391019310",
        "amenity": "post_box",
        "check_date:ref": "2026-06-20",
        "operator": "Česká pošta, s.p.",
        "operator:wikidata": "Q341090",
        "operator:wikipedia": "cs:Česká pošta",
        "removed:ref": "18299:34"
      }
    },
    {
      "type": "Feature",
      "geometry": {
        "type": "Point",
        "coordinates": [
          18.16263,
          49.7874325
        ]
      },
      "properties": {
        "@type": "node",
        "@id": 574262126,
        "@url": "https://www.openstreetmap.org/node/574262126",
        "amenity": "post_box",
        "check_date:ref": "2026-05-17",
        "collection_times": "Mo-Fr 08:00",
        "operator": "Česká pošta, s.p.",
        "operator:wikidata": "Q341090",
        "removed:ref": "70700:31"
      }
    },
    {
      "type": "Feature",
      "geometry": {
        "type": "Point",
        "coordinates": [
          15.7237497,
          49.431463
        ]
      },
      "properties": {
        "@type": "node",
        "@id": 1573775565,
        "@url": "https://www.openstreetmap.org/node/1573775565",
        "amenity": "post_box",
        "check_date:ref": "2026-07-10",
        "operator": "Česká pošta, s.p.",
        "operator:wikidata": "Q341090",
        "removed:ref": "58800:62"
      }
    },
    {
      "type": "Feature",
      "geometry": {
        "type": "Point",
        "coordinates": [
          14.4549887,
          50.1300601
        ]
      },
      "properties": {
        "@type": "node",
        "@id": 1574701770,
        "@url": "https://www.openstreetmap.org/node/1574701770",
        "amenity": "post_box",
        "check_date:ref": "2026-05-17",
        "collection_times": "Mo-Fr 08:00",
        "operator": "Česká pošta, s.p.",
        "operator:wikidata": "Q341090",
        "operator:wikipedia": "cs:Česká pošta",
        "removed:ref": "18299:18"
      }
    },
    {
      "type": "Feature",
      "geometry": {
        "type": "Point",
        "coordinates": [
          13.3878044,
          49.7262825
        ]
      },
      "properties": {
        "@type": "node",
        "@id": 2131490956,
        "@url": "https://www.openstreetmap.org/node/2131490956",
        "amenity": "post_box",
        "check_date:ref": "2026-07-10",
        "operator": "Česká pošta, s.p.",
        "operator:wikidata": "Q341090",
        "removed:ref": "30101:26"
      }
    },
    {
      "type": "Feature",
      "geometry": {
        "type": "Point",
        "coordinates": [
          13.3693561,
          49.7275092
        ]
      },
      "properties": {
        "@type": "node",
        "@id": 2131490971,
        "@url": "https://www.openstreetmap.org/node/2131490971",
        "amenity": "post_box",
        "check_date:ref": "2026-07-10",
        "operator": "Česká pošta, s.p.",
        "operator:wikidata": "Q341090",
        "operator:wikipedia": "cs:Česká pošta",
        "removed:ref": "30101:19"
      }
    },
    {
      "type": "Feature",
      "geometry": {
        "type": "Point",
        "coordinates": [
          16.7136833,
          49.4467021
        ]
      },
      "properties": {
        "@type": "node",
        "@id": 2495529773,
        "@url": "https://www.openstreetmap.org/node/2495529773",
        "amenity": "post_box",
        "check_date:ref": "2026-04-02",
        "collection_times": "Mo-Fr 08:00",
        "operator": "Česká pošta, s.p.",
        "operator:wikidata": "Q341090",
        "operator:wikipedia": "cs:Česká pošta",
        "removed:ref": "67999:25"
      }
    },
    {
      "type": "Feature",
      "geometry": {
        "type": "Point",
        "coordinates": [
          16.7394953,
          49.4155672
        ]
      },
      "properties": {
        "@type": "node",
        "@id": 2755163097,
        "@url": "https://www.openstreetmap.org/node/2755163097",
        "amenity": "post_box",
        "check_date:ref": "2026-05-17",
        "collection_times": "Mo-Fr 08:00",
        "operator": "Česká pošta, s.p.",
        "operator:wikidata": "Q341090",
        "operator:wikipedia": "cs:Česká pošta",
        "removed:ref": "67999:217"
      }
    },
    {
      "type": "Feature",
      "geometry": {
        "type": "Point",
        "coordinates": [
          18.2940598,
          49.8367085
        ]
      },
      "properties": {
        "@type": "node",
        "@id": 2985515571,
        "@url": "https://www.openstreetmap.org/node/2985515571",
        "amenity": "post_box",
        "check_date:ref": "2026-06-18",
        "operator": "Česká pošta, s.p.",
        "operator:wikidata": "Q341090",
        "removed:ref": "70083:21"
      }
    },
    {
      "type": "Feature",
      "geometry": {
        "type": "Point",
        "coordinates": [
          16.7659188,
          49.5847815
        ]
      },
      "properties": {
        "@type": "node",
        "@id": 3089880052,
        "@url": "https://www.openstreetmap.org/node/3089880052",
        "amenity": "post_box",
        "check_date:ref": "2026-04-03",
        "operator": "Česká pošta, s.p.",
        "operator:wikidata": "Q341090",
        "operator:wikipedia": "cs:Česká pošta",
        "removed:ref": "67999:122"
      }
    },
    {
      "type": "Feature",
      "geometry": {
        "type": "Point",
        "coordinates": [
          16.6964009,
          49.5404403
        ]
      },
      "properties": {
        "@type": "node",
        "@id": 3868126491,
        "@url": "https://www.openstreetmap.org/node/3868126491",
        "amenity": "post_box",
        "check_date:ref": "2026-04-02",
        "operator": "Česká pošta, s.p.",
        "operator:wikidata": "Q341090",
        "operator:wikipedia": "cs:Česká pošta",
        "removed:ref": "67999:30"
      }
    },
    {
      "type": "Feature",
      "geometry": {
        "type": "Point",
        "coordinates": [
          15.8291757,
          50.1990516
        ]
      },
      "properties": {
        "@type": "node",
        "@id": 3895762502,
        "@url": "https://www.openstreetmap.org/node/3895762502",
        "amenity": "post_box",
        "check_date:ref": "2026-06-18",
        "operator": "Česká pošta, s.p.",
        "operator:wikidata": "Q341090",
        "operator:wikipedia": "cs:Česká pošta",
        "removed:ref": "50000:52"
      }
    },
    {
      "type": "Feature",
      "geometry": {
        "type": "Point",
        "coordinates": [
          14.2816922,
          50.8842224
        ]
      },
      "properties": {
        "@type": "node",
        "@id": 4425042396,
        "@url": "https://www.openstreetmap.org/node/4425042396",
        "amenity": "post_box",
        "collection_times:signed": "no",
        "fixme": "ref + existing?",
        "note": "Není v databázi České Pošty. Existuje na místě?"
      }
    },
    {
      "type": "Feature",
      "geometry": {
        "type": "Point",
        "coordinates": [
          15.8342163,
          50.2093578
        ]
      },
      "properties": {
        "@type": "node",
        "@id": 4973714319,
        "@url": "https://www.openstreetmap.org/node/4973714319",
        "amenity": "post_box",
        "check_date:ref": "2026-06-18",
        "operator": "Česká pošta, s.p.",
        "operator:wikidata": "Q341090",
        "operator:wikipedia": "cs:Česká pošta",
        "removed:ref": "50000:15"
      }
    },
    {
      "type": "Feature",
      "geometry": {
        "type": "Point",
        "coordinates": [
          16.6185646,
          49.2030898
        ]
      },
      "properties": {
        "@type": "node",
        "@id": 5079815917,
        "@url": "https://www.openstreetmap.org/node/5079815917",
        "amenity": "post_box",
        "check_date:ref": "2026-06-18",
        "indoor": "no",
        "operator": "Česká pošta, s.p.",
        "operator:wikidata": "Q341090",
        "operator:wikipedia": "cs:Česká pošta",
        "removed:ref": "60013:55"
      }
    },
    {
      "type": "Feature",
      "geometry": {
        "type": "Point",
        "coordinates": [
          16.7175221,
          49.5427707
        ]
      },
      "properties": {
        "@type": "node",
        "@id": 5159127642,
        "@url": "https://www.openstreetmap.org/node/5159127642",
        "amenity": "post_box",
        "check_date:ref": "2026-04-03",
        "operator": "Česká pošta, s.p.",
        "operator:wikidata": "Q341090",
        "operator:wikipedia": "cs:Česká pošta",
        "removed:ref": "67999:120"
      }
    },
    {
      "type": "Feature",
      "geometry": {
        "type": "Point",
        "coordinates": [
          15.1896617,
          50.7339308
        ]
      },
      "properties": {
        "@type": "node",
        "@id": 5338922520,
        "@url": "https://www.openstreetmap.org/node/5338922520",
        "amenity": "post_box",
        "check_date:ref": "2026-07-10",
        "operator": "Česká pošta, s.p.",
        "operator:wikidata": "Q341090",
        "removed:ref": "46600:15"
      }
    },
    {
      "type": "Feature",
      "geometry": {
        "type": "Point",
        "coordinates": [
          14.1215728,
          50.1328377
        ]
      },
      "properties": {
        "@type": "node",
        "@id": 5414740778,
        "@url": "https://www.openstreetmap.org/node/5414740778",
        "amenity": "post_box",
        "check_date:ref": "2026-05-17",
        "collection_times": "Mo-Fr 08:00",
        "operator": "Česká pošta, s.p.",
        "operator:wikidata": "Q341090",
        "removed:ref": "27200:11"
      }
    },
    {
      "type": "Feature",
      "geometry": {
        "type": "Point",
        "coordinates": [
          15.3667943,
          50.4443191
        ]
      },
      "properties": {
        "@type": "node",
        "@id": 5417948805,
        "@url": "https://www.openstreetmap.org/node/5417948805",
        "amenity": "post_box",
        "check_date:ref": "2026-07-10",
        "operator": "Česká pošta, s.p.",
        "operator:wikidata": "Q341090",
        "removed:ref": "50600:41"
      }
    },
    {
      "type": "Feature",
      "geometry": {
        "type": "Point",
        "coordinates": [
          14.4986405,
          50.0534212
        ]
      },
      "properties": {
        "@type": "node",
        "@id": 5427749520,
        "@url": "https://www.openstreetmap.org/node/5427749520",
        "amenity": "post_box",
        "check_date:ref": "2026-04-02",
        "operator": "Česká pošta, s.p.",
        "operator:wikidata": "Q341090",
        "operator:wikipedia": "cs:Česká pošta",
        "removed:ref": "10027:7"
      }
    },
    {
      "type": "Feature",
      "geometry": {
        "type": "Point",
        "coordinates": [
          16.6184816,
          49.4106189
        ]
      },
      "properties": {
        "@type": "node",
        "@id": 5436256321,
        "@url": "https://www.openstreetmap.org/node/5436256321",
        "amenity": "post_box",
        "check_date:ref": "2026-04-03",
        "operator": "Česká pošta, s.p.",
        "operator:wikidata": "Q341090",
        "operator:wikipedia": "cs:Česká pošta",
        "removed:ref": "67999:209"
      }
    },
    {
      "type": "Feature",
      "geometry": {
        "type": "Point",
        "coordinates": [
          14.4063357,
          50.0753773
        ]
      },
      "properties": {
        "@type": "node",
        "@id": 5451973666,
        "@url": "https://www.openstreetmap.org/node/5451973666",
        "amenity": "post_box",
        "check_date:ref": "2026-06-17",
        "operator": "Česká pošta, s.p.",
        "operator:wikidata": "Q341090",
        "operator:wikipedia": "cs:Česká pošta",
        "removed:ref": "16099:62"
      }
    },
    {
      "type": "Feature",
      "geometry": {
        "type": "Point",
        "coordinates": [
          14.4062928,
          50.0753737
        ]
      },
      "properties": {
        "@type": "node",
        "@id": 5451973667,
        "@url": "https://www.openstreetmap.org/node/5451973667",
        "amenity": "post_box",
        "check_date:ref": "2026-06-17",
        "operator": "Česká pošta, s.p.",
        "operator:wikidata": "Q341090",
        "operator:wikipedia": "cs:Česká pošta",
        "removed:ref": "16099:61"
      }
    },
    {
      "type": "Feature",
      "geometry": {
        "type": "Point",
        "coordinates": [
          14.3316938,
          50.0443275
        ]
      },
      "properties": {
        "@type": "node",
        "@id": 5452046730,
        "@url": "https://www.openstreetmap.org/node/5452046730",
        "amenity": "post_box",
        "check_date:ref": "2026-06-17",
        "operator": "Česká pošta, s.p.",
        "operator:wikidata": "Q341090",
        "operator:wikipedia": "cs:Česká pošta",
        "removed:ref": "16099:108"
      }
    },
    {
      "type": "Feature",
      "geometry": {
        "type": "Point",
        "coordinates": [
          14.0762963,
          49.9577643
        ]
      },
      "properties": {
        "@type": "node",
        "@id": 5469974795,
        "@url": "https://www.openstreetmap.org/node/5469974795",
        "amenity": "post_box",
        "check_date:ref": "2026-05-17",
        "collection_times": "Mo-Fr 08:00",
        "operator": "Česká pošta, s.p.",
        "operator:wikidata": "Q341090",
        "operator:wikipedia": "cs:Česká pošta",
        "removed:ref": "26600:6"
      }
    },
    {
      "type": "Feature",
      "geometry": {
        "type": "Point",
        "coordinates": [
          14.5999714,
          50.7509578
        ]
      },
      "properties": {
        "@type": "node",
        "@id": 5485791138,
        "@url": "https://www.openstreetmap.org/node/5485791138",
        "amenity": "post_box",
        "check_date:ref": "2026-07-10",
        "operator": "Česká pošta, s.p.",
        "operator:wikidata": "Q341090",
        "removed:ref": "47300:22"
      }
    },
    {
      "type": "Feature",
      "geometry": {
        "type": "Point",
        "coordinates": [
          14.4560979,
          50.7972774
        ]
      },
      "properties": {
        "@type": "node",
        "@id": 5492910704,
        "@url": "https://www.openstreetmap.org/node/5492910704",
        "amenity": "post_box",
        "check_date:ref": "2026-07-10",
        "operator": "Česká pošta, s.p.",
        "operator:wikidata": "Q341090",
        "removed:ref": "47300:37"
      }
    },
    {
      "type": "Feature",
      "geometry": {
        "type": "Point",
        "coordinates": [
          15.0135233,
          50.0991978
        ]
      },
      "properties": {
        "@type": "node",
        "@id": 5494748831,
        "@url": "https://www.openstreetmap.org/node/5494748831",
        "amenity": "post_box",
        "check_date:ref": "2026-06-17",
        "operator": "Česká pošta, s.p.",
        "operator:wikidata": "Q341090",
        "removed:ref": "29000:38"
      }
    },
    {
      "type": "Feature",
      "geometry": {
        "type": "Point",
        "coordinates": [
          16.2338563,
          50.532556
        ]
      },
      "properties": {
        "@type": "node",
        "@id": 5817745327,
        "@url": "https://www.openstreetmap.org/node/5817745327",
        "amenity": "post_box",
        "check_date:ref": "2026-04-02",
        "indoor": "no",
        "operator": "Česká pošta, s.p.",
        "operator:wikidata": "Q341090",
        "removed:ref": "54700:18"
      }
    },
    {
      "type": "Feature",
      "geometry": {
        "type": "Point",
        "coordinates": [
          16.7662377,
          49.3806875
        ]
      },
      "properties": {
        "@type": "node",
        "@id": 5910500518,
        "@url": "https://www.openstreetmap.org/node/5910500518",
        "amenity": "post_box",
        "check_date:ref": "2026-05-17",
        "collection_times": "Mo-Fr 08:00",
        "operator": "Česká pošta, s.p.",
        "operator:wikidata": "Q341090",
        "operator:wikipedia": "cs:Česká pošta",
        "removed:ref": "67999:204"
      }
    },
    {
      "type": "Feature",
      "geometry": {
        "type": "Point",
        "coordinates": [
          13.3900675,
          49.7772102
        ]
      },
      "properties": {
        "@type": "node",
        "@id": 5929106379,
        "@url": "https://www.openstreetmap.org/node/5929106379",
        "amenity": "post_box",
        "check_date:ref": "2026-06-18",
        "operator": "Česká pošta, s.p.",
        "operator:wikidata": "Q341090",
        "removed:ref": "30095:34"
      }
    },
    {
      "type": "Feature",
      "geometry": {
        "type": "Point",
        "coordinates": [
          16.6035381,
          49.4811307
        ]
      },
      "properties": {
        "@type": "node",
        "@id": 5939582413,
        "@url": "https://www.openstreetmap.org/node/5939582413",
        "amenity": "post_box",
        "check_date:ref": "2026-05-17",
        "collection_times": "Mo-Fr 08:00",
        "operator": "Česká pošta, s.p.",
        "operator:wikidata": "Q341090",
        "operator:wikipedia": "cs:Česká pošta",
        "removed:ref": "67999:34"
      }
    },
    {
      "type": "Feature",
      "geometry": {
        "type": "Point",
        "coordinates": [
          16.533975,
          49.4516412
        ]
      },
      "properties": {
        "@type": "node",
        "@id": 5952045092,
        "@url": "https://www.openstreetmap.org/node/5952045092",
        "amenity": "post_box",
        "check_date:ref": "2026-05-17",
        "collection_times": "Mo-Fr 08:00",
        "operator": "Česká pošta, s.p.",
        "operator:wikidata": "Q341090",
        "operator:wikipedia": "cs:Česká pošta",
        "removed:ref": "67999:124"
      }
    },
    {
      "type": "Feature",
      "geometry": {
        "type": "Point",
        "coordinates": [
          16.5182355,
          49.5114917
        ]
      },
      "properties": {
        "@type": "node",
        "@id": 5973296514,
        "@url": "https://www.openstreetmap.org/node/5973296514",
        "amenity": "post_box",
        "check_date:ref": "2026-05-17",
        "collection_times": "Mo-Fr 08:00",
        "operator": "Česká pošta, s.p.",
        "operator:wikidata": "Q341090",
        "operator:wikipedia": "cs:Česká pošta",
        "removed:ref": "67999:151"
      }
    },
    {
      "type": "Feature",
      "geometry": {
        "type": "Point",
        "coordinates": [
          17.3494231,
          49.1384378
        ]
      },
      "properties": {
        "@type": "node",
        "@id": 6017210335,
        "@url": "https://www.openstreetmap.org/node/6017210335",
        "amenity": "post_box",
        "check_date:ref": "2026-07-10",
        "operator": "Česká pošta, s.p.",
        "operator:wikidata": "Q341090",
        "removed:ref": "68600:61"
      }
    },
    {
      "type": "Feature",
      "geometry": {
        "type": "Point",
        "coordinates": [
          16.5994939,
          49.508071
        ]
      },
      "properties": {
        "@type": "node",
        "@id": 6032848868,
        "@url": "https://www.openstreetmap.org/node/6032848868",
        "amenity": "post_box",
        "check_date:ref": "2026-05-17",
        "collection_times": "Mo-Fr 08:00",
        "operator": "Česká pošta, s.p.",
        "operator:wikidata": "Q341090",
        "operator:wikipedia": "cs:Česká pošta",
        "removed:ref": "67999:43"
      }
    },
    {
      "type": "Feature",
      "geometry": {
        "type": "Point",
        "coordinates": [
          16.6762769,
          49.5827285
        ]
      },
      "properties": {
        "@type": "node",
        "@id": 6032849792,
        "@url": "https://www.openstreetmap.org/node/6032849792",
        "amenity": "post_box",
        "check_date:ref": "2026-04-03",
        "operator": "Česká pošta, s.p.",
        "operator:wikidata": "Q341090",
        "operator:wikipedia": "cs:Česká pošta",
        "removed:ref": "67999:118"
      }
    },
    {
      "type": "Feature",
      "geometry": {
        "type": "Point",
        "coordinates": [
          16.6727204,
          49.6117247
        ]
      },
      "properties": {
        "@type": "node",
        "@id": 6512133140,
        "@url": "https://www.openstreetmap.org/node/6512133140",
        "amenity": "post_box",
        "check_date:ref": "2026-04-03",
        "operator": "Česká pošta, s.p.",
        "operator:wikidata": "Q341090",
        "operator:wikipedia": "cs:Česká pošta",
        "removed:ref": "67999:105"
      }
    },
    {
      "type": "Feature",
      "geometry": {
        "type": "Point",
        "coordinates": [
          16.6650648,
          49.6107291
        ]
      },
      "properties": {
        "@type": "node",
        "@id": 6512133141,
        "@url": "https://www.openstreetmap.org/node/6512133141",
        "amenity": "post_box",
        "check_date:ref": "2026-04-03",
        "operator": "Česká pošta, s.p.",
        "operator:wikidata": "Q341090",
        "operator:wikipedia": "cs:Česká pošta",
        "removed:ref": "67999:104"
      }
    },
    {
      "type": "Feature",
      "geometry": {
        "type": "Point",
        "coordinates": [
          18.4047034,
          49.79513
        ]
      },
      "properties": {
        "@type": "node",
        "@id": 6531998905,
        "@url": "https://www.openstreetmap.org/node/6531998905",
        "amenity": "post_box",
        "check_date:ref": "2026-04-03",
        "operator": "Česká pošta, s.p.",
        "operator:wikidata": "Q341090",
        "post_box:type": "wall",
        "removed:ref": "73600:46"
      }
    },
    {
      "type": "Feature",
      "geometry": {
        "type": "Point",
        "coordinates": [
          13.2707575,
          50.3853153
        ]
      },
      "properties": {
        "@type": "node",
        "@id": 6742711187,
        "@url": "https://www.openstreetmap.org/node/6742711187",
        "amenity": "post_box",
        "check_date:ref": "2026-06-20",
        "operator": "Česká pošta, s.p.",
        "operator:wikidata": "Q341090",
        "operator:wikipedia": "cs:Česká pošta",
        "removed:ref": "43150:18"
      }
    },
    {
      "type": "Feature",
      "geometry": {
        "type": "Point",
        "coordinates": [
          17.121691,
          48.8558531
        ]
      },
      "properties": {
        "@type": "node",
        "@id": 6837346244,
        "@url": "https://www.openstreetmap.org/node/6837346244",
        "amenity": "post_box",
        "check_date:ref": "2026-06-18",
        "operator": "Česká pošta, s.p.",
        "operator:wikidata": "Q341090",
        "operator:wikipedia": "cs:Česká pošta",
        "post_box:type": "wall",
        "removed:ref": "69577:3"
      }
    },
    {
      "type": "Feature",
      "geometry": {
        "type": "Point",
        "coordinates": [
          16.6317375,
          49.3817862
        ]
      },
      "properties": {
        "@type": "node",
        "@id": 6964784312,
        "@url": "https://www.openstreetmap.org/node/6964784312",
        "amenity": "post_box",
        "check_date:ref": "2026-05-17",
        "collection_times": "Mo-Fr 08:00",
        "operator": "Česká pošta, s.p.",
        "operator:wikidata": "Q341090",
        "operator:wikipedia": "cs:Česká pošta",
        "removed:ref": "67999:187"
      }
    },
    {
      "type": "Feature",
      "geometry": {
        "type": "Point",
        "coordinates": [
          16.6348264,
          49.4149405
        ]
      },
      "properties": {
        "@type": "node",
        "@id": 7058401816,
        "@url": "https://www.openstreetmap.org/node/7058401816",
        "amenity": "post_box",
        "check_date:ref": "2026-04-03",
        "operator": "Česká pošta, s.p.",
        "operator:wikidata": "Q341090",
        "operator:wikipedia": "cs:Česká pošta",
        "removed:ref": "67999:213"
      }
    },
    {
      "type": "Feature",
      "geometry": {
        "type": "Point",
        "coordinates": [
          14.4439318,
          50.7624162
        ]
      },
      "properties": {
        "@type": "node",
        "@id": 7099910931,
        "@url": "https://www.openstreetmap.org/node/7099910931",
        "amenity": "post_box",
        "check_date:ref": "2026-07-10",
        "operator": "Česká pošta, s.p.",
        "operator:wikidata": "Q341090",
        "removed:ref": "47300:39"
      }
    },
    {
      "type": "Feature",
      "geometry": {
        "type": "Point",
        "coordinates": [
          16.5755079,
          49.413963
        ]
      },
      "properties": {
        "@type": "node",
        "@id": 7105232552,
        "@url": "https://www.openstreetmap.org/node/7105232552",
        "amenity": "post_box",
        "check_date:ref": "2026-04-02",
        "operator": "Česká pošta, s.p.",
        "operator:wikidata": "Q341090",
        "operator:wikipedia": "cs:Česká pošta",
        "removed:ref": "67999:48"
      }
    },
    {
      "type": "Feature",
      "geometry": {
        "type": "Point",
        "coordinates": [
          13.6615515,
          50.5911074
        ]
      },
      "properties": {
        "@type": "node",
        "@id": 7833265400,
        "@url": "https://www.openstreetmap.org/node/7833265400",
        "amenity": "post_box",
        "check_date:ref": "2026-07-10",
        "operator": "Česká pošta, s.p.",
        "operator:wikidata": "Q341090",
        "removed:ref": "43600:17"
      }
    },
    {
      "type": "Feature",
      "geometry": {
        "type": "Point",
        "coordinates": [
          15.804077,
          50.189695
        ]
      },
      "properties": {
        "@type": "node",
        "@id": 7859231608,
        "@url": "https://www.openstreetmap.org/node/7859231608",
        "amenity": "post_box",
        "check_date:ref": "2026-06-20",
        "operator": "Česká pošta, s.p.",
        "operator:wikidata": "Q341090",
        "removed:ref": "50382:11"
      }
    },
    {
      "type": "Feature",
      "geometry": {
        "type": "Point",
        "coordinates": [
          15.6304609,
          50.2813697
        ]
      },
      "properties": {
        "@type": "node",
        "@id": 7859472035,
        "@url": "https://www.openstreetmap.org/node/7859472035",
        "amenity": "post_box",
        "check_date:ref": "2026-06-18",
        "operator": "Česká pošta, s.p.",
        "operator:wikidata": "Q341090",
        "removed:ref": "50382:67"
      }
    },
    {
      "type": "Feature",
      "geometry": {
        "type": "Point",
        "coordinates": [
          15.5783111,
          50.2994388
        ]
      },
      "properties": {
        "@type": "node",
        "@id": 7859472045,
        "@url": "https://www.openstreetmap.org/node/7859472045",
        "amenity": "post_box",
        "check_date:ref": "2026-06-18",
        "operator": "Česká pošta, s.p.",
        "operator:wikidata": "Q341090",
        "removed:ref": "50382:65"
      }
    },
    {
      "type": "Feature",
      "geometry": {
        "type": "Point",
        "coordinates": [
          15.6630213,
          50.3131134
        ]
      },
      "properties": {
        "@type": "node",
        "@id": 7862638958,
        "@url": "https://www.openstreetmap.org/node/7862638958",
        "amenity": "post_box",
        "check_date:ref": "2026-06-18",
        "operator": "Česká pošta, s.p.",
        "operator:wikidata": "Q341090",
        "removed:ref": "50382:73"
      }
    },
    {
      "type": "Feature",
      "geometry": {
        "type": "Point",
        "coordinates": [
          15.6709776,
          50.3039193
        ]
      },
      "properties": {
        "@type": "node",
        "@id": 7862638972,
        "@url": "https://www.openstreetmap.org/node/7862638972",
        "amenity": "post_box",
        "check_date:ref": "2026-06-18",
        "operator": "Česká pošta, s.p.",
        "operator:wikidata": "Q341090",
        "removed:ref": "50382:72"
      }
    },
    {
      "type": "Feature",
      "geometry": {
        "type": "Point",
        "coordinates": [
          15.6697312,
          50.2545753
        ]
      },
      "properties": {
        "@type": "node",
        "@id": 7862638980,
        "@url": "https://www.openstreetmap.org/node/7862638980",
        "amenity": "post_box",
        "check_date:ref": "2026-06-18",
        "operator": "Česká pošta, s.p.",
        "operator:wikidata": "Q341090",
        "removed:ref": "50382:54"
      }
    },
    {
      "type": "Feature",
      "geometry": {
        "type": "Point",
        "coordinates": [
          15.7506882,
          50.2146187
        ]
      },
      "properties": {
        "@type": "node",
        "@id": 7862845949,
        "@url": "https://www.openstreetmap.org/node/7862845949",
        "amenity": "post_box",
        "check_date:ref": "2026-06-18",
        "collection_times": "Mo-Fr 08:00",
        "operator": "Česká pošta, s.p.",
        "operator:wikidata": "Q341090",
        "removed:ref": "50382:19"
      }
    },
    {
      "type": "Feature",
      "geometry": {
        "type": "Point",
        "coordinates": [
          15.7695346,
          50.3435201
        ]
      },
      "properties": {
        "@type": "node",
        "@id": 7863002528,
        "@url": "https://www.openstreetmap.org/node/7863002528",
        "amenity": "post_box",
        "check_date:ref": "2026-06-18",
        "operator": "Česká pošta, s.p.",
        "operator:wikidata": "Q341090",
        "removed:ref": "50382:119"
      }
    },
    {
      "type": "Feature",
      "geometry": {
        "type": "Point",
        "coordinates": [
          15.8470835,
          50.2944714
        ]
      },
      "properties": {
        "@type": "node",
        "@id": 7863032853,
        "@url": "https://www.openstreetmap.org/node/7863032853",
        "amenity": "post_box",
        "check_date:ref": "2026-06-18",
        "collection_times": "Mo-Fr 08:00",
        "operator": "Česká pošta, s.p.",
        "operator:wikidata": "Q341090",
        "removed:ref": "50382:110"
      }
    },
    {
      "type": "Feature",
      "geometry": {
        "type": "Point",
        "coordinates": [
          15.1367368,
          50.6279148
        ]
      },
      "properties": {
        "@type": "node",
        "@id": 8071320506,
        "@url": "https://www.openstreetmap.org/node/8071320506",
        "amenity": "post_box",
        "operator": "Česká pošta, s.p.",
        "operator:wikidata": "Q341090",
        "postal_code": "46833"
      }
    },
    {
      "type": "Feature",
      "geometry": {
        "type": "Point",
        "coordinates": [
          15.1367408,
          50.6279582
        ]
      },
      "properties": {
        "@type": "node",
        "@id": 8071320507,
        "@url": "https://www.openstreetmap.org/node/8071320507",
        "amenity": "post_box",
        "operator": "Česká pošta, s.p.",
        "operator:wikidata": "Q341090",
        "postal_code": "46833"
      }
    },
    {
      "type": "Feature",
      "geometry": {
        "type": "Point",
        "coordinates": [
          17.7463583,
          49.5335817
        ]
      },
      "properties": {
        "@type": "node",
        "@id": 8269362867,
        "@url": "https://www.openstreetmap.org/node/8269362867",
        "amenity": "post_box",
        "check_date:ref": "2026-04-03",
        "operator": "Česká pošta, s.p.",
        "operator:wikidata": "Q341090",
        "operator:wikipedia": "cs:Česká pošta",
        "removed:ref": "75300:19"
      }
    },
    {
      "type": "Feature",
      "geometry": {
        "type": "Point",
        "coordinates": [
          15.5788537,
          50.2711785
        ]
      },
      "properties": {
        "@type": "node",
        "@id": 8310335790,
        "@url": "https://www.openstreetmap.org/node/8310335790",
        "amenity": "post_box",
        "check_date:ref": "2026-06-18",
        "operator": "Česká pošta, s.p.",
        "operator:wikidata": "Q341090",
        "removed:ref": "50382:61"
      }
    },
    {
      "type": "Feature",
      "geometry": {
        "type": "Point",
        "coordinates": [
          15.6955873,
          50.1914409
        ]
      },
      "properties": {
        "@type": "node",
        "@id": 8311075937,
        "@url": "https://www.openstreetmap.org/node/8311075937",
        "amenity": "post_box",
        "check_date:ref": "2026-06-18",
        "operator": "Česká pošta, s.p.",
        "operator:wikidata": "Q341090",
        "removed:ref": "50382:29"
      }
    },
    {
      "type": "Feature",
      "geometry": {
        "type": "Point",
        "coordinates": [
          15.7111574,
          50.149682
        ]
      },
      "properties": {
        "@type": "node",
        "@id": 8313841699,
        "@url": "https://www.openstreetmap.org/node/8313841699",
        "amenity": "post_box",
        "check_date:ref": "2026-06-18",
        "operator": "Česká pošta, s.p.",
        "operator:wikidata": "Q341090",
        "removed:ref": "50382:41"
      }
    },
    {
      "type": "Feature",
      "geometry": {
        "type": "Point",
        "coordinates": [
          15.8308699,
          50.2886773
        ]
      },
      "properties": {
        "@type": "node",
        "@id": 8314164338,
        "@url": "https://www.openstreetmap.org/node/8314164338",
        "amenity": "post_box",
        "check_date:ref": "2026-06-18",
        "operator": "Česká pošta, s.p.",
        "operator:wikidata": "Q341090",
        "removed:ref": "50382:111"
      }
    },
    {
      "type": "Feature",
      "geometry": {
        "type": "Point",
        "coordinates": [
          17.0871591,
          49.7014565
        ]
      },
      "properties": {
        "@type": "node",
        "@id": 8316298322,
        "@url": "https://www.openstreetmap.org/node/8316298322",
        "amenity": "post_box",
        "check_date:ref": "2026-04-03",
        "operator": "Česká pošta, s.p.",
        "operator:wikidata": "Q341090",
        "removed:ref": "78400:13"
      }
    },
    {
      "type": "Feature",
      "geometry": {
        "type": "Point",
        "coordinates": [
          15.7259517,
          50.1426556
        ]
      },
      "properties": {
        "@type": "node",
        "@id": 8319724867,
        "@url": "https://www.openstreetmap.org/node/8319724867",
        "amenity": "post_box",
        "check_date:ref": "2026-06-18",
        "operator": "Česká pošta, s.p.",
        "operator:wikidata": "Q341090",
        "removed:ref": "50382:40"
      }
    },
    {
      "type": "Feature",
      "geometry": {
        "type": "Point",
        "coordinates": [
          15.8107687,
          50.4335615
        ]
      },
      "properties": {
        "@type": "node",
        "@id": 8341626884,
        "@url": "https://www.openstreetmap.org/node/8341626884",
        "amenity": "post_box",
        "check_date:ref": "2026-07-10",
        "operator": "Česká pošta, s.p.",
        "operator:wikidata": "Q341090",
        "operator:wikipedia": "cs:Česká pošta",
        "removed:ref": "54400:10"
      }
    },
    {
      "type": "Feature",
      "geometry": {
        "type": "Point",
        "coordinates": [
          15.6935408,
          50.1509301
        ]
      },
      "properties": {
        "@type": "node",
        "@id": 8401263010,
        "@url": "https://www.openstreetmap.org/node/8401263010",
        "amenity": "post_box",
        "check_date:ref": "2026-06-18",
        "operator": "Česká pošta, s.p.",
        "operator:wikidata": "Q341090",
        "removed:ref": "50382:34"
      }
    },
    {
      "type": "Feature",
      "geometry": {
        "type": "Point",
        "coordinates": [
          15.6508406,
          49.3613433
        ]
      },
      "properties": {
        "@type": "node",
        "@id": 8401570131,
        "@url": "https://www.openstreetmap.org/node/8401570131",
        "amenity": "post_box",
        "check_date:ref": "2026-07-10",
        "operator": "Česká pošta, s.p.",
        "operator:wikidata": "Q341090",
        "removed:ref": "58800:93"
      }
    },
    {
      "type": "Feature",
      "geometry": {
        "type": "Point",
        "coordinates": [
          15.7386262,
          50.6961897
        ]
      },
      "properties": {
        "@type": "node",
        "@id": 8419890352,
        "@url": "https://www.openstreetmap.org/node/8419890352",
        "amenity": "post_box",
        "check_date:ref": "2026-07-10",
        "operator": "Česká pošta, s.p.",
        "operator:wikidata": "Q341090",
        "removed:ref": "54100:23"
      }
    },
    {
      "type": "Feature",
      "geometry": {
        "type": "Point",
        "coordinates": [
          15.7302689,
          50.6916603
        ]
      },
      "properties": {
        "@type": "node",
        "@id": 8419890353,
        "@url": "https://www.openstreetmap.org/node/8419890353",
        "amenity": "post_box",
        "check_date:ref": "2026-07-10",
        "operator": "Česká pošta, s.p.",
        "operator:wikidata": "Q341090",
        "operator:wikipedia": "cs:Česká pošta",
        "removed:ref": "54100:25"
      }
    },
    {
      "type": "Feature",
      "geometry": {
        "type": "Point",
        "coordinates": [
          15.7317332,
          50.5416322
        ]
      },
      "properties": {
        "@type": "node",
        "@id": 8419895727,
        "@url": "https://www.openstreetmap.org/node/8419895727",
        "amenity": "post_box",
        "check_date:ref": "2026-07-10",
        "operator": "Česká pošta, s.p.",
        "operator:wikidata": "Q341090",
        "operator:wikipedia": "cs:Česká pošta",
        "removed:ref": "54100:100"
      }
    },
    {
      "type": "Feature",
      "geometry": {
        "type": "Point",
        "coordinates": [
          16.5118797,
          49.4138902
        ]
      },
      "properties": {
        "@type": "node",
        "@id": 8565427310,
        "@url": "https://www.openstreetmap.org/node/8565427310",
        "amenity": "post_box",
        "check_date:ref": "2026-04-02",
        "operator": "Česká pošta, s.p.",
        "operator:wikidata": "Q341090",
        "operator:wikipedia": "cs:Česká pošta",
        "removed:ref": "67999:55"
      }
    },
    {
      "type": "Feature",
      "geometry": {
        "type": "Point",
        "coordinates": [
          16.4143803,
          49.5614618
        ]
      },
      "properties": {
        "@type": "node",
        "@id": 8639463170,
        "@url": "https://www.openstreetmap.org/node/8639463170",
        "amenity": "post_box",
        "check_date:ref": "2026-05-17",
        "collection_times": "Mo-Fr 08:00",
        "operator": "Česká pošta, s.p.",
        "operator:wikidata": "Q341090",
        "operator:wikipedia": "cs:Česká pošta",
        "removed:ref": "67999:158"
      }
    },
    {
      "type": "Feature",
      "geometry": {
        "type": "Point",
        "coordinates": [
          16.4280507,
          49.561908
        ]
      },
      "properties": {
        "@type": "node",
        "@id": 8639463172,
        "@url": "https://www.openstreetmap.org/node/8639463172",
        "amenity": "post_box",
        "check_date:ref": "2026-05-17",
        "collection_times": "Mo-Fr 08:00",
        "operator": "Česká pošta, s.p.",
        "operator:wikidata": "Q341090",
        "operator:wikipedia": "cs:Česká pošta",
        "removed:ref": "67999:156"
      }
    },
    {
      "type": "Feature",
      "geometry": {
        "type": "Point",
        "coordinates": [
          16.5044085,
          49.5630302
        ]
      },
      "properties": {
        "@type": "node",
        "@id": 8639516455,
        "@url": "https://www.openstreetmap.org/node/8639516455",
        "amenity": "post_box",
        "check_date:ref": "2026-05-17",
        "collection_times": "Mo-Fr 08:00",
        "operator": "Česká pošta, s.p.",
        "operator:wikidata": "Q341090",
        "operator:wikipedia": "cs:Česká pošta",
        "removed:ref": "67999:59"
      }
    },
    {
      "type": "Feature",
      "geometry": {
        "type": "Point",
        "coordinates": [
          16.4108988,
          49.5001517
        ]
      },
      "properties": {
        "@type": "node",
        "@id": 8648839010,
        "@url": "https://www.openstreetmap.org/node/8648839010",
        "amenity": "post_box",
        "check_date:ref": "2026-05-17",
        "collection_times": "Mo-Fr 08:00",
        "operator": "Česká pošta, s.p.",
        "operator:wikidata": "Q341090",
        "operator:wikipedia": "cs:Česká pošta",
        "removed:ref": "67999:140"
      }
    },
    {
      "type": "Feature",
      "geometry": {
        "type": "Point",
        "coordinates": [
          16.2461154,
          49.6088876
        ]
      },
      "properties": {
        "@type": "node",
        "@id": 8649753765,
        "@url": "https://www.openstreetmap.org/node/8649753765",
        "amenity": "post_box",
        "check_date:ref": "2026-04-03",
        "operator": "Česká pošta, s.p.",
        "operator:wikidata": "Q341090",
        "removed:ref": "59230:65"
      }
    },
    {
      "type": "Feature",
      "geometry": {
        "type": "Point",
        "coordinates": [
          17.3946937,
          49.1042403
        ]
      },
      "properties": {
        "@type": "node",
        "@id": 8672849851,
        "@url": "https://www.openstreetmap.org/node/8672849851",
        "amenity": "post_box",
        "check_date:ref": "2026-07-10",
        "operator": "Česká pošta, s.p.",
        "operator:wikidata": "Q341090",
        "removed:ref": "68600:120"
      }
    },
    {
      "type": "Feature",
      "geometry": {
        "type": "Point",
        "coordinates": [
          15.7221571,
          49.4866644
        ]
      },
      "properties": {
        "@type": "node",
        "@id": 8736983761,
        "@url": "https://www.openstreetmap.org/node/8736983761",
        "amenity": "post_box",
        "check_date:ref": "2026-04-02",
        "collection_times": "Mo-Fr 08:00",
        "operator": "Česká pošta, s.p.",
        "operator:wikidata": "Q341090",
        "removed:ref": "58800:47"
      }
    },
    {
      "type": "Feature",
      "geometry": {
        "type": "Point",
        "coordinates": [
          17.7177902,
          49.8319635
        ]
      },
      "properties": {
        "@type": "node",
        "@id": 8753970315,
        "@url": "https://www.openstreetmap.org/node/8753970315",
        "amenity": "post_box",
        "check_date:ref": "2026-07-10",
        "operator": "Česká pošta, s.p.",
        "operator:wikidata": "Q341090",
        "removed:ref": "74902:127"
      }
    },
    {
      "type": "Feature",
      "geometry": {
        "type": "Point",
        "coordinates": [
          17.9074941,
          49.9346715
        ]
      },
      "properties": {
        "@type": "node",
        "@id": 8754120018,
        "@url": "https://www.openstreetmap.org/node/8754120018",
        "amenity": "post_box",
        "check_date:ref": "2026-05-17",
        "collection_times": "Mo-Fr 08:00",
        "operator": "Česká pošta, s.p.",
        "operator:wikidata": "Q341090",
        "operator:wikipedia": "cs:Česká pošta",
        "removed:ref": "74600:42"
      }
    },
    {
      "type": "Feature",
      "geometry": {
        "type": "Point",
        "coordinates": [
          17.8072066,
          49.5937502
        ]
      },
      "properties": {
        "@type": "node",
        "@id": 8754290293,
        "@url": "https://www.openstreetmap.org/node/8754290293",
        "amenity": "post_box",
        "check_date:ref": "2026-04-03",
        "operator": "Česká pošta, s.p.",
        "operator:wikidata": "Q341090",
        "operator:wikipedia": "cs:Česká pošta",
        "removed:ref": "75300:20"
      }
    },
    {
      "type": "Feature",
      "geometry": {
        "type": "Point",
        "coordinates": [
          17.3807956,
          49.1597223
        ]
      },
      "properties": {
        "@type": "node",
        "@id": 8756474830,
        "@url": "https://www.openstreetmap.org/node/8756474830",
        "amenity": "post_box",
        "check_date:ref": "2026-07-10",
        "operator": "Česká pošta, s.p.",
        "operator:wikidata": "Q341090",
        "removed:ref": "68600:32"
      }
    },
    {
      "type": "Feature",
      "geometry": {
        "type": "Point",
        "coordinates": [
          17.4151993,
          49.1579327
        ]
      },
      "properties": {
        "@type": "node",
        "@id": 8756474832,
        "@url": "https://www.openstreetmap.org/node/8756474832",
        "amenity": "post_box",
        "check_date:ref": "2026-07-10",
        "operator": "Česká pošta, s.p.",
        "operator:wikidata": "Q341090",
        "operator:wikipedia": "cs:Česká pošta",
        "removed:ref": "68600:36"
      }
    },
    {
      "type": "Feature",
      "geometry": {
        "type": "Point",
        "coordinates": [
          17.4235284,
          49.0764954
        ]
      },
      "properties": {
        "@type": "node",
        "@id": 8762495614,
        "@url": "https://www.openstreetmap.org/node/8762495614",
        "amenity": "post_box",
        "check_date:ref": "2026-07-10",
        "operator": "Česká pošta, s.p.",
        "operator:wikidata": "Q341090",
        "removed:ref": "68600:67"
      }
    },
    {
      "type": "Feature",
      "geometry": {
        "type": "Point",
        "coordinates": [
          15.8164052,
          50.4293687
        ]
      },
      "properties": {
        "@type": "node",
        "@id": 8770516846,
        "@url": "https://www.openstreetmap.org/node/8770516846",
        "amenity": "post_box",
        "check_date:ref": "2026-06-18",
        "operator": "Česká pošta, s.p.",
        "operator:wikidata": "Q341090",
        "operator:wikipedia": "cs:Česká pošta",
        "removed:ref": "54400:7"
      }
    },
    {
      "type": "Feature",
      "geometry": {
        "type": "Point",
        "coordinates": [
          17.7597939,
          49.1018116
        ]
      },
      "properties": {
        "@type": "node",
        "@id": 8828073713,
        "@url": "https://www.openstreetmap.org/node/8828073713",
        "amenity": "post_box",
        "check_date:ref": "2026-06-20",
        "operator": "Česká pošta, s.p.",
        "operator:wikidata": "Q341090",
        "removed:ref": "76320:41"
      }
    },
    {
      "type": "Feature",
      "geometry": {
        "type": "Point",
        "coordinates": [
          15.8922046,
          50.2032826
        ]
      },
      "properties": {
        "@type": "node",
        "@id": 8948878573,
        "@url": "https://www.openstreetmap.org/node/8948878573",
        "access:conditional": "yes @ (Jul-Aug)",
        "amenity": "post_box",
        "check_date:ref": "2026-06-18",
        "operator": "Česká pošta, s.p.",
        "operator:wikidata": "Q341090",
        "removed:ref": "50382:158"
      }
    },
    {
      "type": "Feature",
      "geometry": {
        "type": "Point",
        "coordinates": [
          17.1427939,
          48.8640239
        ]
      },
      "properties": {
        "@type": "node",
        "@id": 9805690317,
        "@url": "https://www.openstreetmap.org/node/9805690317",
        "amenity": "post_box",
        "fixme": "ref + existing?",
        "note": "Není v databázi České Pošty. Existuje na místě?"
      }
    },
    {
      "type": "Feature",
      "geometry": {
        "type": "Point",
        "coordinates": [
          16.8085989,
          49.4129309
        ]
      },
      "properties": {
        "@type": "node",
        "@id": 9861632677,
        "@url": "https://www.openstreetmap.org/node/9861632677",
        "amenity": "post_box",
        "check_date:ref": "2026-06-20",
        "operator": "Česká pošta, s.p.",
        "operator:wikidata": "Q341090",
        "operator:wikipedia": "cs:Česká pošta",
        "removed:ref": "79600:142"
      }
    },
    {
      "type": "Feature",
      "geometry": {
        "type": "Point",
        "coordinates": [
          13.9881317,
          49.5985528
        ]
      },
      "properties": {
        "@type": "node",
        "@id": 11266569447,
        "@url": "https://www.openstreetmap.org/node/11266569447",
        "amenity": "post_box",
        "fixme": "precise position + ref + existing?",
        "note": "Není v databázi České Pošty. Existuje na místě?"
      }
    },
    {
      "type": "Feature",
      "geometry": {
        "type": "Point",
        "coordinates": [
          14.2263328,
          49.913488
        ]
      },
      "properties": {
        "@type": "node",
        "@id": 11283907725,
        "@url": "https://www.openstreetmap.org/node/11283907725",
        "amenity": "post_box",
        "fixme": "ref + existing?",
        "note": "Není v databázi České Pošty. Existuje na místě?",
        "operator": "Česká pošta, s.p.",
        "operator:wikidata": "Q341090"
      }
    },
    {
      "type": "Feature",
      "geometry": {
        "type": "Point",
        "coordinates": [
          17.454097,
          49.1294361
        ]
      },
      "properties": {
        "@type": "node",
        "@id": 11641031116,
        "@url": "https://www.openstreetmap.org/node/11641031116",
        "amenity": "post_box",
        "check_date:ref": "2026-07-10",
        "operator": "Česká pošta, s.p.",
        "operator:wikidata": "Q341090",
        "removed:ref": "68600:38"
      }
    },
    {
      "type": "Feature",
      "geometry": {
        "type": "Point",
        "coordinates": [
          16.0116492,
          50.1989803
        ]
      },
      "properties": {
        "@type": "node",
        "@id": 11745272400,
        "@url": "https://www.openstreetmap.org/node/11745272400",
        "amenity": "post_box",
        "check_date:ref": "2026-06-18",
        "operator": "Česká pošta, s.p.",
        "operator:wikidata": "Q341090",
        "removed:ref": "50382:93"
      }
    },
    {
      "type": "Feature",
      "geometry": {
        "type": "Point",
        "coordinates": [
          13.8799679,
          49.4227025
        ]
      },
      "properties": {
        "@type": "node",
        "@id": 12251568523,
        "@url": "https://www.openstreetmap.org/node/12251568523",
        "amenity": "post_box",
        "operator": "Česká pošta, s.p.",
        "operator:wikidata": "Q341090"
      }
    },
    {
      "type": "Feature",
      "geometry": {
        "type": "Point",
        "coordinates": [
          15.2135504,
          50.0410239
        ]
      },
      "properties": {
        "@type": "node",
        "@id": 12596107813,
        "@url": "https://www.openstreetmap.org/node/12596107813",
        "amenity": "post_box",
        "check_date": "2025-07-05",
        "check_date:ref": "2026-06-28",
        "colour": "orange",
        "note": "na miste PS neexistuje."
      }
    },
    {
      "type": "Feature",
      "geometry": {
        "type": "Point",
        "coordinates": [
          15.7997433,
          50.0615365
        ]
      },
      "properties": {
        "@type": "node",
        "@id": 12879303995,
        "@url": "https://www.openstreetmap.org/node/12879303995",
        "amenity": "post_box"
      }
    },
    {
      "type": "Feature",
      "geometry": {
        "type": "Point",
        "coordinates": [
          15.7641103,
          50.0249792
        ]
      },
      "properties": {
        "@type": "node",
        "@id": 12893750043,
        "@url": "https://www.openstreetmap.org/node/12893750043",
        "amenity": "post_box"
      }
    },
    {
      "type": "Feature",
      "geometry": {
        "type": "Point",
        "coordinates": [
          14.3752637,
          50.0993161
        ]
      },
      "properties": {
        "@type": "node",
        "@id": 13759228005,
        "@url": "https://www.openstreetmap.org/node/13759228005",
        "amenity": "post_box"
      }
    },
    {
      "type": "Feature",
      "geometry": {
        "type": "Point",
        "coordinates": [
          14.3752774,
          50.0993165
        ]
      },
      "properties": {
        "@type": "node",
        "@id": 13759228508,
        "@url": "https://www.openstreetmap.org/node/13759228508",
        "amenity": "post_box"
      }
    },
    {
      "type": "Feature",
      "geometry": {
        "type": "Point",
        "coordinates": [
          14.3715523,
          50.0969225
        ]
      },
      "properties": {
        "@type": "node",
        "@id": 13759228604,
        "@url": "https://www.openstreetmap.org/node/13759228604",
        "amenity": "post_box",
        "check_date": "2026-04-24",
        "operator": "Česká pošta, s.p."
      }
    },
    {
      "type": "Feature",
      "geometry": {
        "type": "Point",
        "coordinates": [
          13.91249,
          49.8119964
        ]
      },
      "properties": {
        "@type": "node",
        "@id": 13770372224,
        "@url": "https://www.openstreetmap.org/node/13770372224",
        "amenity": "post_box",
        "operator": "Česká pošta, s.p.",
        "operator:wikidata": "Q341090"
      }
    },
    {
      "type": "Feature",
      "geometry": {
        "type": "Point",
        "coordinates": [
          15.4561892,
          49.5316007
        ]
      },
      "properties": {
        "@type": "node",
        "@id": 13774405439,
        "@url": "https://www.openstreetmap.org/node/13774405439",
        "amenity": "post_box"
      }
    },
    {
      "type": "Feature",
      "geometry": {
        "type": "Point",
        "coordinates": [
          12.4746734,
          49.7155134
        ]
      },
      "properties": {
        "@type": "node",
        "@id": 13893197098,
        "@url": "https://www.openstreetmap.org/node/13893197098",
        "amenity": "post_box"
      }
    },
    {
      "type": "Feature",
      "geometry": {
        "type": "Point",
        "coordinates": [
          13.5657865,
          50.627906
        ]
      },
      "properties": {
        "@type": "node",
        "@id": 13936568985,
        "@url": "https://www.openstreetmap.org/node/13936568985",
        "amenity": "post_box"
      }
    }
  ]
}
