{
  "type": "FeatureCollection",
  "features": [
    {
      "type": "Feature",
      "geometry": {
        "type": "Point",
        "coordinates": [
          14.4048884,
          50.0975796
        ]
      },
      "properties": {
        "@type": "node",
        "@id": 9955034081,
        "@url": "https://www.openstreetmap.org/node/9955034081",
        "access": "yes",
        "amenity": "drinking_water",
        "bottle": "yes",
        "button_operated": "yes",
        "check_date": "2026-09-11",
        "description": "Brčko Dejvidká",
        "dog": "no",
        "fee": "no",
        "fountain": "spout",
        "installation:seasonal": "yes",
        "manufacturer": "PVK",
        "material": "metal",
        "mist_spraying_cooler": "yes",
        "model": "brčko",
        "opening_hours": "24/7",
        "ref:prazskapitka": "90",
        "seasonal": "summer",
        "start_date": "2022",
        "water_flow": "normal",
        "wheelchair": "yes"
      }
    },
    {
      "type": "Feature",
      "geometry": {
        "type": "Point",
        "coordinates": [
          14.3754423,
          50.033014
        ]
      },
      "properties": {
        "@type": "node",
        "@id": 11079612636,
        "@url": "https://www.openstreetmap.org/node/11079612636",
        "access": "yes",
        "activation": "button",
        "activation:action": "push",
        "amenity": "drinking_water",
        "bottle": "yes",
        "check_date": "2026",
        "description": "Brčko Tilleho náměstí pěší zóna",
        "dog": "no",
        "fee": "no",
        "fountain": "spout",
        "installation:seasonal": "yes",
        "manufacturer": "PVK",
        "material": "metal",
        "mist_spraying_cooler": "yes",
        "model": "brčko",
        "opening_hours": "24/7",
        "ref:prazskapitka": "121",
        "seasonal": "summer",
        "water_flow": "normal",
        "wheelchair": "yes"
      }
    },
    {
      "type": "Feature",
      "geometry": {
        "type": "Point",
        "coordinates": [
          14.3769347,
          50.0342561
        ]
      },
      "properties": {
        "@type": "node",
        "@id": 11079632435,
        "@url": "https://www.openstreetmap.org/node/11079632435",
        "access": "yes",
        "activation": "button",
        "activation:action": "push",
        "amenity": "drinking_water",
        "bottle": "yes",
        "check_date": "2026",
        "description": "brčko Tilleho náměstí pěší zóna",
        "dog": "no",
        "fee": "no",
        "fountain": "spout",
        "installation:seasonal": "yes",
        "manufacturer": "PVK",
        "material": "metal",
        "mist_spraying_cooler": "yes",
        "model": "brčko",
        "opening_hours": "24/7",
        "ref:prazskapitka": "113",
        "seasonal": "summer",
        "water_flow": "normal",
        "wheelchair": "yes"
      }
    },
    {
      "type": "Feature",
      "geometry": {
        "type": "Point",
        "coordinates": [
          14.3878869,
          50.0877382
        ]
      },
      "properties": {
        "@type": "node",
        "@id": 11903879303,
        "@url": "https://www.openstreetmap.org/node/11903879303",
        "access": "yes",
        "access:conditional": "yes @ (May-Sep)",
        "activation": "button",
        "activation:action": "push",
        "amenity": "drinking_water",
        "bottle": "yes",
        "check_date": "2026-05-12",
        "description": "Brčko Parléřova",
        "dog": "no",
        "fee": "no",
        "fountain": "bottle_refill",
        "installation:seasonal": "yes",
        "manufacturer": "PVK",
        "material": "metal",
        "mist_spraying_cooler": "yes",
        "model": "brčko",
        "name": "Brčko Pohořelec",
        "opening_hours": "24/7",
        "ref:prazskapitka": "334",
        "seasonal": "summer",
        "water_flow": "normal",
        "wheelchair": "yes"
      }
    },
    {
      "type": "Feature",
      "geometry": {
        "type": "Point",
        "coordinates": [
          14.4478962,
          50.0881945
        ]
      },
      "properties": {
        "@type": "node",
        "@id": 12962109997,
        "@url": "https://www.openstreetmap.org/node/12962109997",
        "access": "yes",
        "amenity": "drinking_water",
        "bottle": "yes",
        "button_operated": "yes",
        "check_date": "2025",
        "description": "Brčko Vítkov",
        "dog": "no",
        "fee": "no",
        "fountain": "spout",
        "installation:seasonal": "yes",
        "manufacturer": "PVK",
        "material": "metal",
        "mist_spraying_cooler": "yes",
        "model": "brčko",
        "opening_hours": "24/7",
        "ref:prazskapitka": "290",
        "seasonal": "summer",
        "water_flow": "normal",
        "wheelchair": "yes"
      }
    },
    {
      "type": "Feature",
      "geometry": {
        "type": "Point",
        "coordinates": [
          14.4697541,
          50.1271214
        ]
      },
      "properties": {
        "@type": "node",
        "@id": 14026721430,
        "@url": "https://www.openstreetmap.org/node/14026721430",
        "access": "yes",
        "amenity": "drinking_water",
        "bottle": "yes",
        "button_operated": "yes",
        "check_date": "2026-08-19",
        "description": "Brčko Ládví",
        "dog": "no",
        "fee": "no",
        "fountain": "spout",
        "image": "https://hillview.cz/?photo=hillview-f1f5681f-504a-493b-acae-4a22049f67d0&lat=50.12704826835024&lon=14.46978807449341&zoom=20&bearing=268.61698212522003",
        "installation:seasonal": "yes",
        "manufacturer": "PVK",
        "material": "metal",
        "mist_spraying_cooler": "yes",
        "model": "brčko",
        "opening_hours": "24/7",
        "ref:prazskapitka": "341",
        "seasonal": "summer",
        "water_flow": "normal",
        "wheelchair": "yes"
      }
    },
    {
      "type": "Feature",
      "geometry": {
        "type": "Point",
        "coordinates": [
          14.3749959,
          50.0986039
        ]
      },
      "properties": {
        "@type": "node",
        "@id": 14138153154,
        "@url": "https://www.openstreetmap.org/node/14138153154",
        "access": "yes",
        "amenity": "drinking_water",
        "bottle": "yes",
        "button_operated": "yes",
        "check_date": "2025",
        "description": "Brčko Hadovka",
        "dog": "no",
        "fee": "no",
        "fountain": "spout",
        "installation:seasonal": "yes",
        "manufacturer": "PVK",
        "material": "metal",
        "mist_spraying_cooler": "yes",
        "model": "brčko",
        "opening_hours": "24/7",
        "ref:prazskapitka": "43",
        "seasonal": "summer",
        "water_flow": "normal",
        "wheelchair": "yes"
      }
    },
    {
      "type": "Feature",
      "geometry": {
        "type": "Point",
        "coordinates": [
          14.3964467,
          50.1011648
        ]
      },
      "properties": {
        "@type": "node",
        "@id": 14138172418,
        "@url": "https://www.openstreetmap.org/node/14138172418",
        "access": "yes",
        "amenity": "drinking_water",
        "bottle": "yes",
        "button_operated": "yes",
        "check_date": "2024",
        "description": "brčko Vítězné náměstí",
        "dog": "no",
        "fee": "no",
        "fountain": "spout",
        "installation:seasonal": "yes",
        "manufacturer": "PVK",
        "material": "metal",
        "mist_spraying_cooler": "yes",
        "model": "brčko",
        "opening_hours": "24/7",
        "ref:prazskapitka": "169",
        "seasonal": "summer",
        "water_flow": "normal",
        "wheelchair": "yes"
      }
    },
    {
      "type": "Feature",
      "geometry": {
        "type": "Point",
        "coordinates": [
          14.3519201,
          50.0715365
        ]
      },
      "properties": {
        "@type": "node",
        "@id": 14138182768,
        "@url": "https://www.openstreetmap.org/node/14138182768",
        "access": "yes",
        "amenity": "drinking_water",
        "bottle": "yes",
        "button_operated": "yes",
        "check_date": "2025",
        "description": "Brčko Hamsíkova / Brdlíkova",
        "dog": "no",
        "fee": "no",
        "fountain": "spout",
        "installation:seasonal": "yes",
        "manufacturer": "PVK",
        "material": "metal",
        "mist_spraying_cooler": "yes",
        "model": "brčko",
        "opening_hours": "24/7",
        "ref:prazskapitka": "302",
        "seasonal": "summer",
        "water_flow": "normal",
        "wheelchair": "no"
      }
    },
    {
      "type": "Feature",
      "geometry": {
        "type": "Point",
        "coordinates": [
          14.38941,
          50.1036999
        ]
      },
      "properties": {
        "@type": "node",
        "@id": 14138183700,
        "@url": "https://www.openstreetmap.org/node/14138183700",
        "access": "yes",
        "amenity": "drinking_water",
        "bottle": "yes",
        "button_operated": "yes",
        "check_date": "2024",
        "description": "Brčko Technická",
        "dog": "no",
        "fee": "no",
        "fountain": "spout",
        "installation:seasonal": "yes",
        "manufacturer": "PVK",
        "material": "metal",
        "mist_spraying_cooler": "yes",
        "model": "brčko",
        "opening_hours": "24/7",
        "ref:prazskapitka": "89",
        "seasonal": "summer",
        "water_flow": "normal",
        "wheelchair": "yes"
      }
    }
  ]
}
