{
  "type": "FeatureCollection",
  "features": [
    {
      "type": "Feature",
      "geometry": {
        "type": "Point",
        "coordinates": [
          14.3175919,
          50.0939258
        ]
      },
      "properties": {
        "@type": "node",
        "@id": 305911992,
        "@url": "https://www.openstreetmap.org/node/305911992",
        "drinking_water": "yes",
        "intermittent": "no",
        "name": "Šestákova studánka",
        "natural": "spring"
      }
    },
    {
      "type": "Feature",
      "geometry": {
        "type": "Point",
        "coordinates": [
          14.3170594,
          50.09946
        ]
      },
      "properties": {
        "@type": "node",
        "@id": 305912017,
        "@url": "https://www.openstreetmap.org/node/305912017",
        "drinking_water": "yes",
        "name": "Šárka",
        "natural": "spring",
        "website": "https://www.estudanky.eu/146-studanka-sarka"
      }
    },
    {
      "type": "Feature",
      "geometry": {
        "type": "Point",
        "coordinates": [
          14.4228965,
          50.0822908
        ]
      },
      "properties": {
        "@type": "node",
        "@id": 306362863,
        "@url": "https://www.openstreetmap.org/node/306362863",
        "amenity": "toilets",
        "drinking_water": "yes",
        "fee": "yes",
        "female": "yes",
        "male": "yes",
        "opening_hours": "Apr 15-Sep 14: Mo-Su 09:00-21:00; Sep 15-Oct 14: Mo-Su 09:00-20:00; Oct 15-Apr 14: Mo-Su 09:00-19:00",
        "toilets:disposal": "flush",
        "toilets:position": "seated;urinal",
        "wheelchair": "no"
      }
    },
    {
      "type": "Feature",
      "geometry": {
        "type": "Point",
        "coordinates": [
          14.461581,
          50.0785884
        ]
      },
      "properties": {
        "@type": "node",
        "@id": 323138068,
        "@url": "https://www.openstreetmap.org/node/323138068",
        "access": "customers",
        "amenity": "toilets",
        "changing_table": "yes",
        "changing_table:location": "room",
        "drinking_water": "yes",
        "fee": "no",
        "female": "yes",
        "level": "3",
        "male": "yes",
        "operator": "OC Flóra",
        "toilets:disposal": "flush",
        "toilets:position": "seated;urinal",
        "wheelchair": "yes"
      }
    },
    {
      "type": "Feature",
      "geometry": {
        "type": "Point",
        "coordinates": [
          14.3349634,
          50.1015489
        ]
      },
      "properties": {
        "@type": "node",
        "@id": 507945467,
        "@url": "https://www.openstreetmap.org/node/507945467",
        "drinking_water": "yes",
        "name": "Franciho",
        "natural": "spring",
        "website": "https://www.estudanky.eu/670-studanka-franciho"
      }
    },
    {
      "type": "Feature",
      "geometry": {
        "type": "Point",
        "coordinates": [
          14.4302755,
          50.0754821
        ]
      },
      "properties": {
        "@type": "node",
        "@id": 619170352,
        "@url": "https://www.openstreetmap.org/node/619170352",
        "access": "yes",
        "amenity": "toilets",
        "description": "vestibul stanice",
        "drinking_water": "yes",
        "fee": "yes",
        "female": "yes",
        "layer": "-1",
        "male": "yes",
        "opening_hours": "Mo-Fr 06:00-21:00; Sa,Su 08:00-20:00",
        "source": "survey",
        "toilets:disposal": "flush",
        "toilets:position": "seated;urinal",
        "wheelchair": "no"
      }
    },
    {
      "type": "Feature",
      "geometry": {
        "type": "Point",
        "coordinates": [
          14.4517366,
          50.093354
        ]
      },
      "properties": {
        "@type": "node",
        "@id": 619170375,
        "@url": "https://www.openstreetmap.org/node/619170375",
        "amenity": "toilets",
        "check_date:opening_hours": "2026-04-12",
        "drinking_water": "yes",
        "fee": "yes",
        "female": "no",
        "male": "yes",
        "name": "Veřejné WC",
        "note": "Veřejné WC ve stanici metra - import z kml na stránkach praha.eu.",
        "opening_hours": "Sa,Su,PH 08:00-19:00; Mo-Fr 07:00-20:00",
        "toilets:disposal": "flush",
        "toilets:position": "seated;urinal",
        "toilets:wheelchair": "yes",
        "unisex": "no",
        "wheelchair": "yes"
      }
    },
    {
      "type": "Feature",
      "geometry": {
        "type": "Point",
        "coordinates": [
          14.4918836,
          50.1126313
        ]
      },
      "properties": {
        "@type": "node",
        "@id": 921200002,
        "@url": "https://www.openstreetmap.org/node/921200002",
        "demolished:natural": "spring",
        "drinking_water": "yes",
        "name": "Pod Máchalkou"
      }
    },
    {
      "type": "Feature",
      "geometry": {
        "type": "Point",
        "coordinates": [
          14.3670233,
          50.1259083
        ]
      },
      "properties": {
        "@type": "node",
        "@id": 949891841,
        "@url": "https://www.openstreetmap.org/node/949891841",
        "drinking_water": "yes",
        "drinking_water:legal": "no",
        "name": "Zázračná studánka",
        "natural": "spring"
      }
    },
    {
      "type": "Feature",
      "geometry": {
        "type": "Point",
        "coordinates": [
          14.4903247,
          50.1290659
        ]
      },
      "properties": {
        "@type": "node",
        "@id": 1344243289,
        "@url": "https://www.openstreetmap.org/node/1344243289",
        "amenity": "pharmacy",
        "dispensing": "yes",
        "drinking_water": "yes",
        "email": "lekarnice@poliklinikaprosek.cz",
        "healthcare": "pharmacy",
        "opening_hours": "Jan-Jun Mo-Th 07:00-18:00; Fr 07:00-16:00; Jul-Aug Mo-Th 07:00-16:00; Fr 07:00-15:00; Sep-Dec Mo-Th 07:00-18:00; Fr 07:00-16:00",
        "payment:coins": "yes",
        "payment:credit_cards": "yes",
        "payment:notes": "yes",
        "phone": "+420 266010257",
        "website": "https://www.poliklinikaprosek.cz/stranka-lekarna-22",
        "wheelchair": "yes"
      }
    },
    {
      "type": "Feature",
      "geometry": {
        "type": "Point",
        "coordinates": [
          14.4658165,
          50.1201723
        ]
      },
      "properties": {
        "@type": "node",
        "@id": 1644315393,
        "@url": "https://www.openstreetmap.org/node/1644315393",
        "drinking_water": "yes",
        "intermittent": "no",
        "natural": "spring",
        "source:drinking_water": "http://www.praha-priroda.cz/vodni-plochy-a-potoky/studanky-abecedne/okrouhlik/"
      }
    },
    {
      "type": "Feature",
      "geometry": {
        "type": "Point",
        "coordinates": [
          14.407863,
          50.08326
        ]
      },
      "properties": {
        "@type": "node",
        "@id": 1948155705,
        "@url": "https://www.openstreetmap.org/node/1948155705",
        "access": "yes",
        "amenity": "toilets",
        "drinking_water": "yes",
        "fee": "yes",
        "female": "yes",
        "male": "yes",
        "source": "survey",
        "toilets:disposal": "flush",
        "toilets:position": "seated",
        "wheelchair": "yes"
      }
    },
    {
      "type": "Feature",
      "geometry": {
        "type": "Point",
        "coordinates": [
          14.5866534,
          50.1368497
        ]
      },
      "properties": {
        "@type": "node",
        "@id": 2836849342,
        "@url": "https://www.openstreetmap.org/node/2836849342",
        "drinking_water": "yes",
        "name": "Trhlina",
        "natural": "spring",
        "source": "survey"
      }
    },
    {
      "type": "Feature",
      "geometry": {
        "type": "Point",
        "coordinates": [
          14.4229653,
          50.0873335
        ]
      },
      "properties": {
        "@type": "node",
        "@id": 3681899836,
        "@url": "https://www.openstreetmap.org/node/3681899836",
        "amenity": "fountain",
        "artist:wikidata": "Q18746011",
        "artist_name": "Jan Bartoš",
        "drinking_water": "yes",
        "fountain": "decorative",
        "indoor": "no",
        "ref:drobne_pamatky": "31267",
        "source": "CZ:IPRPraha:ortofoto",
        "start_date": "1988",
        "wikidata": "Q94443199",
        "wikimedia_commons": "File:Praha Stare Mesto Celetna Stupartska pitko.jpg"
      }
    },
    {
      "type": "Feature",
      "geometry": {
        "type": "Point",
        "coordinates": [
          14.3881787,
          50.0254118
        ]
      },
      "properties": {
        "@type": "node",
        "@id": 3930400906,
        "@url": "https://www.openstreetmap.org/node/3930400906",
        "drinking_water": "yes",
        "intermittent": "no",
        "name": "Mariánský pramen",
        "natural": "spring"
      }
    },
    {
      "type": "Feature",
      "geometry": {
        "type": "Point",
        "coordinates": [
          14.418369,
          50.1237994
        ]
      },
      "properties": {
        "@type": "node",
        "@id": 3939123168,
        "@url": "https://www.openstreetmap.org/node/3939123168",
        "access": "customers",
        "amenity": "toilets",
        "drinking_water": "yes",
        "fee": "no",
        "source": "survey",
        "toilets:disposal": "flush",
        "toilets:position": "seated;urinal",
        "wheelchair": "yes"
      }
    },
    {
      "type": "Feature",
      "geometry": {
        "type": "Point",
        "coordinates": [
          14.4615877,
          50.0785518
        ]
      },
      "properties": {
        "@type": "node",
        "@id": 4407424281,
        "@url": "https://www.openstreetmap.org/node/4407424281",
        "access": "customers",
        "amenity": "toilets",
        "drinking_water": "yes",
        "fee": "no",
        "female": "yes",
        "level": "1",
        "male": "yes",
        "operator": "OC Flóra",
        "toilets:disposal": "flush",
        "toilets:position": "seated;urinal",
        "wheelchair": "yes"
      }
    },
    {
      "type": "Feature",
      "geometry": {
        "type": "Point",
        "coordinates": [
          14.4615838,
          50.07857
        ]
      },
      "properties": {
        "@type": "node",
        "@id": 4407424282,
        "@url": "https://www.openstreetmap.org/node/4407424282",
        "access": "customers",
        "amenity": "toilets",
        "drinking_water": "yes",
        "fee": "no",
        "female": "yes",
        "level": "2",
        "male": "yes",
        "operator": "OC Flóra",
        "toilets:position": "seated;urinal",
        "wheelchair": "yes"
      }
    },
    {
      "type": "Feature",
      "geometry": {
        "type": "Point",
        "coordinates": [
          14.477985200000001,
          50.0373974
        ]
      },
      "properties": {
        "@type": "node",
        "@id": 4544771389,
        "@url": "https://www.openstreetmap.org/node/4544771389",
        "access": "yes",
        "amenity": "toilets",
        "charge": "10 CZK",
        "check_date": "2026-07-12",
        "check_date:opening_hours": "2026-07-12",
        "drinking_water": "yes",
        "fee": "yes",
        "female": "yes",
        "male": "yes",
        "opening_hours": "Mo-Fr 06:00-19:30; Sa 08:00-20:00; Su 09:00-20:00",
        "source": "survey",
        "toilets:disposal": "flush",
        "toilets:position": "seated;urinal",
        "wheelchair": "limited"
      }
    },
    {
      "type": "Feature",
      "geometry": {
        "type": "Point",
        "coordinates": [
          14.4518745,
          50.093375
        ]
      },
      "properties": {
        "@type": "node",
        "@id": 4899417248,
        "@url": "https://www.openstreetmap.org/node/4899417248",
        "amenity": "toilets",
        "check_date:opening_hours": "2025-01-09",
        "drinking_water": "yes",
        "fee": "yes",
        "female": "yes",
        "male": "no",
        "name": "Veřejné WC",
        "note": "Veřejné WC ve stanici metra - import z kml na stránkach praha.eu.",
        "opening_hours": "Mo-Fr 07:00-20:00; Sa,Su,PH 08:00-19:00",
        "toilets:disposal": "flush",
        "toilets:position": "seated",
        "toilets:wheelchair": "yes",
        "unisex": "no",
        "wheelchair": "yes"
      }
    },
    {
      "type": "Feature",
      "geometry": {
        "type": "Point",
        "coordinates": [
          14.508244,
          50.0279319
        ]
      },
      "properties": {
        "@type": "node",
        "@id": 4952461522,
        "@url": "https://www.openstreetmap.org/node/4952461522",
        "access": "yes",
        "amenity": "toilets",
        "charge": "10 CZK",
        "check_date": "2024-11-06",
        "drinking_water": "yes",
        "fee": "yes",
        "female": "yes",
        "level": "-1",
        "male": "yes",
        "toilets:disposal": "flush",
        "toilets:position": "seated;urinal"
      }
    },
    {
      "type": "Feature",
      "geometry": {
        "type": "Point",
        "coordinates": [
          14.4442546,
          50.0900564
        ]
      },
      "properties": {
        "@type": "node",
        "@id": 5010970675,
        "@url": "https://www.openstreetmap.org/node/5010970675",
        "access": "customers",
        "amenity": "toilets",
        "drinking_water": "yes",
        "female": "yes",
        "male": "yes",
        "toilets:disposal": "flush"
      }
    },
    {
      "type": "Feature",
      "geometry": {
        "type": "Point",
        "coordinates": [
          14.3352544,
          50.0887325
        ]
      },
      "properties": {
        "@type": "node",
        "@id": 5733276219,
        "@url": "https://www.openstreetmap.org/node/5733276219",
        "bottle": "yes",
        "drinking_water": "yes",
        "fee": "no",
        "natural": "spring",
        "opening_hours": "24/7",
        "seasonal": "no"
      }
    },
    {
      "type": "Feature",
      "geometry": {
        "type": "Point",
        "coordinates": [
          14.5877427,
          50.1458372
        ]
      },
      "properties": {
        "@type": "node",
        "@id": 5916960394,
        "@url": "https://www.openstreetmap.org/node/5916960394",
        "drinking_water": "yes",
        "inscription": "L.P. 1814",
        "name": "Nad stavidlem",
        "natural": "spring"
      }
    },
    {
      "type": "Feature",
      "geometry": {
        "type": "Point",
        "coordinates": [
          14.4000107,
          50.0753941
        ]
      },
      "properties": {
        "@type": "node",
        "@id": 6757938011,
        "@url": "https://www.openstreetmap.org/node/6757938011",
        "drinking_water": "yes",
        "man_made": "water_tap",
        "source": "CZ:IPRPraha:ortofoto;survey"
      }
    },
    {
      "type": "Feature",
      "geometry": {
        "type": "Point",
        "coordinates": [
          14.6766868,
          50.069092499999999
        ]
      },
      "properties": {
        "@type": "node",
        "@id": 9165141580,
        "@url": "https://www.openstreetmap.org/node/9165141580",
        "access": "yes",
        "activation": "button",
        "bottle": "no",
        "check_date": "2026",
        "description": "Pítko Žlebská",
        "disused:amenity": "drinking_water",
        "dog": "no",
        "drinking_water": "yes",
        "fee": "no",
        "fountain": "bubbler",
        "manufacturer": "CityZEN",
        "material": "concrete",
        "model": "CityZEN",
        "opening_hours": "24/7; Oct-Mar off",
        "operator": "ÚMČ Praha 21",
        "ref:prazskapitka": "283",
        "seasonal": "summer",
        "wheelchair": "limited"
      }
    },
    {
      "type": "Feature",
      "geometry": {
        "type": "Point",
        "coordinates": [
          14.5358993,
          50.1250579
        ]
      },
      "properties": {
        "@type": "node",
        "@id": 10060759041,
        "@url": "https://www.openstreetmap.org/node/10060759041",
        "access": "permissive",
        "amenity": "toilets",
        "drinking_water": "yes",
        "fee": "no",
        "female": "yes",
        "male": "yes",
        "toilets:disposal": "flush",
        "toilets:position": "seated;urinal",
        "wheelchair": "yes"
      }
    },
    {
      "type": "Feature",
      "geometry": {
        "type": "Point",
        "coordinates": [
          14.4711861,
          50.0796536
        ]
      },
      "properties": {
        "@type": "node",
        "@id": 10758532943,
        "@url": "https://www.openstreetmap.org/node/10758532943",
        "drinking_water": "yes",
        "man_made": "water_tap"
      }
    },
    {
      "type": "Feature",
      "geometry": {
        "type": "Point",
        "coordinates": [
          14.4707532,
          50.0802017
        ]
      },
      "properties": {
        "@type": "node",
        "@id": 10758544610,
        "@url": "https://www.openstreetmap.org/node/10758544610",
        "drinking_water": "yes",
        "man_made": "water_tap"
      }
    },
    {
      "type": "Feature",
      "geometry": {
        "type": "Point",
        "coordinates": [
          14.4700455,
          50.0808006
        ]
      },
      "properties": {
        "@type": "node",
        "@id": 10758544611,
        "@url": "https://www.openstreetmap.org/node/10758544611",
        "drinking_water": "yes",
        "man_made": "water_tap"
      }
    },
    {
      "type": "Feature",
      "geometry": {
        "type": "Point",
        "coordinates": [
          14.4690715,
          50.0813718
        ]
      },
      "properties": {
        "@type": "node",
        "@id": 10758544612,
        "@url": "https://www.openstreetmap.org/node/10758544612",
        "drinking_water": "yes",
        "man_made": "water_tap"
      }
    },
    {
      "type": "Feature",
      "geometry": {
        "type": "Point",
        "coordinates": [
          14.467631,
          50.0822115
        ]
      },
      "properties": {
        "@type": "node",
        "@id": 10758545122,
        "@url": "https://www.openstreetmap.org/node/10758545122",
        "drinking_water": "yes",
        "man_made": "water_tap"
      }
    },
    {
      "type": "Feature",
      "geometry": {
        "type": "Point",
        "coordinates": [
          14.468301,
          50.0817631
        ]
      },
      "properties": {
        "@type": "node",
        "@id": 10758550435,
        "@url": "https://www.openstreetmap.org/node/10758550435",
        "drinking_water": "yes",
        "man_made": "water_tap"
      }
    },
    {
      "type": "Feature",
      "geometry": {
        "type": "Point",
        "coordinates": [
          14.3877957,
          50.0611519
        ]
      },
      "properties": {
        "@type": "node",
        "@id": 10875207381,
        "@url": "https://www.openstreetmap.org/node/10875207381",
        "drinking_water": "yes",
        "fountain": "nozzle",
        "man_made": "water_tap"
      }
    },
    {
      "type": "Feature",
      "geometry": {
        "type": "Point",
        "coordinates": [
          14.3852223,
          50.0609201
        ]
      },
      "properties": {
        "@type": "node",
        "@id": 10875240950,
        "@url": "https://www.openstreetmap.org/node/10875240950",
        "drinking_water": "yes",
        "fountain": "nozzle",
        "man_made": "water_tap",
        "seasonal": "yes"
      }
    },
    {
      "type": "Feature",
      "geometry": {
        "type": "Point",
        "coordinates": [
          14.3856557,
          50.0616977
        ]
      },
      "properties": {
        "@type": "node",
        "@id": 10875283476,
        "@url": "https://www.openstreetmap.org/node/10875283476",
        "drinking_water": "yes",
        "fountain": "nozzle",
        "man_made": "water_tap"
      }
    },
    {
      "type": "Feature",
      "geometry": {
        "type": "Point",
        "coordinates": [
          14.3870205,
          50.0611347
        ]
      },
      "properties": {
        "@type": "node",
        "@id": 10875288459,
        "@url": "https://www.openstreetmap.org/node/10875288459",
        "drinking_water": "yes",
        "fountain": "nozzle",
        "man_made": "water_tap"
      }
    },
    {
      "type": "Feature",
      "geometry": {
        "type": "Point",
        "coordinates": [
          14.389368,
          50.0618126
        ]
      },
      "properties": {
        "@type": "node",
        "@id": 10875428989,
        "@url": "https://www.openstreetmap.org/node/10875428989",
        "drinking_water": "yes",
        "fountain": "nozzle",
        "man_made": "water_tap"
      }
    },
    {
      "type": "Feature",
      "geometry": {
        "type": "Point",
        "coordinates": [
          14.3935985,
          50.0298625
        ]
      },
      "properties": {
        "@type": "node",
        "@id": 10959880405,
        "@url": "https://www.openstreetmap.org/node/10959880405",
        "access": "private",
        "drinking_water": "yes",
        "man_made": "water_tap"
      }
    },
    {
      "type": "Feature",
      "geometry": {
        "type": "Point",
        "coordinates": [
          14.4611814,
          50.0820967
        ]
      },
      "properties": {
        "@type": "node",
        "@id": 11026024109,
        "@url": "https://www.openstreetmap.org/node/11026024109",
        "drinking_water": "yes",
        "man_made": "water_tap"
      }
    },
    {
      "type": "Feature",
      "geometry": {
        "type": "Point",
        "coordinates": [
          14.3444535,
          50.0308482
        ]
      },
      "properties": {
        "@type": "node",
        "@id": 11163033387,
        "@url": "https://www.openstreetmap.org/node/11163033387",
        "drinking_water": "yes",
        "name": "Studánka Dobrá voda",
        "natural": "spring"
      }
    },
    {
      "type": "Feature",
      "geometry": {
        "type": "Point",
        "coordinates": [
          14.4462999,
          50.0965481
        ]
      },
      "properties": {
        "@type": "node",
        "@id": 11750633958,
        "@url": "https://www.openstreetmap.org/node/11750633958",
        "drinking_water": "yes",
        "man_made": "water_tap"
      }
    },
    {
      "type": "Feature",
      "geometry": {
        "type": "Point",
        "coordinates": [
          14.582988,
          50.0888391
        ]
      },
      "properties": {
        "@type": "node",
        "@id": 12051597151,
        "@url": "https://www.openstreetmap.org/node/12051597151",
        "access": "customers",
        "amenity": "toilets",
        "drinking_water": "yes",
        "male": "yes",
        "toilets:handwashing": "yes",
        "toilets:position": "seated;urinal"
      }
    },
    {
      "type": "Feature",
      "geometry": {
        "type": "Point",
        "coordinates": [
          14.4045269,
          50.0006867
        ]
      },
      "properties": {
        "@type": "node",
        "@id": 12309554015,
        "@url": "https://www.openstreetmap.org/node/12309554015",
        "access": "yes",
        "drinking_water": "yes",
        "tourism": "picnic_site"
      }
    },
    {
      "type": "Feature",
      "geometry": {
        "type": "Point",
        "coordinates": [
          14.4402072,
          50.1121031
        ]
      },
      "properties": {
        "@type": "node",
        "@id": 14129050402,
        "@url": "https://www.openstreetmap.org/node/14129050402",
        "drinking_water": "yes",
        "man_made": "water_tap",
        "operator": "MHMP"
      }
    },
    {
      "type": "Feature",
      "geometry": {
        "type": "LineString",
        "coordinates": [
          [
            14.4035611,
            50.0791875
          ],
          [
            14.4035099,
            50.0791408
          ],
          [
            14.4034366,
            50.0791733
          ],
          [
            14.4034896,
            50.0792209
          ],
          [
            14.4035611,
            50.0791875
          ]
        ]
      },
      "properties": {
        "@type": "way",
        "@id": 30747928,
        "@url": "https://www.openstreetmap.org/way/30747928",
        "access": "yes",
        "amenity": "toilets",
        "building": "yes",
        "building:ruian:type": "19",
        "drinking_water": "yes",
        "fee": "no",
        "layer": "2",
        "ref:ruian:building": "40445984",
        "roof:colour": "darkgray",
        "roof:shape": "pyramidal",
        "source": "cuzk:ruian;survey",
        "toilets:disposal": "flush",
        "wheelchair": "yes"
      }
    },
    {
      "type": "Feature",
      "geometry": {
        "type": "LineString",
        "coordinates": [
          [
            14.4235692,
            50.1133959
          ],
          [
            14.424299,
            50.1132382
          ],
          [
            14.4245364,
            50.1136831
          ],
          [
            14.4243106,
            50.1137351
          ],
          [
            14.4245193,
            50.1141142
          ],
          [
            14.4243713,
            50.1141602
          ],
          [
            14.4241826,
            50.1142118
          ],
          [
            14.4240856,
            50.1140659
          ],
          [
            14.4240337,
            50.1140811
          ],
          [
            14.4239785,
            50.1139859
          ],
          [
            14.4235692,
            50.1133959
          ]
        ]
      },
      "properties": {
        "@type": "way",
        "@id": 162080897,
        "@url": "https://www.openstreetmap.org/way/162080897",
        "addr:city": "Praha 7",
        "addr:housenumber": "835/12",
        "addr:postcode": "17000",
        "addr:street": "Vodácká",
        "cabins": "yes",
        "caravans": "yes",
        "description:en": "This is first and foremost a canoe and kayak club but you can camp here. Rudimentary sanitary facilities.",
        "drinking_water": "yes",
        "internet_access": "wlan",
        "name": "HG Sport, s.r.o.",
        "power_supply": "no",
        "shower": "yes",
        "tents": "yes",
        "toilets": "yes",
        "tourism": "camp_site",
        "website": "https://sportcentrum-troja.cz/en/campground/"
      }
    },
    {
      "type": "Feature",
      "geometry": {
        "type": "LineString",
        "coordinates": [
          [
            14.3971342,
            50.0776527
          ],
          [
            14.3971836,
            50.0776959
          ],
          [
            14.3971147,
            50.0777283
          ],
          [
            14.3970653,
            50.077685
          ],
          [
            14.3971342,
            50.0776527
          ]
        ]
      },
      "properties": {
        "@type": "way",
        "@id": 268457490,
        "@url": "https://www.openstreetmap.org/way/268457490",
        "access": "yes",
        "amenity": "toilets",
        "building": "yes",
        "drinking_water": "yes",
        "fee": "no",
        "source": "CZ:IPRPraha:ortofoto",
        "toilets:disposal": "flush",
        "wheelchair": "yes"
      }
    },
    {
      "type": "Feature",
      "geometry": {
        "type": "LineString",
        "coordinates": [
          [
            14.3565476,
            50.0188088
          ],
          [
            14.3567215,
            50.0187583
          ],
          [
            14.3568644,
            50.0187896
          ],
          [
            14.356942,
            50.0188345
          ],
          [
            14.3571603,
            50.0190366
          ],
          [
            14.3569374,
            50.0191686
          ],
          [
            14.3569643,
            50.0192125
          ],
          [
            14.3565168,
            50.0193125
          ],
          [
            14.3565503,
            50.0193769
          ],
          [
            14.3565261,
            50.0193732
          ],
          [
            14.3564204,
            50.0193975
          ],
          [
            14.3564466,
            50.0194482
          ],
          [
            14.3563546,
            50.0194666
          ],
          [
            14.3563603,
            50.0194796
          ],
          [
            14.3563219,
            50.0194899
          ],
          [
            14.3563463,
            50.0195418
          ],
          [
            14.3561565,
            50.0195809
          ],
          [
            14.356086,
            50.0196106
          ],
          [
            14.35606,
            50.0196124
          ],
          [
            14.3560037,
            50.0196165
          ],
          [
            14.3560029,
            50.0196065
          ],
          [
            14.3560192,
            50.0196026
          ],
          [
            14.3560202,
            50.0195236
          ],
          [
            14.3560071,
            50.0194705
          ],
          [
            14.3559566,
            50.0194751
          ],
          [
            14.3559452,
            50.0194148
          ],
          [
            14.3559359,
            50.0194157
          ],
          [
            14.3559005,
            50.0193172
          ],
          [
            14.3557703,
            50.0190922
          ],
          [
            14.3558228,
            50.0190779
          ],
          [
            14.3561001,
            50.0190015
          ],
          [
            14.3560691,
            50.0189506
          ],
          [
            14.356374,
            50.0188604
          ],
          [
            14.3565476,
            50.0188088
          ]
        ]
      },
      "properties": {
        "@type": "way",
        "@id": 318910971,
        "@url": "https://www.openstreetmap.org/way/318910971",
        "addr:city": "Praha 5 - Slivenec",
        "addr:housenumber": "25/9",
        "addr:postcode": "15400",
        "addr:street": "Pod rybníkem",
        "capacity:caravans": "30",
        "caravans": "yes",
        "currency:CZK": "yes",
        "currency:EUR": "yes",
        "drinking_water": "yes",
        "fee": "yes",
        "free": "no",
        "motorhome": "yes",
        "name": "Camp Slivenec",
        "power_supply": "yes",
        "sanitary_dump_station": "yes",
        "shower": "hot",
        "surface": "grass/trees",
        "tents": "yes",
        "toilets": "yes",
        "tourism": "camp_site",
        "website": "https://park4night.com/en/place/490120"
      }
    },
    {
      "type": "Feature",
      "geometry": {
        "type": "LineString",
        "coordinates": [
          [
            14.4140127,
            50.0622225
          ],
          [
            14.4140058,
            50.0622363
          ],
          [
            14.4139661,
            50.0622644
          ],
          [
            14.4139006,
            50.0622835
          ],
          [
            14.4135963,
            50.0622557
          ],
          [
            14.4135658,
            50.0622456
          ],
          [
            14.4135474,
            50.0622126
          ],
          [
            14.4135601,
            50.0621624
          ],
          [
            14.4135323,
            50.0621589
          ],
          [
            14.4135027,
            50.0621542
          ],
          [
            14.4134105,
            50.0621507
          ],
          [
            14.4133711,
            50.0621508
          ],
          [
            14.4134055,
            50.061941
          ],
          [
            14.4132978,
            50.0619311
          ],
          [
            14.4133256,
            50.0617675
          ],
          [
            14.4134275,
            50.0617739
          ],
          [
            14.4134928,
            50.0614319
          ],
          [
            14.4135654,
            50.0608495
          ],
          [
            14.4136512,
            50.060853
          ],
          [
            14.4146561,
            50.0608894
          ],
          [
            14.4145643,
            50.0611562
          ],
          [
            14.4144397,
            50.0614535
          ],
          [
            14.4140127,
            50.0622225
          ]
        ]
      },
      "properties": {
        "@type": "way",
        "@id": 337435408,
        "@url": "https://www.openstreetmap.org/way/337435408",
        "addr:city": "Praha",
        "addr:housenumber": "599",
        "addr:postcode": "15000",
        "addr:street": "Cisařská louka",
        "caravans": "yes",
        "currency:CZK": "yes",
        "currency:EUR": "yes",
        "drinking_water": "yes",
        "email": "caravanpark.cl@gmail.com",
        "fee": "yes",
        "internet_access": "wlan",
        "internet_access:fee": "no",
        "name": "Caravan Park Yacht Club Císarská Louka",
        "openfire": "no",
        "phone": "+420 257 318 387",
        "power_supply": "yes",
        "shower": "hot",
        "tents": "yes",
        "toilets": "yes",
        "tourism": "camp_site",
        "website": "http://www.camp-prague.com/"
      }
    },
    {
      "type": "Feature",
      "geometry": {
        "type": "LineString",
        "coordinates": [
          [
            14.4468681,
            50.0928246
          ],
          [
            14.4468453,
            50.092832
          ],
          [
            14.4467622,
            50.0928591
          ],
          [
            14.4468019,
            50.0929103
          ],
          [
            14.4469083,
            50.0928757
          ],
          [
            14.4468681,
            50.0928246
          ]
        ]
      },
      "properties": {
        "@type": "way",
        "@id": 419267428,
        "@url": "https://www.openstreetmap.org/way/419267428",
        "amenity": "toilets",
        "building": "civic",
        "building:levels": "1",
        "building:ruian:type": "5",
        "drinking_water": "yes",
        "fee": "yes",
        "female": "yes",
        "male": "yes",
        "ref:ruian:building": "44022549",
        "roof:levels": "0",
        "roof:shape": "flat",
        "source": "cuzk:ruian;survey",
        "toilets:disposal": "flush",
        "wheelchair": "yes"
      }
    },
    {
      "type": "Feature",
      "geometry": {
        "type": "LineString",
        "coordinates": [
          [
            14.5827477,
            50.0887777
          ],
          [
            14.5831895,
            50.0889829
          ],
          [
            14.5837694,
            50.0892728
          ],
          [
            14.5840852,
            50.089413
          ],
          [
            14.5841586,
            50.0894497
          ],
          [
            14.584403,
            50.0895531
          ],
          [
            14.5846841,
            50.0895342
          ],
          [
            14.5849737,
            50.0893323
          ],
          [
            14.5847765,
            50.0890819
          ],
          [
            14.5839624,
            50.0880508
          ],
          [
            14.5836385,
            50.0881807
          ],
          [
            14.5835222,
            50.0882233
          ],
          [
            14.5833522,
            50.0882839
          ],
          [
            14.5834139,
            50.0883549
          ],
          [
            14.5835931,
            50.0885408
          ],
          [
            14.5830612,
            50.0887831
          ],
          [
            14.583032,
            50.0887497
          ],
          [
            14.583015,
            50.0887327
          ],
          [
            14.5829986,
            50.0887163
          ],
          [
            14.5829582,
            50.0887558
          ],
          [
            14.5828595,
            50.0886939
          ],
          [
            14.5827477,
            50.0887777
          ]
        ]
      },
      "properties": {
        "@type": "way",
        "@id": 421231655,
        "@url": "https://www.openstreetmap.org/way/421231655",
        "backcountry": "no",
        "caravans": "yes",
        "drinking_water": "yes",
        "fee": "yes",
        "group_only": "no",
        "internet_access": "wlan",
        "internet_access:fee": "no",
        "name": "Sokol Praha",
        "nudism": "no",
        "picnic_table": "yes",
        "power_supply": "yes",
        "reservation": "yes",
        "shower": "yes",
        "stars": "4",
        "static_caravans": "yes",
        "swimming_pool": "outdoor",
        "tents": "yes",
        "toilets": "yes",
        "tourism": "camp_site",
        "website": "https://www.campingsokol.cz/",
        "wheelchair": "yes"
      }
    },
    {
      "type": "Feature",
      "geometry": {
        "type": "LineString",
        "coordinates": [
          [
            14.4125538,
            50.0542163
          ],
          [
            14.4128655,
            50.0541599
          ],
          [
            14.4129156,
            50.0541494
          ],
          [
            14.4129806,
            50.0542142
          ],
          [
            14.4135171,
            50.0552388
          ],
          [
            14.4139712,
            50.0560895
          ],
          [
            14.4140105,
            50.056238
          ],
          [
            14.4139883,
            50.0563809
          ],
          [
            14.4138787,
            50.0564457
          ],
          [
            14.413647,
            50.0564612
          ],
          [
            14.4135575,
            50.0564569
          ],
          [
            14.4134784,
            50.0564354
          ],
          [
            14.4134227,
            50.05641
          ],
          [
            14.4133754,
            50.0563745
          ],
          [
            14.4133392,
            50.056331
          ],
          [
            14.4133131,
            50.0562672
          ],
          [
            14.4132711,
            50.0561233
          ],
          [
            14.413207,
            50.0559034
          ],
          [
            14.4131275,
            50.0556258
          ],
          [
            14.4130723,
            50.0554262
          ],
          [
            14.4130047,
            50.0552354
          ],
          [
            14.4127567,
            50.0546656
          ],
          [
            14.4125958,
            50.0542737
          ],
          [
            14.4125538,
            50.0542163
          ]
        ]
      },
      "properties": {
        "@type": "way",
        "@id": 433814461,
        "@url": "https://www.openstreetmap.org/way/433814461",
        "addr:city": "Praha",
        "addr:housenumber": "162",
        "addr:street": "Císařská louka",
        "cabins": "no",
        "caravans": "yes",
        "drinking_water": "yes",
        "name": "Praguecamp",
        "phone": "+420 702 145 150",
        "power_supply": "yes",
        "shower": "hot",
        "source": "cuzk:km",
        "tents": "yes",
        "tourism": "camp_site",
        "website": "https://www.praguecamp.cz/"
      }
    },
    {
      "type": "Feature",
      "geometry": {
        "type": "LineString",
        "coordinates": [
          [
            14.4329312,
            50.0875642
          ],
          [
            14.4328633,
            50.0875639
          ],
          [
            14.4327969,
            50.0875637
          ],
          [
            14.4327975,
            50.0874777
          ],
          [
            14.4328195,
            50.0874778
          ],
          [
            14.4329321,
            50.087478
          ],
          [
            14.4329312,
            50.0875642
          ]
        ]
      },
      "properties": {
        "@type": "way",
        "@id": 1007391006,
        "@url": "https://www.openstreetmap.org/way/1007391006",
        "access": "yes",
        "amenity": "toilets",
        "drinking_water": "yes",
        "fee": "yes",
        "female": "yes",
        "indoor": "room",
        "level": "0",
        "male": "yes",
        "room": "toilet",
        "toilets:disposal": "flush",
        "toilets:position": "seated;urinal",
        "wheelchair": "yes"
      }
    },
    {
      "type": "Feature",
      "geometry": {
        "type": "LineString",
        "coordinates": [
          [
            14.4134236,
            50.0475191
          ],
          [
            14.413499,
            50.0475029
          ],
          [
            14.4135629,
            50.0476254
          ],
          [
            14.4134876,
            50.0476416
          ],
          [
            14.4134236,
            50.0475191
          ]
        ]
      },
      "properties": {
        "@type": "way",
        "@id": 1459003803,
        "@url": "https://www.openstreetmap.org/way/1459003803",
        "access": "permissive",
        "amenity": "toilets",
        "building": "civic",
        "changing_table": "no",
        "drinking_water": "yes",
        "fee": "no",
        "gender_segregated": "yes",
        "portable": "no",
        "toilets:disposal": "flush",
        "toilets:handwashing": "yes",
        "toilets:paper_supplied": "yes",
        "toilets:position": "seated;urinal",
        "unisex": "yes"
      }
    },
    {
      "type": "Feature",
      "geometry": {
        "type": "MultiPolygon",
        "coordinates": [
          [
            [
              [
                14.4034366,
                50.0791733
              ],
              [
                14.4035099,
                50.0791408
              ],
              [
                14.4035611,
                50.0791875
              ],
              [
                14.4034896,
                50.0792209
              ],
              [
                14.4034366,
                50.0791733
              ]
            ]
          ]
        ]
      },
      "properties": {
        "@type": "way",
        "@id": 30747928,
        "@url": "https://www.openstreetmap.org/way/30747928",
        "access": "yes",
        "amenity": "toilets",
        "building": "yes",
        "building:ruian:type": "19",
        "drinking_water": "yes",
        "fee": "no",
        "layer": "2",
        "ref:ruian:building": "40445984",
        "roof:colour": "darkgray",
        "roof:shape": "pyramidal",
        "source": "cuzk:ruian;survey",
        "toilets:disposal": "flush",
        "wheelchair": "yes"
      }
    },
    {
      "type": "Feature",
      "geometry": {
        "type": "MultiPolygon",
        "coordinates": [
          [
            [
              [
                14.4235692,
                50.1133959
              ],
              [
                14.424299,
                50.1132382
              ],
              [
                14.4245364,
                50.1136831
              ],
              [
                14.4243106,
                50.1137351
              ],
              [
                14.4245193,
                50.1141142
              ],
              [
                14.4243713,
                50.1141602
              ],
              [
                14.4241826,
                50.1142118
              ],
              [
                14.4240856,
                50.1140659
              ],
              [
                14.4240337,
                50.1140811
              ],
              [
                14.4239785,
                50.1139859
              ],
              [
                14.4235692,
                50.1133959
              ]
            ]
          ]
        ]
      },
      "properties": {
        "@type": "way",
        "@id": 162080897,
        "@url": "https://www.openstreetmap.org/way/162080897",
        "addr:city": "Praha 7",
        "addr:housenumber": "835/12",
        "addr:postcode": "17000",
        "addr:street": "Vodácká",
        "cabins": "yes",
        "caravans": "yes",
        "description:en": "This is first and foremost a canoe and kayak club but you can camp here. Rudimentary sanitary facilities.",
        "drinking_water": "yes",
        "internet_access": "wlan",
        "name": "HG Sport, s.r.o.",
        "power_supply": "no",
        "shower": "yes",
        "tents": "yes",
        "toilets": "yes",
        "tourism": "camp_site",
        "website": "https://sportcentrum-troja.cz/en/campground/"
      }
    },
    {
      "type": "Feature",
      "geometry": {
        "type": "MultiPolygon",
        "coordinates": [
          [
            [
              [
                14.3970653,
                50.077685
              ],
              [
                14.3971342,
                50.0776527
              ],
              [
                14.3971836,
                50.0776959
              ],
              [
                14.3971147,
                50.0777283
              ],
              [
                14.3970653,
                50.077685
              ]
            ]
          ]
        ]
      },
      "properties": {
        "@type": "way",
        "@id": 268457490,
        "@url": "https://www.openstreetmap.org/way/268457490",
        "access": "yes",
        "amenity": "toilets",
        "building": "yes",
        "drinking_water": "yes",
        "fee": "no",
        "source": "CZ:IPRPraha:ortofoto",
        "toilets:disposal": "flush",
        "wheelchair": "yes"
      }
    },
    {
      "type": "Feature",
      "geometry": {
        "type": "MultiPolygon",
        "coordinates": [
          [
            [
              [
                14.3557703,
                50.0190922
              ],
              [
                14.3558228,
                50.0190779
              ],
              [
                14.3561001,
                50.0190015
              ],
              [
                14.3560691,
                50.0189506
              ],
              [
                14.356374,
                50.0188604
              ],
              [
                14.3565476,
                50.0188088
              ],
              [
                14.3567215,
                50.0187583
              ],
              [
                14.3568644,
                50.0187896
              ],
              [
                14.356942,
                50.0188345
              ],
              [
                14.3571603,
                50.0190366
              ],
              [
                14.3569374,
                50.0191686
              ],
              [
                14.3569643,
                50.0192125
              ],
              [
                14.3565168,
                50.0193125
              ],
              [
                14.3565503,
                50.0193769
              ],
              [
                14.3565261,
                50.0193732
              ],
              [
                14.3564204,
                50.0193975
              ],
              [
                14.3564466,
                50.0194482
              ],
              [
                14.3563546,
                50.0194666
              ],
              [
                14.3563603,
                50.0194796
              ],
              [
                14.3563219,
                50.0194899
              ],
              [
                14.3563463,
                50.0195418
              ],
              [
                14.3561565,
                50.0195809
              ],
              [
                14.356086,
                50.0196106
              ],
              [
                14.35606,
                50.0196124
              ],
              [
                14.3560037,
                50.0196165
              ],
              [
                14.3560029,
                50.0196065
              ],
              [
                14.3560192,
                50.0196026
              ],
              [
                14.3560202,
                50.0195236
              ],
              [
                14.3560071,
                50.0194705
              ],
              [
                14.3559566,
                50.0194751
              ],
              [
                14.3559452,
                50.0194148
              ],
              [
                14.3559359,
                50.0194157
              ],
              [
                14.3559005,
                50.0193172
              ],
              [
                14.3557703,
                50.0190922
              ]
            ]
          ]
        ]
      },
      "properties": {
        "@type": "way",
        "@id": 318910971,
        "@url": "https://www.openstreetmap.org/way/318910971",
        "addr:city": "Praha 5 - Slivenec",
        "addr:housenumber": "25/9",
        "addr:postcode": "15400",
        "addr:street": "Pod rybníkem",
        "capacity:caravans": "30",
        "caravans": "yes",
        "currency:CZK": "yes",
        "currency:EUR": "yes",
        "drinking_water": "yes",
        "fee": "yes",
        "free": "no",
        "motorhome": "yes",
        "name": "Camp Slivenec",
        "power_supply": "yes",
        "sanitary_dump_station": "yes",
        "shower": "hot",
        "surface": "grass/trees",
        "tents": "yes",
        "toilets": "yes",
        "tourism": "camp_site",
        "website": "https://park4night.com/en/place/490120"
      }
    },
    {
      "type": "Feature",
      "geometry": {
        "type": "MultiPolygon",
        "coordinates": [
          [
            [
              [
                14.4132978,
                50.0619311
              ],
              [
                14.4133256,
                50.0617675
              ],
              [
                14.4134275,
                50.0617739
              ],
              [
                14.4134928,
                50.0614319
              ],
              [
                14.4135654,
                50.0608495
              ],
              [
                14.4136512,
                50.060853
              ],
              [
                14.4146561,
                50.0608894
              ],
              [
                14.4145643,
                50.0611562
              ],
              [
                14.4144397,
                50.0614535
              ],
              [
                14.4140127,
                50.0622225
              ],
              [
                14.4140058,
                50.0622363
              ],
              [
                14.4139661,
                50.0622644
              ],
              [
                14.4139006,
                50.0622835
              ],
              [
                14.4135963,
                50.0622557
              ],
              [
                14.4135658,
                50.0622456
              ],
              [
                14.4135474,
                50.0622126
              ],
              [
                14.4135601,
                50.0621624
              ],
              [
                14.4135323,
                50.0621589
              ],
              [
                14.4135027,
                50.0621542
              ],
              [
                14.4134105,
                50.0621507
              ],
              [
                14.4133711,
                50.0621508
              ],
              [
                14.4134055,
                50.061941
              ],
              [
                14.4132978,
                50.0619311
              ]
            ]
          ]
        ]
      },
      "properties": {
        "@type": "way",
        "@id": 337435408,
        "@url": "https://www.openstreetmap.org/way/337435408",
        "addr:city": "Praha",
        "addr:housenumber": "599",
        "addr:postcode": "15000",
        "addr:street": "Cisařská louka",
        "caravans": "yes",
        "currency:CZK": "yes",
        "currency:EUR": "yes",
        "drinking_water": "yes",
        "email": "caravanpark.cl@gmail.com",
        "fee": "yes",
        "internet_access": "wlan",
        "internet_access:fee": "no",
        "name": "Caravan Park Yacht Club Císarská Louka",
        "openfire": "no",
        "phone": "+420 257 318 387",
        "power_supply": "yes",
        "shower": "hot",
        "tents": "yes",
        "toilets": "yes",
        "tourism": "camp_site",
        "website": "http://www.camp-prague.com/"
      }
    },
    {
      "type": "Feature",
      "geometry": {
        "type": "MultiPolygon",
        "coordinates": [
          [
            [
              [
                14.4467622,
                50.0928591
              ],
              [
                14.4468453,
                50.092832
              ],
              [
                14.4468681,
                50.0928246
              ],
              [
                14.4469083,
                50.0928757
              ],
              [
                14.4468019,
                50.0929103
              ],
              [
                14.4467622,
                50.0928591
              ]
            ]
          ]
        ]
      },
      "properties": {
        "@type": "way",
        "@id": 419267428,
        "@url": "https://www.openstreetmap.org/way/419267428",
        "amenity": "toilets",
        "building": "civic",
        "building:levels": "1",
        "building:ruian:type": "5",
        "drinking_water": "yes",
        "fee": "yes",
        "female": "yes",
        "male": "yes",
        "ref:ruian:building": "44022549",
        "roof:levels": "0",
        "roof:shape": "flat",
        "source": "cuzk:ruian;survey",
        "toilets:disposal": "flush",
        "wheelchair": "yes"
      }
    },
    {
      "type": "Feature",
      "geometry": {
        "type": "MultiPolygon",
        "coordinates": [
          [
            [
              [
                14.5827477,
                50.0887777
              ],
              [
                14.5828595,
                50.0886939
              ],
              [
                14.5829582,
                50.0887558
              ],
              [
                14.5829986,
                50.0887163
              ],
              [
                14.583015,
                50.0887327
              ],
              [
                14.583032,
                50.0887497
              ],
              [
                14.5830612,
                50.0887831
              ],
              [
                14.5835931,
                50.0885408
              ],
              [
                14.5834139,
                50.0883549
              ],
              [
                14.5833522,
                50.0882839
              ],
              [
                14.5835222,
                50.0882233
              ],
              [
                14.5836385,
                50.0881807
              ],
              [
                14.5839624,
                50.0880508
              ],
              [
                14.5847765,
                50.0890819
              ],
              [
                14.5849737,
                50.0893323
              ],
              [
                14.5846841,
                50.0895342
              ],
              [
                14.584403,
                50.0895531
              ],
              [
                14.5841586,
                50.0894497
              ],
              [
                14.5840852,
                50.089413
              ],
              [
                14.5837694,
                50.0892728
              ],
              [
                14.5831895,
                50.0889829
              ],
              [
                14.5827477,
                50.0887777
              ]
            ]
          ]
        ]
      },
      "properties": {
        "@type": "way",
        "@id": 421231655,
        "@url": "https://www.openstreetmap.org/way/421231655",
        "backcountry": "no",
        "caravans": "yes",
        "drinking_water": "yes",
        "fee": "yes",
        "group_only": "no",
        "internet_access": "wlan",
        "internet_access:fee": "no",
        "name": "Sokol Praha",
        "nudism": "no",
        "picnic_table": "yes",
        "power_supply": "yes",
        "reservation": "yes",
        "shower": "yes",
        "stars": "4",
        "static_caravans": "yes",
        "swimming_pool": "outdoor",
        "tents": "yes",
        "toilets": "yes",
        "tourism": "camp_site",
        "website": "https://www.campingsokol.cz/",
        "wheelchair": "yes"
      }
    },
    {
      "type": "Feature",
      "geometry": {
        "type": "MultiPolygon",
        "coordinates": [
          [
            [
              [
                14.4125538,
                50.0542163
              ],
              [
                14.4128655,
                50.0541599
              ],
              [
                14.4129156,
                50.0541494
              ],
              [
                14.4129806,
                50.0542142
              ],
              [
                14.4135171,
                50.0552388
              ],
              [
                14.4139712,
                50.0560895
              ],
              [
                14.4140105,
                50.056238
              ],
              [
                14.4139883,
                50.0563809
              ],
              [
                14.4138787,
                50.0564457
              ],
              [
                14.413647,
                50.0564612
              ],
              [
                14.4135575,
                50.0564569
              ],
              [
                14.4134784,
                50.0564354
              ],
              [
                14.4134227,
                50.05641
              ],
              [
                14.4133754,
                50.0563745
              ],
              [
                14.4133392,
                50.056331
              ],
              [
                14.4133131,
                50.0562672
              ],
              [
                14.4132711,
                50.0561233
              ],
              [
                14.413207,
                50.0559034
              ],
              [
                14.4131275,
                50.0556258
              ],
              [
                14.4130723,
                50.0554262
              ],
              [
                14.4130047,
                50.0552354
              ],
              [
                14.4127567,
                50.0546656
              ],
              [
                14.4125958,
                50.0542737
              ],
              [
                14.4125538,
                50.0542163
              ]
            ]
          ]
        ]
      },
      "properties": {
        "@type": "way",
        "@id": 433814461,
        "@url": "https://www.openstreetmap.org/way/433814461",
        "addr:city": "Praha",
        "addr:housenumber": "162",
        "addr:street": "Císařská louka",
        "cabins": "no",
        "caravans": "yes",
        "drinking_water": "yes",
        "name": "Praguecamp",
        "phone": "+420 702 145 150",
        "power_supply": "yes",
        "shower": "hot",
        "source": "cuzk:km",
        "tents": "yes",
        "tourism": "camp_site",
        "website": "https://www.praguecamp.cz/"
      }
    },
    {
      "type": "Feature",
      "geometry": {
        "type": "MultiPolygon",
        "coordinates": [
          [
            [
              [
                14.4327969,
                50.0875637
              ],
              [
                14.4327975,
                50.0874777
              ],
              [
                14.4328195,
                50.0874778
              ],
              [
                14.4329321,
                50.087478
              ],
              [
                14.4329312,
                50.0875642
              ],
              [
                14.4328633,
                50.0875639
              ],
              [
                14.4327969,
                50.0875637
              ]
            ]
          ]
        ]
      },
      "properties": {
        "@type": "way",
        "@id": 1007391006,
        "@url": "https://www.openstreetmap.org/way/1007391006",
        "access": "yes",
        "amenity": "toilets",
        "drinking_water": "yes",
        "fee": "yes",
        "female": "yes",
        "indoor": "room",
        "level": "0",
        "male": "yes",
        "room": "toilet",
        "toilets:disposal": "flush",
        "toilets:position": "seated;urinal",
        "wheelchair": "yes"
      }
    },
    {
      "type": "Feature",
      "geometry": {
        "type": "MultiPolygon",
        "coordinates": [
          [
            [
              [
                14.4134236,
                50.0475191
              ],
              [
                14.413499,
                50.0475029
              ],
              [
                14.4135629,
                50.0476254
              ],
              [
                14.4134876,
                50.0476416
              ],
              [
                14.4134236,
                50.0475191
              ]
            ]
          ]
        ]
      },
      "properties": {
        "@type": "way",
        "@id": 1459003803,
        "@url": "https://www.openstreetmap.org/way/1459003803",
        "access": "permissive",
        "amenity": "toilets",
        "building": "civic",
        "changing_table": "no",
        "drinking_water": "yes",
        "fee": "no",
        "gender_segregated": "yes",
        "portable": "no",
        "toilets:disposal": "flush",
        "toilets:handwashing": "yes",
        "toilets:paper_supplied": "yes",
        "toilets:position": "seated;urinal",
        "unisex": "yes"
      }
    }
  ]
}
