{
  "type": "FeatureCollection",
  "features": [
    {
      "type": "Feature",
      "geometry": {
        "type": "Point",
        "coordinates": [
          14.4482434,
          50.0688615
        ]
      },
      "properties": {
        "@type": "node",
        "@id": 2212953283,
        "@url": "https://www.openstreetmap.org/node/2212953283",
        "amenity": "mist_spraying_cooler",
        "bottle": "no",
        "covered": "no",
        "fee": "no",
        "indoor": "no",
        "source": "survey"
      }
    },
    {
      "type": "Feature",
      "geometry": {
        "type": "Point",
        "coordinates": [
          14.4225005,
          50.1028939
        ]
      },
      "properties": {
        "@type": "node",
        "@id": 4253464152,
        "@url": "https://www.openstreetmap.org/node/4253464152",
        "amenity": "mist_spraying_cooler",
        "source": "survey"
      }
    },
    {
      "type": "Feature",
      "geometry": {
        "type": "Point",
        "coordinates": [
          14.4211217,
          50.1030355
        ]
      },
      "properties": {
        "@type": "node",
        "@id": 4411670345,
        "@url": "https://www.openstreetmap.org/node/4411670345",
        "amenity": "mist_spraying_cooler",
        "source": "survey"
      }
    },
    {
      "type": "Feature",
      "geometry": {
        "type": "Point",
        "coordinates": [
          14.4974953,
          50.0357213
        ]
      },
      "properties": {
        "@type": "node",
        "@id": 11148011402,
        "@url": "https://www.openstreetmap.org/node/11148011402",
        "amenity": "mist_spraying_cooler",
        "description": "mlžítko"
      }
    },
    {
      "type": "Feature",
      "geometry": {
        "type": "Point",
        "coordinates": [
          14.4203369,
          50.0840461
        ]
      },
      "properties": {
        "@type": "node",
        "@id": 11942386904,
        "@url": "https://www.openstreetmap.org/node/11942386904",
        "amenity": "mist_spraying_cooler",
        "seasonal": "summer"
      }
    },
    {
      "type": "Feature",
      "geometry": {
        "type": "Point",
        "coordinates": [
          14.5023255,
          50.0570245
        ]
      },
      "properties": {
        "@type": "node",
        "@id": 12883550885,
        "@url": "https://www.openstreetmap.org/node/12883550885",
        "amenity": "mist_spraying_cooler"
      }
    },
    {
      "type": "Feature",
      "geometry": {
        "type": "Point",
        "coordinates": [
          14.4320631,
          50.0751051
        ]
      },
      "properties": {
        "@type": "node",
        "@id": 12906320572,
        "@url": "https://www.openstreetmap.org/node/12906320572",
        "amenity": "mist_spraying_cooler"
      }
    },
    {
      "type": "Feature",
      "geometry": {
        "type": "Point",
        "coordinates": [
          14.4196552,
          50.0742997
        ]
      },
      "properties": {
        "@type": "node",
        "@id": 12906336607,
        "@url": "https://www.openstreetmap.org/node/12906336607",
        "amenity": "mist_spraying_cooler"
      }
    },
    {
      "type": "Feature",
      "geometry": {
        "type": "Point",
        "coordinates": [
          14.4188755,
          50.0404069
        ]
      },
      "properties": {
        "@type": "node",
        "@id": 13312302464,
        "@url": "https://www.openstreetmap.org/node/13312302464",
        "amenity": "mist_spraying_cooler"
      }
    },
    {
      "type": "Feature",
      "geometry": {
        "type": "Point",
        "coordinates": [
          14.4151688,
          50.0731795
        ]
      },
      "properties": {
        "@type": "node",
        "@id": 13480010655,
        "@url": "https://www.openstreetmap.org/node/13480010655",
        "amenity": "mist_spraying_cooler",
        "seasonal": "summer"
      }
    },
    {
      "type": "Feature",
      "geometry": {
        "type": "Point",
        "coordinates": [
          14.4485173,
          50.0760517
        ]
      },
      "properties": {
        "@type": "node",
        "@id": 13852623566,
        "@url": "https://www.openstreetmap.org/node/13852623566",
        "amenity": "mist_spraying_cooler"
      }
    },
    {
      "type": "Feature",
      "geometry": {
        "type": "Point",
        "coordinates": [
          14.4035655,
          50.0720916
        ]
      },
      "properties": {
        "@type": "node",
        "@id": 14022347053,
        "@url": "https://www.openstreetmap.org/node/14022347053",
        "amenity": "mist_spraying_cooler",
        "drinking_water:signed": "no"
      }
    },
    {
      "type": "Feature",
      "geometry": {
        "type": "Point",
        "coordinates": [
          14.4287104,
          50.0879789
        ]
      },
      "properties": {
        "@type": "node",
        "@id": 14040916488,
        "@url": "https://www.openstreetmap.org/node/14040916488",
        "amenity": "mist_spraying_cooler",
        "drinking_water": "conditional",
        "drinking_water:signed": "no",
        "fountain": "nozzle",
        "height": "1.5",
        "indoor": "no",
        "inscription": "Brčko",
        "material": "steel",
        "mist_spraying_cooler": "pole",
        "seasonal": "yes"
      }
    },
    {
      "type": "Feature",
      "geometry": {
        "type": "Point",
        "coordinates": [
          14.429127,
          50.0885081
        ]
      },
      "properties": {
        "@type": "node",
        "@id": 14078793001,
        "@url": "https://www.openstreetmap.org/node/14078793001",
        "amenity": "mist_spraying_cooler",
        "drinking_water": "conditional",
        "drinking_water:signed": "no",
        "fountain": "nozzle",
        "height": "1.5",
        "indoor": "no",
        "inscription": "Brčko",
        "material": "steel",
        "mist_spraying_cooler": "pole",
        "seasonal": "yes"
      }
    },
    {
      "type": "Feature",
      "geometry": {
        "type": "Point",
        "coordinates": [
          14.4980393,
          50.0850985
        ]
      },
      "properties": {
        "@type": "node",
        "@id": 14115254530,
        "@url": "https://www.openstreetmap.org/node/14115254530",
        "amenity": "mist_spraying_cooler"
      }
    }
  ]
}
