{
  "type": "FeatureCollection",
  "features": [
    {
      "type": "Feature",
      "geometry": {
        "type": "Point",
        "coordinates": [
          14.4305192,
          50.0455188
        ]
      },
      "properties": {
        "@type": "node",
        "@id": 776060457,
        "@url": "https://www.openstreetmap.org/node/776060457",
        "access": "yes",
        "activation": "button",
        "bottle": "yes",
        "check_date": "2026",
        "description": "Pítko K Sídlišti, před ZŠ",
        "disused:amenity": "drinking_water",
        "dog": "no",
        "fee": "no",
        "fountain": "spout",
        "material": "metal",
        "model": "Roma",
        "opening_hours": "24/7",
        "ref:prazskapitka": "81",
        "seasonal": "summer",
        "wheelchair": "yes"
      }
    },
    {
      "type": "Feature",
      "geometry": {
        "type": "Point",
        "coordinates": [
          14.490459,
          50.0441132
        ]
      },
      "properties": {
        "@type": "node",
        "@id": 1849697375,
        "@url": "https://www.openstreetmap.org/node/1849697375",
        "access": "yes",
        "bottle": "no",
        "check_date": "2026-07-17",
        "description": "Pítko Choceradská",
        "disused:amenity": "drinking_water",
        "dog": "no",
        "fee": "no",
        "fountain": "spout",
        "material": "metal",
        "model": "Roma",
        "opening_hours": "24/7",
        "ref:prazskapitka": "83",
        "seasonal": "summer"
      }
    },
    {
      "type": "Feature",
      "geometry": {
        "type": "Point",
        "coordinates": [
          14.4213823,
          50.0710799
        ]
      },
      "properties": {
        "@type": "node",
        "@id": 2351011059,
        "@url": "https://www.openstreetmap.org/node/2351011059",
        "access": "yes",
        "bottle": "no",
        "check_date": "2026",
        "description": "Pítko botanická zahrada Přf UK, dlouhodobě nefunkční",
        "disused:amenity": "drinking_water",
        "dog": "no",
        "drinking_water": "no",
        "fee": "no",
        "material": "stone",
        "opening_hours": "09:00-18:00",
        "ref:prazskapitka": "80",
        "seasonal": "summer",
        "source": "survey"
      }
    },
    {
      "type": "Feature",
      "geometry": {
        "type": "Point",
        "coordinates": [
          14.4210837,
          50.0651376
        ]
      },
      "properties": {
        "@type": "node",
        "@id": 3809564008,
        "@url": "https://www.openstreetmap.org/node/3809564008",
        "access": "yes",
        "bottle": "no",
        "check_date": "2026",
        "description": "Pítko u gorlice, již dlouho nefunkční",
        "disused:amenity": "drinking_water",
        "dog": "no",
        "drinking_water": "no",
        "fee": "no",
        "material": "stone",
        "name:ru": "Питьевой фонтан в Вышеграде",
        "opening_hours": "24/7",
        "operational_status": "broken",
        "ref:prazskapitka": "2",
        "seasonal": "summer",
        "source": "CZ:IPRPraha:ortofoto"
      }
    },
    {
      "type": "Feature",
      "geometry": {
        "type": "Point",
        "coordinates": [
          14.4168419,
          50.086642
        ]
      },
      "properties": {
        "@type": "node",
        "@id": 3902942538,
        "@url": "https://www.openstreetmap.org/node/3902942538",
        "access": "yes",
        "bottle": "no",
        "check_date": "2026-07-10",
        "description": "Pítko Klementinum, dlouhodobě mimo provoz",
        "disused:amenity": "drinking_water",
        "dog": "no",
        "fee": "no",
        "material": "stone",
        "opening_hours": "06:00-22:00",
        "ref:drobne_pamatky": "86681",
        "ref:prazskapitka": "79",
        "seasonal": "summer",
        "wheelchair": "yes",
        "wikidata": "Q138688007"
      }
    },
    {
      "type": "Feature",
      "geometry": {
        "type": "Point",
        "coordinates": [
          14.403949,
          50.0817341
        ]
      },
      "properties": {
        "@type": "node",
        "@id": 4291535462,
        "@url": "https://www.openstreetmap.org/node/4291535462",
        "access": "yes",
        "bottle": "yes",
        "check_date": "2026",
        "description": "Pítko Újezd, naposledy funkční 2024, poté bylo tlačítko zrušeno. Dříve se aktivovalo tlačítkem, později nějakým jiným způsobem, teď je nefunkční.",
        "disused:amenity": "drinking_water",
        "dog": "no",
        "drinking_water": "no",
        "fee": "no",
        "fountain": "decorative",
        "material": "stone",
        "mist_spraying_cooler": "no",
        "opening_hours": "24/7",
        "operational_status": "broken",
        "ref:drobne_pamatky": "19382",
        "ref:prazskapitka": "1",
        "seasonal": "summer",
        "source": "CZ:IPRPraha:ortofoto;survey",
        "wheelchair": "yes",
        "wikidata": "Q64816034"
      }
    },
    {
      "type": "Feature",
      "geometry": {
        "type": "Point",
        "coordinates": [
          14.4164635,
          50.0636722
        ]
      },
      "properties": {
        "@type": "node",
        "@id": 4305072956,
        "@url": "https://www.openstreetmap.org/node/4305072956",
        "access": "yes",
        "bottle": "yes",
        "check_date": "2026-09-10",
        "cold_water": "yes",
        "description": "Pítko Vyšehrad, 2024 ještě fungovalo, 2026 rozbité",
        "disused:amenity": "drinking_water",
        "dog": "no",
        "fee": "no",
        "fountain": "spout",
        "manufacturer": "REX",
        "material": "cast_iron",
        "model": "Monachela",
        "opening_hours": "24/7",
        "operational_status": "broken",
        "ref:prazskapitka": "127",
        "seasonal": "summer",
        "wheelchair": "limited"
      }
    },
    {
      "type": "Feature",
      "geometry": {
        "type": "Point",
        "coordinates": [
          14.4236712,
          50.0825312
        ]
      },
      "properties": {
        "@type": "node",
        "@id": 4317595067,
        "@url": "https://www.openstreetmap.org/node/4317595067",
        "access": "yes",
        "bottle": "no",
        "check_date": "2026",
        "description": "Pítko hřiště Františkánská zahrada",
        "disused:amenity": "drinking_water",
        "dog": "no",
        "fee": "no",
        "opening_hours": "07:00-22:00",
        "ref:prazskapitka": "22",
        "seasonal": "summer",
        "source": "survey"
      }
    },
    {
      "type": "Feature",
      "geometry": {
        "type": "Point",
        "coordinates": [
          14.4000107,
          50.0753941
        ]
      },
      "properties": {
        "@type": "node",
        "@id": 6757938011,
        "@url": "https://www.openstreetmap.org/node/6757938011",
        "access": "yes",
        "bottle": "yes",
        "check_date": "2024",
        "description": "Pítko stanice přírodovědců",
        "disused:amenity": "drinking_water",
        "dog": "no",
        "drinking_water": "yes",
        "fee": "no",
        "manufacturer": "Sanela",
        "material": "metal",
        "model": "SLUN_23",
        "opening_hours": "yes",
        "ref:prazskapitka": "72",
        "seasonal": "summer",
        "source": "CZ:IPRPraha:ortofoto;survey",
        "wheelchair": "no"
      }
    },
    {
      "type": "Feature",
      "geometry": {
        "type": "Point",
        "coordinates": [
          14.4372917,
          50.063994
        ]
      },
      "properties": {
        "@type": "node",
        "@id": 7016578062,
        "@url": "https://www.openstreetmap.org/node/7016578062",
        "access": "yes",
        "bottle": "no",
        "check_date": "2026",
        "description": "Pítko park Na Fidlovačce, nefunkční, kohoutek byl 2026 odstraněn",
        "disused:amenity": "drinking_water",
        "dog": "no",
        "fee": "no",
        "material": "stone",
        "opening_hours": "24/7",
        "ref:prazskapitka": "159",
        "seasonal": "summer",
        "source": "CZ:IPRPraha:ortofoto",
        "wheelchair": "yes"
      }
    },
    {
      "type": "Feature",
      "geometry": {
        "type": "Point",
        "coordinates": [
          14.3480281,
          50.0487287
        ]
      },
      "properties": {
        "@type": "node",
        "@id": 7138853386,
        "@url": "https://www.openstreetmap.org/node/7138853386",
        "access": "yes",
        "bottle": "no",
        "check_date": "2025",
        "description": "Pítko ZŠ Otokara Chlupa, pod chodbou spojující budovy školy, již dlouho nefunkční",
        "disused:amenity": "drinking_water",
        "dog": "no",
        "fee": "no",
        "fountain": "bubbler",
        "indoor": "no",
        "material": "stone",
        "opening_hours": "24/7",
        "ref:prazskapitka": "68",
        "seasonal": "summer"
      }
    },
    {
      "type": "Feature",
      "geometry": {
        "type": "Point",
        "coordinates": [
          14.4509368,
          50.1000732
        ]
      },
      "properties": {
        "@type": "node",
        "@id": 9083768797,
        "@url": "https://www.openstreetmap.org/node/9083768797",
        "access": "yes",
        "activation": "pedal",
        "activation:action": "step_on",
        "bottle": "yes",
        "check_date": "2026",
        "description": "Pítko hřiště Sedmikráska, 2026, hledá se náhrada za exponované pítko na dětském hřišti",
        "disused:amenity": "drinking_water",
        "dog": "no",
        "fee": "no",
        "fountain": "spout",
        "manufacturer": "EP_Studio",
        "material": "metal",
        "model": "P",
        "opening_hours": "08:00-20:00",
        "operator": "Praha 7",
        "ref:prazskapitka": "192",
        "seasonal": "summer",
        "start_date": "2017",
        "water_flow": "normal",
        "wheelchair": "no"
      }
    },
    {
      "type": "Feature",
      "geometry": {
        "type": "Point",
        "coordinates": [
          14.4081656,
          50.1122356
        ]
      },
      "properties": {
        "@type": "node",
        "@id": 9455972730,
        "@url": "https://www.openstreetmap.org/node/9455972730",
        "access": "yes",
        "bottle": "no",
        "check_date": "2026",
        "description": "Pítko Císařský ostrov 2",
        "disused:amenity": "drinking_water",
        "dog": "no",
        "fee": "no",
        "fountain": "bubbler",
        "manufacturer": "mmcité",
        "material": "metal",
        "model": "Hydro_410",
        "opening_hours": "24/7",
        "ref:prazskapitka": "312",
        "seasonal": "summer",
        "start_date": "2021",
        "wheelchair": "yes"
      }
    },
    {
      "type": "Feature",
      "geometry": {
        "type": "Point",
        "coordinates": [
          14.447397,
          50.0649196
        ]
      },
      "properties": {
        "@type": "node",
        "@id": 9785743006,
        "@url": "https://www.openstreetmap.org/node/9785743006",
        "access": "yes",
        "activation": "button",
        "bottle": "no",
        "check_date": "2026",
        "description": "Pítko nádraží Praha-Vršovice",
        "disused:amenity": "drinking_water",
        "dog": "no",
        "fee": "no",
        "fountain": "bubbler",
        "manufacturer": "mmcité",
        "material": "metal",
        "model": "Hydro_310",
        "opening_hours": "24/7",
        "operator": "Správa železnic",
        "ref:prazskapitka": "289",
        "seasonal": "summer",
        "start_date": "2021",
        "wheelchair": "yes"
      }
    },
    {
      "type": "Feature",
      "geometry": {
        "type": "Point",
        "coordinates": [
          14.3081731,
          50.0896444
        ]
      },
      "properties": {
        "@type": "node",
        "@id": 10077585067,
        "@url": "https://www.openstreetmap.org/node/10077585067",
        "access": "yes",
        "activation": "button",
        "bottle": "yes",
        "check_date": "2025",
        "description": "Pítko Dědina východ",
        "disused:amenity": "drinking_water",
        "dog": "no",
        "fee": "no",
        "fountain": "spout",
        "manufacturer": "Benito",
        "material": "metal",
        "model": "Atlas",
        "opening_hours": "24/7",
        "ref:prazskapitka": "55",
        "seasonal": "summer",
        "wheelchair": "yes"
      }
    },
    {
      "type": "Feature",
      "geometry": {
        "type": "Point",
        "coordinates": [
          14.4918406,
          50.1250808
        ]
      },
      "properties": {
        "@type": "node",
        "@id": 12041353876,
        "@url": "https://www.openstreetmap.org/node/12041353876",
        "access": "yes",
        "bottle": "no",
        "check_date": "2026",
        "description": "Pítko hřiště Park Přátelství",
        "disused:amenity": "drinking_water",
        "dog": "no",
        "fee": "no",
        "fountain": "bubbler",
        "image": "https://hillview.cz/?lat=50.1251583333333&lon=14.491825&zoom=21&bearing=143.62&photo=hillview-85afeb9e-4ab4-485b-a2f0-b1be48a56b3a",
        "ref:prazskapitka": "229",
        "seasonal": "summer",
        "wheelchair": "yes"
      }
    },
    {
      "type": "Feature",
      "geometry": {
        "type": "Point",
        "coordinates": [
          14.4042183,
          50.0735875
        ]
      },
      "properties": {
        "@type": "node",
        "@id": 12244372169,
        "@url": "https://www.openstreetmap.org/node/12244372169",
        "access": "yes",
        "activation": "button",
        "activation:action": "push",
        "bottle": "yes",
        "check_date": "2026-09-18",
        "description": "Pítko náměstí 14. října",
        "disused:amenity": "drinking_water",
        "dog": "no",
        "fee": "no",
        "fountain": "spout",
        "manufacturer": "REX",
        "material": "cast_iron",
        "model": "Monachela",
        "opening_hours": "24/7",
        "ref:prazskapitka": "292",
        "seasonal": "summer",
        "water_flow": "normal",
        "wheelchair": "yes"
      }
    },
    {
      "type": "Feature",
      "geometry": {
        "type": "Point",
        "coordinates": [
          14.3898394,
          50.0416952
        ]
      },
      "properties": {
        "@type": "node",
        "@id": 12452990846,
        "@url": "https://www.openstreetmap.org/node/12452990846",
        "access": "yes",
        "activation": "button",
        "activation:action": "push",
        "bottle": "yes",
        "button_operated": "yes",
        "check_date": "2026",
        "description": "Pítko hřiště K Dalejím",
        "disused:amenity": "drinking_water",
        "dog": "no",
        "fee": "no",
        "fountain": "spout",
        "manufacturer": "REX",
        "material": "cast_iron",
        "model": "Prameník",
        "opening_hours": "24/7",
        "ref:prazskapitka": "233",
        "seasonal": "summer",
        "start_date": "2024",
        "water_flow": "normal",
        "wheelchair": "limited"
      }
    },
    {
      "type": "Feature",
      "geometry": {
        "type": "Point",
        "coordinates": [
          14.6179215,
          50.1120796
        ]
      },
      "properties": {
        "@type": "node",
        "@id": 13482905529,
        "@url": "https://www.openstreetmap.org/node/13482905529",
        "access": "yes",
        "bottle": "no",
        "check_date": "2026",
        "description": "Pítko Chodovická",
        "disused:amenity": "drinking_water",
        "dog": "no",
        "fee": "no",
        "fountain": "decorative",
        "opening_hours": "24/7",
        "ref:drobne_pamatky": "63337",
        "ref:prazskapitka": "103",
        "seasonal": "summer",
        "wheelchair": "yes",
        "wikidata": "Q105358110"
      }
    },
    {
      "type": "Feature",
      "geometry": {
        "type": "Point",
        "coordinates": [
          14.489818,
          50.0922767
        ]
      },
      "properties": {
        "@type": "node",
        "@id": 13482905530,
        "@url": "https://www.openstreetmap.org/node/13482905530",
        "access": "yes",
        "bottle": "no",
        "check_date": "2023",
        "description": "Pítko Na Jarově, tato fontánka již dlouho nefunguje",
        "disused:amenity": "drinking_water",
        "dog": "no",
        "fee": "no",
        "fountain": "decorative",
        "material": "stone",
        "opening_hours": "24/7",
        "ref:drobne_pamatky": "63339",
        "ref:prazskapitka": "108",
        "seasonal": "summer",
        "wikidata": "Q105386676"
      }
    },
    {
      "type": "Feature",
      "geometry": {
        "type": "Point",
        "coordinates": [
          14.4906072,
          50.1284898
        ]
      },
      "properties": {
        "@type": "node",
        "@id": 13708565090,
        "@url": "https://www.openstreetmap.org/node/13708565090",
        "access": "yes",
        "activation": "button",
        "bottle": "yes",
        "check_date": "2026",
        "covered": "no",
        "description": "Pítko poliklinika Prosek",
        "disused:amenity": "drinking_water",
        "dog": "no",
        "fee": "no",
        "fountain": "bubbler",
        "image": "https://hillview.cz/?lat=50.1285166666667&lon=14.4906222222222&zoom=19&bearing=200.38&photo=hillview-66e45479-6ff7-4bbd-872d-0608b760ffe4",
        "indoor": "no",
        "lit": "no",
        "manufacturer": "Sanela",
        "material": "metal",
        "model": "SLUN_23",
        "opening_hours": "24/7",
        "ref:prazskapitka": "99",
        "seasonal": "summer",
        "wheelchair": "yes"
      }
    },
    {
      "type": "Feature",
      "geometry": {
        "type": "Point",
        "coordinates": [
          14.3431098,
          50.050389
        ]
      },
      "properties": {
        "@type": "node",
        "@id": 14138160732,
        "@url": "https://www.openstreetmap.org/node/14138160732",
        "access": "yes",
        "activation": "button",
        "bottle": "no",
        "check_date": "2025",
        "description": "Pítko Petržílkova, bohužel slouží jako popelník",
        "disused:amenity": "drinking_water",
        "dog": "no",
        "fee": "no",
        "fountain": "bubbler",
        "manufacturer": "azp",
        "material": "metal",
        "model": "AFO_02",
        "opening_hours": "24/7",
        "ref:prazskapitka": "247",
        "seasonal": "summer",
        "wheelchair": "yes"
      }
    },
    {
      "type": "Feature",
      "geometry": {
        "type": "Point",
        "coordinates": [
          14.3841403,
          50.1162134
        ]
      },
      "properties": {
        "@type": "node",
        "@id": 14138172049,
        "@url": "https://www.openstreetmap.org/node/14138172049",
        "access": "yes",
        "bottle": "no",
        "check_date": "2024",
        "description": "Pítko hřiště Baba",
        "disused:amenity": "drinking_water",
        "dog": "no",
        "fee": "no",
        "fountain": "spout",
        "manufacturer": "REX",
        "material": "cast_iron",
        "model": "Monachela",
        "opening_hours": "24/7",
        "ref:prazskapitka": "50",
        "seasonal": "summer",
        "wheelchair": "yes"
      }
    },
    {
      "type": "Feature",
      "geometry": {
        "type": "Point",
        "coordinates": [
          14.3792538,
          50.0823144
        ]
      },
      "properties": {
        "@type": "node",
        "@id": 14138172417,
        "@url": "https://www.openstreetmap.org/node/14138172417",
        "access": "yes",
        "activation": "button",
        "bottle": "no",
        "check_date": "2026",
        "description": "Pítko Plivátko",
        "disused:amenity": "drinking_water",
        "dog": "no",
        "fee": "no",
        "fountain": "spout",
        "opening_hours": "24/7",
        "ref:prazskapitka": "277",
        "seasonal": "summer",
        "wheelchair": "no"
      }
    },
    {
      "type": "Feature",
      "geometry": {
        "type": "Point",
        "coordinates": [
          14.320786,
          50.0443588
        ]
      },
      "properties": {
        "@type": "node",
        "@id": 14138176553,
        "@url": "https://www.openstreetmap.org/node/14138176553",
        "access": "yes",
        "bottle": "no",
        "check_date": "2025",
        "description": "Pítko Luka, fontána uprostřed námněstí, již dlouho nefunkční",
        "disused:amenity": "drinking_water",
        "dog": "no",
        "fee": "no",
        "fountain": "decorative",
        "material": "metal",
        "opening_hours": "24/7",
        "ref:prazskapitka": "67",
        "seasonal": "summer",
        "wheelchair": "yes"
      }
    },
    {
      "type": "Feature",
      "geometry": {
        "type": "Point",
        "coordinates": [
          14.6407294,
          50.0798154
        ]
      },
      "properties": {
        "@type": "node",
        "@id": 14138178233,
        "@url": "https://www.openstreetmap.org/node/14138178233",
        "access": "yes",
        "activation": "button",
        "bottle": "no",
        "check_date": "2026",
        "description": "Pítko hřiště Nadějovská",
        "disused:amenity": "drinking_water",
        "dog": "no",
        "fee": "no",
        "fountain": "bubbler",
        "manufacturer": "CityZEN",
        "material": "concrete",
        "model": "CityZEN",
        "ref:prazskapitka": "223",
        "seasonal": "summer",
        "wheelchair": "yes"
      }
    },
    {
      "type": "Feature",
      "geometry": {
        "type": "Point",
        "coordinates": [
          14.3556569,
          50.0847008
        ]
      },
      "properties": {
        "@type": "node",
        "@id": 14138182148,
        "@url": "https://www.openstreetmap.org/node/14138182148",
        "access": "yes",
        "bottle": "no",
        "check_date": "2025",
        "description": "Pítko Břevnovský Klášter",
        "disused:amenity": "drinking_water",
        "dog": "no",
        "fee": "no",
        "fountain": "spout",
        "material": "stone",
        "ref:prazskapitka": "88",
        "seasonal": "summer"
      }
    },
    {
      "type": "Feature",
      "geometry": {
        "type": "Point",
        "coordinates": [
          14.3480461,
          50.0563449
        ]
      },
      "properties": {
        "@type": "node",
        "@id": 14138182769,
        "@url": "https://www.openstreetmap.org/node/14138182769",
        "access": "yes",
        "bottle": "no",
        "check_date": "2025",
        "description": "Pítko hřiště Pod Stolovou horou",
        "disused:amenity": "drinking_water",
        "dog": "no",
        "fee": "no",
        "fountain": "spout",
        "manufacturer": "REX",
        "material": "cast_iron",
        "model": "Monachela",
        "ref:prazskapitka": "231",
        "seasonal": "summer",
        "wheelchair": "limited"
      }
    },
    {
      "type": "Feature",
      "geometry": {
        "type": "Point",
        "coordinates": [
          14.4464328,
          50.0952486
        ]
      },
      "properties": {
        "@type": "node",
        "@id": 14138191562,
        "@url": "https://www.openstreetmap.org/node/14138191562",
        "access": "yes",
        "bottle": "no",
        "check_date": "2026",
        "description": "Pítko Karolinská",
        "disused:amenity": "drinking_water",
        "dog": "no",
        "fee": "no",
        "fountain": "bubbler",
        "manufacturer": "Vandesign",
        "material": "metal",
        "model": "Juncus_K",
        "opening_hours": "24/7",
        "ref:prazskapitka": "310",
        "seasonal": "summer",
        "wheelchair": "yes"
      }
    },
    {
      "type": "Feature",
      "geometry": {
        "type": "Point",
        "coordinates": [
          14.5043946,
          50.0813562
        ]
      },
      "properties": {
        "@type": "node",
        "@id": 14138193392,
        "@url": "https://www.openstreetmap.org/node/14138193392",
        "access": "yes",
        "bottle": "yes",
        "button_operated": "yes",
        "check_date": "2025",
        "description": "Pítko Tuchorazská",
        "disused:amenity": "drinking_water",
        "dog": "no",
        "fee": "no",
        "fountain": "bubbler",
        "manufacturer": "Pítko",
        "material": "metal",
        "model": "AFO_03",
        "opening_hours": "24/7",
        "ref:prazskapitka": "165",
        "seasonal": "summer",
        "water_flow": "normal",
        "wheelchair": "yes"
      }
    },
    {
      "type": "Feature",
      "geometry": {
        "type": "Point",
        "coordinates": [
          14.5235082,
          50.0307363
        ]
      },
      "properties": {
        "@type": "node",
        "@id": 14138195700,
        "@url": "https://www.openstreetmap.org/node/14138195700",
        "access": "yes",
        "bottle": "no",
        "check_date": "2026",
        "description": "Pítko Centrální park, v roce 2026 je odinstalováno",
        "disused:amenity": "drinking_water",
        "dog": "no",
        "drinking_water": "no",
        "fee": "no",
        "opening_hours": "24/7",
        "ref:prazskapitka": "63",
        "seasonal": "summer"
      }
    },
    {
      "type": "Feature",
      "geometry": {
        "type": "Point",
        "coordinates": [
          14.4984233,
          50.0846821
        ]
      },
      "properties": {
        "@type": "node",
        "@id": 14138205592,
        "@url": "https://www.openstreetmap.org/node/14138205592",
        "access": "yes",
        "activation": "button",
        "bottle": "yes",
        "check_date": "2025",
        "description": "Pítko Malešický park střed-sever",
        "disused:amenity": "drinking_water",
        "dog": "no",
        "fee": "no",
        "fountain": "spout",
        "manufacturer": "Urbania",
        "material": "metal",
        "model": "Escape",
        "opening_hours": "24/7",
        "ref:prazskapitka": "117",
        "seasonal": "summer",
        "wheelchair": "yes"
      }
    },
    {
      "type": "Feature",
      "geometry": {
        "type": "Point",
        "coordinates": [
          14.5338035,
          50.0331027
        ]
      },
      "properties": {
        "@type": "node",
        "@id": 14138205596,
        "@url": "https://www.openstreetmap.org/node/14138205596",
        "access": "yes",
        "bottle": "no",
        "check_date": "2025",
        "description": "Pítko hřiště Kropáčkova, dřevěný špalek, už dlouho nepoužívané",
        "disused:amenity": "drinking_water",
        "dog": "no",
        "fee": "no",
        "fountain": "bubbler",
        "material": "wood",
        "ref:prazskapitka": "64",
        "seasonal": "summer",
        "wheelchair": "no"
      }
    },
    {
      "type": "Feature",
      "geometry": {
        "type": "Point",
        "coordinates": [
          14.4815285,
          50.1448223
        ]
      },
      "properties": {
        "@type": "node",
        "@id": 14138220510,
        "@url": "https://www.openstreetmap.org/node/14138220510",
        "access": "yes",
        "activation": "turn_valve",
        "bottle": "yes",
        "check_date": "2025",
        "description": "Pítko Osinalická",
        "disused:amenity": "drinking_water",
        "dog": "no",
        "fee": "no",
        "fountain": "spout",
        "opening_hours": "24/7",
        "operational_status": "broken",
        "ref:prazskapitka": "100",
        "seasonal": "summer",
        "wheelchair": "limited"
      }
    },
    {
      "type": "Feature",
      "geometry": {
        "type": "Point",
        "coordinates": [
          14.658557,
          50.0779957
        ]
      },
      "properties": {
        "@type": "node",
        "@id": 14138228404,
        "@url": "https://www.openstreetmap.org/node/14138228404",
        "access": "yes",
        "activation": "button",
        "bottle": "yes",
        "check_date": "2026-09-12",
        "description": "Pítko hřiště Čentická sever",
        "disused:amenity": "drinking_water",
        "dog": "no",
        "fee": "no",
        "fountain": "spout",
        "material": "stone",
        "ref:prazskapitka": "222",
        "seasonal": "summer",
        "wheelchair": "limited"
      }
    }
  ]
}
