{
  "type": "FeatureCollection",
  "features": [
    {
      "type": "Feature",
      "geometry": {
        "type": "Point",
        "coordinates": [
          14.4100697,
          50.1166865
        ]
      },
      "properties": {
        "@type": "node",
        "@id": 2408590747,
        "@url": "https://www.openstreetmap.org/node/2408590747",
        "access": "customers",
        "amenity": "drinking_water",
        "bottle": "no",
        "description": "ZOO 2",
        "dog": "no",
        "fee": "no",
        "fountain": "bubbler",
        "opening_hours": "09:00-19:00",
        "ref:prazskapitka": "92",
        "seasonal": "summer",
        "source": "CZ:IPRPraha:ortofoto"
      }
    },
    {
      "type": "Feature",
      "geometry": {
        "type": "Point",
        "coordinates": [
          14.4146272,
          50.1192225
        ]
      },
      "properties": {
        "@type": "node",
        "@id": 3213675728,
        "@url": "https://www.openstreetmap.org/node/3213675728",
        "access": "customers",
        "activation": "turn_valve",
        "activation:action": "turn",
        "amenity": "drinking_water",
        "bottle": "yes",
        "check_date": "2025",
        "description": "Botanická 2",
        "dog": "yes",
        "fee": "no",
        "material": "wood",
        "opening_hours": "09:00-19:00",
        "ref:prazskapitka": "75",
        "seasonal": "summer",
        "source": "CZ:IPRPraha:ortofoto",
        "water_flow": "adjustable",
        "wheelchair": "no"
      }
    },
    {
      "type": "Feature",
      "geometry": {
        "type": "Point",
        "coordinates": [
          14.4136696,
          50.0620885
        ]
      },
      "properties": {
        "@type": "node",
        "@id": 3445261012,
        "@url": "https://www.openstreetmap.org/node/3445261012",
        "access": "customers",
        "amenity": "drinking_water",
        "check_date": "2023-06-29",
        "fee": "no",
        "man_made": "water_tap"
      }
    },
    {
      "type": "Feature",
      "geometry": {
        "type": "Point",
        "coordinates": [
          14.4151837,
          50.1208056
        ]
      },
      "properties": {
        "@type": "node",
        "@id": 3939122651,
        "@url": "https://www.openstreetmap.org/node/3939122651",
        "access": "customers",
        "amenity": "drinking_water",
        "description": "v zimě mimo provoz",
        "source": "gps"
      }
    },
    {
      "type": "Feature",
      "geometry": {
        "type": "Point",
        "coordinates": [
          14.4172156,
          50.1224497
        ]
      },
      "properties": {
        "@type": "node",
        "@id": 3939122655,
        "@url": "https://www.openstreetmap.org/node/3939122655",
        "access": "customers",
        "activation": "button",
        "activation:action": "hold",
        "amenity": "drinking_water",
        "bottle": "yes",
        "check_date": "2025",
        "description": "v zimě mimo provoz",
        "dog": "no",
        "fee": "no",
        "fountain": "spout",
        "man_made": "water_tap",
        "manufacturer": "Benito",
        "material": "metal",
        "model": "Atlas",
        "opening_hours": "09:00-19:00",
        "ref:prazskapitka": "76",
        "seasonal": "summer",
        "source": "gps",
        "water_flow": "normal",
        "wheelchair": "limited"
      }
    },
    {
      "type": "Feature",
      "geometry": {
        "type": "Point",
        "coordinates": [
          14.4153855,
          50.1177395
        ]
      },
      "properties": {
        "@type": "node",
        "@id": 4727468258,
        "@url": "https://www.openstreetmap.org/node/4727468258",
        "access": "customers",
        "activation": "turn_valve",
        "activation:action": "turn",
        "amenity": "drinking_water",
        "bottle": "yes",
        "check_date": "2025",
        "description": "Botanická 4 vinice",
        "dog": "no",
        "fee": "no",
        "fountain": "spout",
        "material": "stone",
        "opening_hours": "09:00-19:00",
        "ref:prazskapitka": "74",
        "seasonal": "summer",
        "water_flow": "adjustable",
        "wheelchair": "yes"
      }
    },
    {
      "type": "Feature",
      "geometry": {
        "type": "Point",
        "coordinates": [
          14.2652087,
          50.1056637
        ]
      },
      "properties": {
        "@type": "node",
        "@id": 9060759065,
        "@url": "https://www.openstreetmap.org/node/9060759065",
        "access": "customers",
        "amenity": "drinking_water",
        "bottle": "yes",
        "fee": "no",
        "fountain": "bubbler",
        "indoor": "yes",
        "level": "1",
        "lit": "yes",
        "ref:prazskapitka": "348",
        "wheelchair": "yes"
      }
    },
    {
      "type": "Feature",
      "geometry": {
        "type": "Point",
        "coordinates": [
          14.2664967,
          50.1047029
        ]
      },
      "properties": {
        "@type": "node",
        "@id": 10879583805,
        "@url": "https://www.openstreetmap.org/node/10879583805",
        "access": "customers",
        "amenity": "drinking_water",
        "bottle": "yes",
        "fee": "no",
        "fountain": "bubbler",
        "indoor": "yes",
        "ref:prazskapitka": "347",
        "wheelchair": "yes"
      }
    },
    {
      "type": "Feature",
      "geometry": {
        "type": "Point",
        "coordinates": [
          14.4139242,
          50.1217047
        ]
      },
      "properties": {
        "@type": "node",
        "@id": 11050598505,
        "@url": "https://www.openstreetmap.org/node/11050598505",
        "access": "customers",
        "amenity": "drinking_water",
        "name:de": "Trinkwasserbrunnen",
        "name:en": "Drinking Fountain",
        "operator": "Fata Morgana Botanical Garden"
      }
    },
    {
      "type": "Feature",
      "geometry": {
        "type": "Point",
        "coordinates": [
          14.4504054,
          50.0942623
        ]
      },
      "properties": {
        "@type": "node",
        "@id": 11158546771,
        "@url": "https://www.openstreetmap.org/node/11158546771",
        "access": "customers",
        "activation": "turn_valve",
        "amenity": "drinking_water",
        "bottle": "yes",
        "check_date": "2026",
        "description": "Pítko MFF UK Sokolovská",
        "dog": "no",
        "fee": "no",
        "fountain": "spout",
        "manufacturer": "REX",
        "material": "cast_iron",
        "model": "Monachela",
        "opening_hours": "yes",
        "ref:prazskapitka": "307",
        "seasonal": "summer",
        "water_flow": "adjustable",
        "wheelchair": "yes"
      }
    },
    {
      "type": "Feature",
      "geometry": {
        "type": "Point",
        "coordinates": [
          14.4032925,
          50.1205843
        ]
      },
      "properties": {
        "@type": "node",
        "@id": 11299903439,
        "@url": "https://www.openstreetmap.org/node/11299903439",
        "access": "customers",
        "amenity": "drinking_water"
      }
    },
    {
      "type": "Feature",
      "geometry": {
        "type": "Point",
        "coordinates": [
          14.4149913,
          50.1217284
        ]
      },
      "properties": {
        "@type": "node",
        "@id": 11882220901,
        "@url": "https://www.openstreetmap.org/node/11882220901",
        "access": "customers",
        "amenity": "drinking_water",
        "bottle": "yes",
        "button_operated": "yes",
        "check_date": "2025",
        "description": "Botanická 6",
        "dog": "no",
        "fee": "no",
        "fountain": "spout",
        "manufacturer": "Metalco",
        "material": "metal",
        "model": "Fuente_R",
        "opening_hours": "09:00-19:00",
        "ref:prazskapitka": "97",
        "seasonal": "summer",
        "water_flow": "normal",
        "wheelchair": "yes"
      }
    },
    {
      "type": "Feature",
      "geometry": {
        "type": "Point",
        "coordinates": [
          14.4160762,
          50.1197769
        ]
      },
      "properties": {
        "@type": "node",
        "@id": 11882220928,
        "@url": "https://www.openstreetmap.org/node/11882220928",
        "access": "customers",
        "amenity": "drinking_water",
        "bottle": "yes",
        "button_operated": "yes",
        "check_date": "2025",
        "description": "Botanická 3",
        "dog": "no",
        "fee": "no",
        "fountain": "spout",
        "man_made": "water_tap",
        "manufacturer": "Benito",
        "material": "metal",
        "model": "Atlas",
        "opening_hours": "09:00-19:00",
        "ref:prazskapitka": "218",
        "seasonal": "summer",
        "water_flow": "normal",
        "wheelchair": "no"
      }
    },
    {
      "type": "Feature",
      "geometry": {
        "type": "Point",
        "coordinates": [
          14.4153461,
          50.1195884
        ]
      },
      "properties": {
        "@type": "node",
        "@id": 11882220929,
        "@url": "https://www.openstreetmap.org/node/11882220929",
        "access": "customers",
        "activation": "button",
        "activation:action": "push",
        "amenity": "drinking_water",
        "bottle": "yes",
        "check_date": "2025",
        "description": "Botanická 5",
        "dog": "no",
        "fee": "no",
        "fountain": "spout",
        "man_made": "water_tap",
        "manufacturer": "Benito",
        "material": "metal",
        "model": "Atlas",
        "opening_hours": "09:00-19:00",
        "ref:prazskapitka": "217",
        "seasonal": "summer",
        "water_flow": "normal",
        "wheelchair": "no"
      }
    },
    {
      "type": "Feature",
      "geometry": {
        "type": "Point",
        "coordinates": [
          14.4162502,
          50.1210613
        ]
      },
      "properties": {
        "@type": "node",
        "@id": 12819591978,
        "@url": "https://www.openstreetmap.org/node/12819591978",
        "access": "customers",
        "activation": "button",
        "activation:action": "push",
        "amenity": "drinking_water",
        "bottle": "yes",
        "check_date": "2025",
        "description": "Botanická 1",
        "dog": "yes",
        "fee": "no",
        "fountain": "bubbler",
        "material": "metal",
        "opening_hours": "09:00-19:00",
        "ref:prazskapitka": "70",
        "seasonal": "summer",
        "water_flow": "normal",
        "wheelchair": "yes"
      }
    },
    {
      "type": "Feature",
      "geometry": {
        "type": "Point",
        "coordinates": [
          14.2630042,
          50.1066595
        ]
      },
      "properties": {
        "@type": "node",
        "@id": 13041979482,
        "@url": "https://www.openstreetmap.org/node/13041979482",
        "access": "customers",
        "amenity": "drinking_water",
        "bottle": "yes",
        "fee": "no",
        "fountain": "bubbler",
        "indoor": "yes",
        "ref:prazskapitka": "351",
        "wheelchair": "yes"
      }
    },
    {
      "type": "Feature",
      "geometry": {
        "type": "Point",
        "coordinates": [
          14.455678,
          50.0393994
        ]
      },
      "properties": {
        "@type": "node",
        "@id": 13551112560,
        "@url": "https://www.openstreetmap.org/node/13551112560",
        "access": "customers",
        "amenity": "drinking_water",
        "bottle": "no",
        "check_date": "2026",
        "description": "Pítko škola svatého Augustina",
        "dog": "no",
        "fee": "no",
        "opening_hours": "24/7",
        "ref:prazskapitka": "323",
        "seasonal": "summer"
      }
    },
    {
      "type": "Feature",
      "geometry": {
        "type": "Point",
        "coordinates": [
          14.2639985,
          50.1060147
        ]
      },
      "properties": {
        "@type": "node",
        "@id": 14084852128,
        "@url": "https://www.openstreetmap.org/node/14084852128",
        "access": "customers",
        "amenity": "drinking_water",
        "bottle": "yes",
        "fee": "no",
        "fountain": "bubbler",
        "indoor": "yes",
        "level": "1",
        "ref:prazskapitka": "350",
        "wheelchair": "yes"
      }
    },
    {
      "type": "Feature",
      "geometry": {
        "type": "Point",
        "coordinates": [
          14.2640684,
          50.1059777
        ]
      },
      "properties": {
        "@type": "node",
        "@id": 14084899012,
        "@url": "https://www.openstreetmap.org/node/14084899012",
        "access": "customers",
        "amenity": "drinking_water",
        "bottle": "yes",
        "fee": "no",
        "fountain": "bubbler",
        "indoor": "yes",
        "level": "0",
        "ref:prazskapitka": "349",
        "wheelchair": "yes"
      }
    },
    {
      "type": "Feature",
      "geometry": {
        "type": "Point",
        "coordinates": [
          14.262785300000001,
          50.1067685
        ]
      },
      "properties": {
        "@type": "node",
        "@id": 14084899017,
        "@url": "https://www.openstreetmap.org/node/14084899017",
        "access": "customers",
        "amenity": "drinking_water",
        "bottle": "yes",
        "fee": "no",
        "fountain": "bubbler",
        "indoor": "yes",
        "level": "0",
        "ref:prazskapitka": "352",
        "wheelchair": "yes"
      }
    },
    {
      "type": "Feature",
      "geometry": {
        "type": "Point",
        "coordinates": [
          14.3977323,
          50.0893624
        ]
      },
      "properties": {
        "@type": "node",
        "@id": 14138163164,
        "@url": "https://www.openstreetmap.org/node/14138163164",
        "access": "private",
        "amenity": "drinking_water",
        "bottle": "no",
        "description": "Pítko Salmovský palác",
        "dog": "no",
        "fee": "no",
        "ref:prazskapitka": "285",
        "seasonal": "summer"
      }
    },
    {
      "type": "Feature",
      "geometry": {
        "type": "Point",
        "coordinates": [
          14.4237977,
          50.0428738
        ]
      },
      "properties": {
        "@type": "node",
        "@id": 14138166996,
        "@url": "https://www.openstreetmap.org/node/14138166996",
        "access": "customers",
        "amenity": "drinking_water",
        "bottle": "yes",
        "button_operated": "yes",
        "check_date": "2026",
        "description": "Pítko hřiště ZŠ Jeremenkova",
        "dog": "no",
        "fee": "no",
        "fountain": "spout",
        "image": "https://hillview.cz/?lat=50.0428555555556&lon=14.4238027777778&zoom=18&bearing=294.76&photo=hillview-61aa0465-b252-4696-8d9d-71c74b1ec97e",
        "manufacturer": "Benito",
        "material": "metal",
        "model": "Atlas",
        "ref:prazskapitka": "339",
        "seasonal": "summer",
        "water_flow": "normal",
        "wheelchair": "yes"
      }
    },
    {
      "type": "Feature",
      "geometry": {
        "type": "Point",
        "coordinates": [
          14.4123437,
          50.1176094
        ]
      },
      "properties": {
        "@type": "node",
        "@id": 14138175302,
        "@url": "https://www.openstreetmap.org/node/14138175302",
        "access": "customers",
        "amenity": "drinking_water",
        "bottle": "no",
        "description": "Botanická 9 vinice",
        "dog": "no",
        "fee": "no",
        "fountain": "spout",
        "opening_hours": "09:00-19:00",
        "ref:prazskapitka": "220",
        "seasonal": "summer"
      }
    },
    {
      "type": "Feature",
      "geometry": {
        "type": "Point",
        "coordinates": [
          14.4193516,
          50.1228365
        ]
      },
      "properties": {
        "@type": "node",
        "@id": 14138176956,
        "@url": "https://www.openstreetmap.org/node/14138176956",
        "access": "customers",
        "amenity": "drinking_water",
        "bottle": "yes",
        "button_operated": "yes",
        "check_date": "2025",
        "description": "Botanická 8",
        "dog": "no",
        "fee": "no",
        "fountain": "spout",
        "manufacturer": "Benito",
        "material": "metal",
        "model": "Atlas",
        "opening_hours": "09:00-19:00",
        "ref:prazskapitka": "215",
        "seasonal": "summer",
        "water_flow": "normal",
        "wheelchair": "limited"
      }
    },
    {
      "type": "Feature",
      "geometry": {
        "type": "Point",
        "coordinates": [
          14.418303,
          50.1217989
        ]
      },
      "properties": {
        "@type": "node",
        "@id": 14138177357,
        "@url": "https://www.openstreetmap.org/node/14138177357",
        "access": "customers",
        "amenity": "drinking_water",
        "bottle": "yes",
        "button_operated": "yes",
        "check_date": "2025",
        "description": "Botanická 7",
        "dog": "no",
        "fee": "no",
        "fountain": "spout",
        "opening_hours": "09:00-19:00",
        "ref:prazskapitka": "216",
        "seasonal": "summer",
        "water_flow": "normal",
        "wheelchair": "no"
      }
    }
  ]
}
