<?xml version="1.0" encoding="UTF-8"?>
<gpx version="1.0" creator="GPSBabel - https://www.gpsbabel.org" xmlns="http://www.topografix.com/GPX/1/0">
  <bounds minlat="49.788100600" minlon="13.128043700" maxlat="49.791505800" maxlon="13.133797200"/>
  <wpt lat="49.788100600" lon="13.133797200">
    <name>WPT001</name>
    <cmt>WPT001</cmt>
    <desc>WPT001</desc>
  </wpt>
  <wpt lat="49.791505800" lon="13.128043700">
    <name>WPT002</name>
    <cmt>WPT002</cmt>
    <desc>WPT002</desc>
  </wpt>
</gpx>
