<?xml version="1.0" encoding="UTF-8"?>
<gpx version="1.0" creator="GPSBabel - https://www.gpsbabel.org" xmlns="http://www.topografix.com/GPX/1/0">
  <bounds minlat="48.854251600" minlon="12.513650500" maxlat="50.889193900" maxlon="18.321226600"/>
  <wpt lat="50.082168800" lon="14.259967500">
    <name>WPT001</name>
    <cmt>WPT001</cmt>
    <desc>WPT001</desc>
  </wpt>
  <wpt lat="50.157634600" lon="14.826391600">
    <name>WPT002</name>
    <cmt>WPT002</cmt>
    <desc>WPT002</desc>
  </wpt>
  <wpt lat="49.813546100" lon="15.479379000">
    <name>ReUse centrum</name>
    <cmt>ReUse centrum</cmt>
    <desc>ReUse centrum</desc>
  </wpt>
  <wpt lat="48.897485300" lon="17.315833900">
    <name>Sběrný dvůr Strážnice</name>
    <cmt>Sběrný dvůr Strážnice</cmt>
    <desc>Sběrný dvůr Strážnice</desc>
  </wpt>
  <wpt lat="50.226593900" lon="14.584864500">
    <name>WPT005</name>
    <cmt>WPT005</cmt>
    <desc>WPT005</desc>
  </wpt>
  <wpt lat="49.379090400" lon="17.584896800">
    <name>Sběrný dvůr Prusinovice</name>
    <cmt>Sběrný dvůr Prusinovice</cmt>
    <desc>Sběrný dvůr Prusinovice</desc>
  </wpt>
  <wpt lat="49.253666100" lon="16.929210200">
    <name>WPT007</name>
    <cmt>WPT007</cmt>
    <desc>WPT007</desc>
  </wpt>
  <wpt lat="49.212008900" lon="17.029165700">
    <name>WPT008</name>
    <cmt>WPT008</cmt>
    <desc>WPT008</desc>
  </wpt>
  <wpt lat="50.311477100" lon="17.087629000">
    <name>WPT009</name>
    <cmt>WPT009</cmt>
    <desc>WPT009</desc>
  </wpt>
  <wpt lat="49.532232900" lon="17.378644500">
    <name>Bergasto Enviroment</name>
    <cmt>Bergasto Enviroment</cmt>
    <desc>Bergasto Enviroment</desc>
  </wpt>
  <wpt lat="49.589843700" lon="17.394807600">
    <name>Sběrné místo Přáslavice</name>
    <cmt>Sběrné místo Přáslavice</cmt>
    <desc>Sběrné místo Přáslavice</desc>
  </wpt>
  <wpt lat="49.949897400" lon="15.656285300">
    <name>Sběrné suroviny Josef Vostrovský</name>
    <cmt>Sběrné suroviny Josef Vostrovský</cmt>
    <desc>Sběrné suroviny Josef Vostrovský</desc>
  </wpt>
  <wpt lat="50.070862300" lon="15.849491300">
    <name>Sběrný dvůr - Sezemice</name>
    <cmt>Sběrný dvůr - Sezemice</cmt>
    <desc>Sběrný dvůr - Sezemice</desc>
  </wpt>
  <wpt lat="50.068925400" lon="15.902271000">
    <name>WPT014</name>
    <cmt>WPT014</cmt>
    <desc>WPT014</desc>
  </wpt>
  <wpt lat="49.154128500" lon="17.851557200">
    <name>sběrný dvůr Slopné</name>
    <cmt>sběrný dvůr Slopné</cmt>
    <desc>sběrný dvůr Slopné</desc>
  </wpt>
  <wpt lat="50.249653400" lon="15.716071100">
    <name>Skládka bioodpadu</name>
    <cmt>Skládka bioodpadu</cmt>
    <desc>Skládka bioodpadu</desc>
  </wpt>
  <wpt lat="50.575677100" lon="15.895046200">
    <name>WPT017</name>
    <cmt>WPT017</cmt>
    <desc>WPT017</desc>
  </wpt>
  <wpt lat="48.854251600" lon="14.369238500">
    <name>WPT018</name>
    <cmt>WPT018</cmt>
    <desc>WPT018</desc>
  </wpt>
  <wpt lat="49.151271100" lon="14.725282500">
    <name>Místo sběrného odpadu</name>
    <cmt>Místo sběrného odpadu</cmt>
    <desc>Místo sběrného odpadu</desc>
  </wpt>
  <wpt lat="49.046746700" lon="16.309854400">
    <name>WPT020</name>
    <cmt>WPT020</cmt>
    <desc>WPT020</desc>
  </wpt>
  <wpt lat="50.654304600" lon="15.820615600">
    <name>Očistné centrum</name>
    <cmt>Očistné centrum</cmt>
    <desc>Očistné centrum</desc>
  </wpt>
  <wpt lat="49.629382200" lon="16.222754100">
    <name>WPT022</name>
    <cmt>WPT022</cmt>
    <desc>WPT022</desc>
    <url>https://www.jimramov.cz/index.php/novinky-a-udalosti/kulturni-a-sportovni-akce/2681-sberne-misto-na-cov-jimramov</url>
  </wpt>
  <wpt lat="50.691624400" lon="13.990159400">
    <name>WPT023</name>
    <cmt>WPT023</cmt>
    <desc>WPT023</desc>
  </wpt>
  <wpt lat="49.302835400" lon="14.478168600">
    <name>Sběrný dvůr Bechyně</name>
    <cmt>Sběrný dvůr Bechyně</cmt>
    <desc>Sběrný dvůr Bechyně</desc>
  </wpt>
  <wpt lat="49.630141800" lon="18.315762700">
    <name>WPT025</name>
    <cmt>WPT025</cmt>
    <desc>WPT025</desc>
  </wpt>
  <wpt lat="49.711991000" lon="14.906539000">
    <name>Sběrný dvůr, Vlašim</name>
    <cmt>Sběrný dvůr, Vlašim</cmt>
    <desc>Sběrný dvůr, Vlašim</desc>
  </wpt>
  <wpt lat="49.956275300" lon="14.750994300">
    <name>Sběrný dvůr Struhařov</name>
    <cmt>Sběrný dvůr Struhařov</cmt>
    <desc>Sběrný dvůr Struhařov</desc>
  </wpt>
  <wpt lat="49.942418500" lon="14.754795700">
    <name>WPT028</name>
    <cmt>WPT028</cmt>
    <desc>WPT028</desc>
  </wpt>
  <wpt lat="48.948695600" lon="16.318678500">
    <name>FCC Česká republika, s.r.o.</name>
    <cmt>FCC Česká republika, s.r.o.</cmt>
    <desc>FCC Česká republika, s.r.o.</desc>
  </wpt>
  <wpt lat="49.714591400" lon="13.947355700">
    <name>WPT030</name>
    <cmt>WPT030</cmt>
    <desc>WPT030</desc>
  </wpt>
  <wpt lat="49.178851000" lon="16.814546200">
    <name>WPT031</name>
    <cmt>WPT031</cmt>
    <desc>WPT031</desc>
  </wpt>
  <wpt lat="50.324910500" lon="12.513650500">
    <name>PH Kovo Recycling</name>
    <cmt>PH Kovo Recycling</cmt>
    <desc>PH Kovo Recycling</desc>
  </wpt>
  <wpt lat="49.712237100" lon="15.686426100">
    <name>Technická a Lesní Správa Chotěboř S.r.o.</name>
    <cmt>Technická a Lesní Správa Chotěboř S.r.o.</cmt>
    <desc>Technická a Lesní Správa Chotěboř S.r.o.</desc>
  </wpt>
  <wpt lat="49.502575900" lon="16.516533500">
    <name>WPT034</name>
    <cmt>WPT034</cmt>
    <desc>WPT034</desc>
  </wpt>
  <wpt lat="49.453456900" lon="17.517219400">
    <name>Sběrný dvůr Tučín</name>
    <cmt>Sběrný dvůr Tučín</cmt>
    <desc>Sběrný dvůr Tučín</desc>
  </wpt>
  <wpt lat="50.889193900" lon="14.464159200">
    <name>Sběrný dvůr Doubice</name>
    <cmt>Sběrný dvůr Doubice</cmt>
    <desc>Sběrný dvůr Doubice</desc>
  </wpt>
  <wpt lat="49.825226100" lon="18.321226600">
    <name>PARTR spol.</name>
    <cmt>PARTR spol.</cmt>
    <desc>PARTR spol.</desc>
  </wpt>
  <wpt lat="49.726246300" lon="17.283681600">
    <name>WPT038</name>
    <cmt>WPT038</cmt>
    <desc>WPT038</desc>
  </wpt>
  <wpt lat="50.773884400" lon="15.034401400">
    <name>Totalšrot</name>
    <cmt>Totalšrot</cmt>
    <desc>Totalšrot</desc>
  </wpt>
  <rte>
    <rtept lat="50.181738100" lon="15.538078700">
      <name>RPT001</name>
    </rtept>
    <rtept lat="50.181116700" lon="15.538994400">
      <name>RPT002</name>
    </rtept>
    <rtept lat="50.180553600" lon="15.538903300">
      <name>RPT003</name>
    </rtept>
    <rtept lat="50.180588400" lon="15.540134300">
      <name>RPT004</name>
    </rtept>
    <rtept lat="50.180673000" lon="15.540174200">
      <name>RPT005</name>
    </rtept>
    <rtept lat="50.180850100" lon="15.540240200">
      <name>RPT006</name>
    </rtept>
    <rtept lat="50.180857600" lon="15.540246000">
      <name>RPT007</name>
    </rtept>
    <rtept lat="50.181535000" lon="15.540529200">
      <name>RPT008</name>
    </rtept>
    <rtept lat="50.181613500" lon="15.540578100">
      <name>RPT009</name>
    </rtept>
    <rtept lat="50.181714900" lon="15.540622000">
      <name>RPT010</name>
    </rtept>
    <rtept lat="50.181692900" lon="15.540736700">
      <name>RPT011</name>
    </rtept>
    <rtept lat="50.181695200" lon="15.540758200">
      <name>RPT012</name>
    </rtept>
    <rtept lat="50.181614700" lon="15.541230800">
      <name>RPT013</name>
    </rtept>
    <rtept lat="50.182145100" lon="15.541396100">
      <name>RPT014</name>
    </rtept>
    <rtept lat="50.182205500" lon="15.541395800">
      <name>RPT015</name>
    </rtept>
    <rtept lat="50.182268500" lon="15.541379600">
      <name>RPT016</name>
    </rtept>
    <rtept lat="50.182317000" lon="15.541350600">
      <name>RPT017</name>
    </rtept>
    <rtept lat="50.182486600" lon="15.541226600">
      <name>RPT018</name>
    </rtept>
    <rtept lat="50.182515100" lon="15.541193400">
      <name>RPT019</name>
    </rtept>
    <rtept lat="50.182539200" lon="15.541147000">
      <name>RPT020</name>
    </rtept>
    <rtept lat="50.182611500" lon="15.540957100">
      <name>RPT021</name>
    </rtept>
    <rtept lat="50.182640800" lon="15.540771900">
      <name>RPT022</name>
    </rtept>
    <rtept lat="50.182697000" lon="15.540412000">
      <name>RPT023</name>
    </rtept>
    <rtept lat="50.182846100" lon="15.539669800">
      <name>RPT024</name>
    </rtept>
    <rtept lat="50.182947600" lon="15.539094700">
      <name>RPT025</name>
    </rtept>
    <rtept lat="50.183028200" lon="15.538691400">
      <name>RPT026</name>
    </rtept>
    <rtept lat="50.182784400" lon="15.538561700">
      <name>RPT027</name>
    </rtept>
    <rtept lat="50.182633900" lon="15.538486500">
      <name>RPT028</name>
    </rtept>
    <rtept lat="50.181997300" lon="15.538204800">
      <name>RPT029</name>
    </rtept>
    <rtept lat="50.181878100" lon="15.538139500">
      <name>RPT030</name>
    </rtept>
    <rtept lat="50.181738100" lon="15.538078700">
      <name>RPT031</name>
    </rtept>
  </rte>
  <rte>
    <rtept lat="49.966311300" lon="17.865816800">
      <name>RPT032</name>
    </rtept>
    <rtept lat="49.966213600" lon="17.865888900">
      <name>RPT033</name>
    </rtept>
    <rtept lat="49.966232700" lon="17.865951200">
      <name>RPT034</name>
    </rtept>
    <rtept lat="49.966228600" lon="17.865954300">
      <name>RPT035</name>
    </rtept>
    <rtept lat="49.966245300" lon="17.866008500">
      <name>RPT036</name>
    </rtept>
    <rtept lat="49.966249400" lon="17.866005400">
      <name>RPT037</name>
    </rtept>
    <rtept lat="49.966307700" lon="17.866195200">
      <name>RPT038</name>
    </rtept>
    <rtept lat="49.966405300" lon="17.866123200">
      <name>RPT039</name>
    </rtept>
    <rtept lat="49.966400500" lon="17.866107300">
      <name>RPT040</name>
    </rtept>
    <rtept lat="49.966383000" lon="17.866046400">
      <name>RPT041</name>
    </rtept>
    <rtept lat="49.966311300" lon="17.865816800">
      <name>RPT042</name>
    </rtept>
  </rte>
  <rte>
    <rtept lat="48.859005000" lon="17.137320300">
      <name>RPT043</name>
    </rtept>
    <rtept lat="48.858958200" lon="17.137379300">
      <name>RPT044</name>
    </rtept>
    <rtept lat="48.858932900" lon="17.137400400">
      <name>RPT045</name>
    </rtept>
    <rtept lat="48.858899100" lon="17.137429400">
      <name>RPT046</name>
    </rtept>
    <rtept lat="48.858825900" lon="17.137501000">
      <name>RPT047</name>
    </rtept>
    <rtept lat="48.858757400" lon="17.137574100">
      <name>RPT048</name>
    </rtept>
    <rtept lat="48.858473000" lon="17.137954700">
      <name>RPT049</name>
    </rtept>
    <rtept lat="48.858460000" lon="17.137972200">
      <name>RPT050</name>
    </rtept>
    <rtept lat="48.858469700" lon="17.137991200">
      <name>RPT051</name>
    </rtept>
    <rtept lat="48.858492500" lon="17.138039200">
      <name>RPT052</name>
    </rtept>
    <rtept lat="48.858474300" lon="17.138059200">
      <name>RPT053</name>
    </rtept>
    <rtept lat="48.858792200" lon="17.138682800">
      <name>RPT054</name>
    </rtept>
    <rtept lat="48.858984200" lon="17.139034800">
      <name>RPT055</name>
    </rtept>
    <rtept lat="48.859562300" lon="17.138247400">
      <name>RPT056</name>
    </rtept>
    <rtept lat="48.859309900" lon="17.137828900">
      <name>RPT057</name>
    </rtept>
    <rtept lat="48.859005000" lon="17.137320300">
      <name>RPT058</name>
    </rtept>
  </rte>
  <rte>
    <rtept lat="49.884394500" lon="16.633803300">
      <name>RPT059</name>
    </rtept>
    <rtept lat="49.883806900" lon="16.634118400">
      <name>RPT060</name>
    </rtept>
    <rtept lat="49.883985600" lon="16.634887800">
      <name>RPT061</name>
    </rtept>
    <rtept lat="49.884529500" lon="16.634647500">
      <name>RPT062</name>
    </rtept>
    <rtept lat="49.884394500" lon="16.633803300">
      <name>RPT063</name>
    </rtept>
  </rte>
  <rte>
    <rtept lat="50.183008700" lon="15.033539600">
      <name>RPT064</name>
    </rtept>
    <rtept lat="50.182866300" lon="15.033544800">
      <name>RPT065</name>
    </rtept>
    <rtept lat="50.182554900" lon="15.033598200">
      <name>RPT066</name>
    </rtept>
    <rtept lat="50.182456900" lon="15.033631800">
      <name>RPT067</name>
    </rtept>
    <rtept lat="50.182398700" lon="15.033660800">
      <name>RPT068</name>
    </rtept>
    <rtept lat="50.182482900" lon="15.034061600">
      <name>RPT069</name>
    </rtept>
    <rtept lat="50.182540600" lon="15.034034600">
      <name>RPT070</name>
    </rtept>
    <rtept lat="50.183034600" lon="15.033674500">
      <name>RPT071</name>
    </rtept>
    <rtept lat="50.183018300" lon="15.033589500">
      <name>RPT072</name>
    </rtept>
    <rtept lat="50.183008700" lon="15.033539600">
      <name>RPT073</name>
    </rtept>
  </rte>
  <rte>
    <rtept lat="48.870438400" lon="16.038956800">
      <name>RPT074</name>
    </rtept>
    <rtept lat="48.870362600" lon="16.039292100">
      <name>RPT075</name>
    </rtept>
    <rtept lat="48.870332600" lon="16.039276200">
      <name>RPT076</name>
    </rtept>
    <rtept lat="48.870309200" lon="16.039383200">
      <name>RPT077</name>
    </rtept>
    <rtept lat="48.870339500" lon="16.039397800">
      <name>RPT078</name>
    </rtept>
    <rtept lat="48.870310800" lon="16.039525900">
      <name>RPT079</name>
    </rtept>
    <rtept lat="48.870294700" lon="16.039799200">
      <name>RPT080</name>
    </rtept>
    <rtept lat="48.870392600" lon="16.039840800">
      <name>RPT081</name>
    </rtept>
    <rtept lat="48.870347600" lon="16.040064700">
      <name>RPT082</name>
    </rtept>
    <rtept lat="48.870502900" lon="16.040063400">
      <name>RPT083</name>
    </rtept>
    <rtept lat="48.870728400" lon="16.039070300">
      <name>RPT084</name>
    </rtept>
    <rtept lat="48.870538000" lon="16.038972900">
      <name>RPT085</name>
    </rtept>
    <rtept lat="48.870531900" lon="16.039004100">
      <name>RPT086</name>
    </rtept>
    <rtept lat="48.870438400" lon="16.038956800">
      <name>RPT087</name>
    </rtept>
  </rte>
  <rte>
    <rtept lat="49.786824600" lon="13.740546600">
      <name>RPT088</name>
    </rtept>
    <rtept lat="49.786824400" lon="13.740576200">
      <name>RPT089</name>
    </rtept>
    <rtept lat="49.786728000" lon="13.740588800">
      <name>RPT090</name>
    </rtept>
    <rtept lat="49.786662100" lon="13.740929200">
      <name>RPT091</name>
    </rtept>
    <rtept lat="49.786953800" lon="13.740846300">
      <name>RPT092</name>
    </rtept>
    <rtept lat="49.787073400" lon="13.740774400">
      <name>RPT093</name>
    </rtept>
    <rtept lat="49.786979300" lon="13.740548800">
      <name>RPT094</name>
    </rtept>
    <rtept lat="49.786960100" lon="13.740549100">
      <name>RPT095</name>
    </rtept>
    <rtept lat="49.786824600" lon="13.740546600">
      <name>RPT096</name>
    </rtept>
  </rte>
  <rte>
    <rtept lat="49.472878100" lon="17.045807600">
      <name>RPT097</name>
    </rtept>
    <rtept lat="49.472821800" lon="17.045825300">
      <name>RPT098</name>
    </rtept>
    <rtept lat="49.472812700" lon="17.045851400">
      <name>RPT099</name>
    </rtept>
    <rtept lat="49.472806700" lon="17.045999100">
      <name>RPT100</name>
    </rtept>
    <rtept lat="49.472693300" lon="17.046289200">
      <name>RPT101</name>
    </rtept>
    <rtept lat="49.472542800" lon="17.046500700">
      <name>RPT102</name>
    </rtept>
    <rtept lat="49.472532200" lon="17.046527000">
      <name>RPT103</name>
    </rtept>
    <rtept lat="49.472636900" lon="17.046647400">
      <name>RPT104</name>
    </rtept>
    <rtept lat="49.472697400" lon="17.046725000">
      <name>RPT105</name>
    </rtept>
    <rtept lat="49.472883700" lon="17.046430800">
      <name>RPT106</name>
    </rtept>
    <rtept lat="49.472933400" lon="17.046341800">
      <name>RPT107</name>
    </rtept>
    <rtept lat="49.472861700" lon="17.045961900">
      <name>RPT108</name>
    </rtept>
    <rtept lat="49.472896000" lon="17.045947500">
      <name>RPT109</name>
    </rtept>
    <rtept lat="49.472891900" lon="17.045919100">
      <name>RPT110</name>
    </rtept>
    <rtept lat="49.472878100" lon="17.045807600">
      <name>RPT111</name>
    </rtept>
  </rte>
  <rte>
    <rtept lat="50.270045500" lon="14.121578800">
      <name>RPT112</name>
    </rtept>
    <rtept lat="50.269938800" lon="14.121660200">
      <name>RPT113</name>
    </rtept>
    <rtept lat="50.270003300" lon="14.121864100">
      <name>RPT114</name>
    </rtept>
    <rtept lat="50.270050100" lon="14.121846600">
      <name>RPT115</name>
    </rtept>
    <rtept lat="50.270148200" lon="14.121746700">
      <name>RPT116</name>
    </rtept>
    <rtept lat="50.270045500" lon="14.121578800">
      <name>RPT117</name>
    </rtept>
  </rte>
</gpx>
