{
  "type": "FeatureCollection",
  "features": [
    {
      "type": "Feature",
      "geometry": {
        "type": "Point",
        "coordinates": [
          13.1337972,
          49.7881006
        ]
      },
      "properties": {
        "@type": "node",
        "@id": 14124343136,
        "@url": "https://www.openstreetmap.org/node/14124343136",
        "amenity": "recycling"
      }
    },
    {
      "type": "Feature",
      "geometry": {
        "type": "Point",
        "coordinates": [
          13.1280437,
          49.7915058
        ]
      },
      "properties": {
        "@type": "node",
        "@id": 14124362018,
        "@url": "https://www.openstreetmap.org/node/14124362018",
        "amenity": "recycling"
      }
    }
  ]
}
