{
  "type": "FeatureCollection",
  "features": [
    {
      "type": "Feature",
      "geometry": {
        "type": "Point",
        "coordinates": [
          14.2599675,
          50.0821688
        ]
      },
      "properties": {
        "@type": "node",
        "@id": 635125391,
        "@url": "https://www.openstreetmap.org/node/635125391",
        "addr:conscriptionnumber": "100",
        "addr:country": "CZ",
        "addr:housenumber": "100",
        "addr:place": "Hostivice",
        "addr:postcode": "25301",
        "addr:street": "Jiráskova",
        "amenity": "recycling",
        "recycling_type": "centre",
        "ref:ruian:addr": "12757659"
      }
    },
    {
      "type": "Feature",
      "geometry": {
        "type": "Point",
        "coordinates": [
          14.8263916,
          50.1576346
        ]
      },
      "properties": {
        "@type": "node",
        "@id": 1411212942,
        "@url": "https://www.openstreetmap.org/node/1411212942",
        "amenity": "recycling",
        "recycling_type": "centre"
      }
    },
    {
      "type": "Feature",
      "geometry": {
        "type": "Point",
        "coordinates": [
          15.479379,
          49.8135461
        ]
      },
      "properties": {
        "@type": "node",
        "@id": 2330732371,
        "@url": "https://www.openstreetmap.org/node/2330732371",
        "addr:conscriptionnumber": "4",
        "addr:country": "CZ",
        "addr:housenumber": "4",
        "addr:place": "Golčův Jeníkov",
        "addr:postcode": "58282",
        "addr:street": "5. května",
        "amenity": "recycling",
        "name": "ReUse centrum",
        "recycling_type": "centre"
      }
    },
    {
      "type": "Feature",
      "geometry": {
        "type": "Point",
        "coordinates": [
          17.3158339,
          48.8974853
        ]
      },
      "properties": {
        "@type": "node",
        "@id": 2558870259,
        "@url": "https://www.openstreetmap.org/node/2558870259",
        "amenity": "recycling",
        "name": "Sběrný dvůr Strážnice",
        "phone": "+420 518 333 164",
        "recycling_type": "centre",
        "website": "https://straznice-mesto.cz/vismo/o_utvar.asp?id_org=15665&id_u=1122&n=sberny%2Ddvur%2Dstraznice&p1=28917"
      }
    },
    {
      "type": "Feature",
      "geometry": {
        "type": "Point",
        "coordinates": [
          14.5848645,
          50.2265939
        ]
      },
      "properties": {
        "@type": "node",
        "@id": 3213780991,
        "@url": "https://www.openstreetmap.org/node/3213780991",
        "amenity": "recycling",
        "recycling_type": "centre"
      }
    },
    {
      "type": "Feature",
      "geometry": {
        "type": "Point",
        "coordinates": [
          17.5848968,
          49.3790904
        ]
      },
      "properties": {
        "@type": "node",
        "@id": 7829797687,
        "@url": "https://www.openstreetmap.org/node/7829797687",
        "amenity": "recycling",
        "name": "Sběrný dvůr Prusinovice",
        "recycling_type": "centre"
      }
    },
    {
      "type": "Feature",
      "geometry": {
        "type": "Point",
        "coordinates": [
          16.9292102,
          49.2536661
        ]
      },
      "properties": {
        "@type": "node",
        "@id": 9122642671,
        "@url": "https://www.openstreetmap.org/node/9122642671",
        "amenity": "recycling",
        "opening_hours": "Tu 16:00-18:00",
        "recycling_type": "centre"
      }
    },
    {
      "type": "Feature",
      "geometry": {
        "type": "Point",
        "coordinates": [
          17.0291657,
          49.2120089
        ]
      },
      "properties": {
        "@type": "node",
        "@id": 9444510058,
        "@url": "https://www.openstreetmap.org/node/9444510058",
        "amenity": "recycling",
        "recycling_type": "centre"
      }
    },
    {
      "type": "Feature",
      "geometry": {
        "type": "Point",
        "coordinates": [
          17.087629,
          50.3114771
        ]
      },
      "properties": {
        "@type": "node",
        "@id": 10020390318,
        "@url": "https://www.openstreetmap.org/node/10020390318",
        "amenity": "recycling",
        "recycling_type": "centre"
      }
    },
    {
      "type": "Feature",
      "geometry": {
        "type": "Point",
        "coordinates": [
          17.3786445,
          49.5322329
        ]
      },
      "properties": {
        "@type": "node",
        "@id": 10765318397,
        "@url": "https://www.openstreetmap.org/node/10765318397",
        "amenity": "recycling",
        "name": "Bergasto Enviroment",
        "recycling_type": "centre"
      }
    },
    {
      "type": "Feature",
      "geometry": {
        "type": "Point",
        "coordinates": [
          17.3948076,
          49.5898437
        ]
      },
      "properties": {
        "@type": "node",
        "@id": 12204780246,
        "@url": "https://www.openstreetmap.org/node/12204780246",
        "amenity": "recycling",
        "name": "Sběrné místo Přáslavice",
        "recycling_type": "centre"
      }
    },
    {
      "type": "Feature",
      "geometry": {
        "type": "Point",
        "coordinates": [
          15.6562853,
          49.9498974
        ]
      },
      "properties": {
        "@type": "node",
        "@id": 12211746990,
        "@url": "https://www.openstreetmap.org/node/12211746990",
        "addr:city": "Heřmanův Městec",
        "addr:housenumber": "935",
        "addr:postcode": "53803",
        "addr:street": "Čáslavská",
        "amenity": "recycling",
        "name": "Sběrné suroviny Josef Vostrovský",
        "recycling_type": "centre"
      }
    },
    {
      "type": "Feature",
      "geometry": {
        "type": "Point",
        "coordinates": [
          15.8494913,
          50.0708623
        ]
      },
      "properties": {
        "@type": "node",
        "@id": 12248293344,
        "@url": "https://www.openstreetmap.org/node/12248293344",
        "addr:street": "Dukelská",
        "amenity": "recycling",
        "name": "Sběrný dvůr - Sezemice",
        "recycling_type": "centre"
      }
    },
    {
      "type": "Feature",
      "geometry": {
        "type": "Point",
        "coordinates": [
          15.902271,
          50.0689254
        ]
      },
      "properties": {
        "@type": "node",
        "@id": 12337182496,
        "@url": "https://www.openstreetmap.org/node/12337182496",
        "amenity": "recycling",
        "recycling_type": "centre"
      }
    },
    {
      "type": "Feature",
      "geometry": {
        "type": "Point",
        "coordinates": [
          17.8515572,
          49.1541285
        ]
      },
      "properties": {
        "@type": "node",
        "@id": 12408888665,
        "@url": "https://www.openstreetmap.org/node/12408888665",
        "amenity": "recycling",
        "name": "sběrný dvůr Slopné",
        "recycling_type": "centre"
      }
    },
    {
      "type": "Feature",
      "geometry": {
        "type": "Point",
        "coordinates": [
          15.7160711,
          50.2496534
        ]
      },
      "properties": {
        "@type": "node",
        "@id": 12475515793,
        "@url": "https://www.openstreetmap.org/node/12475515793",
        "amenity": "recycling",
        "name": "Skládka bioodpadu",
        "opening_hours": "24/7",
        "recycling_type": "centre",
        "wheelchair": "limited"
      }
    },
    {
      "type": "Feature",
      "geometry": {
        "type": "Point",
        "coordinates": [
          15.8950462,
          50.5756771
        ]
      },
      "properties": {
        "@type": "node",
        "@id": 12563323438,
        "@url": "https://www.openstreetmap.org/node/12563323438",
        "amenity": "recycling",
        "recycling_type": "centre"
      }
    },
    {
      "type": "Feature",
      "geometry": {
        "type": "Point",
        "coordinates": [
          14.3692385,
          48.8542516
        ]
      },
      "properties": {
        "@type": "node",
        "@id": 12705532350,
        "@url": "https://www.openstreetmap.org/node/12705532350",
        "amenity": "recycling",
        "recycling_type": "centre"
      }
    },
    {
      "type": "Feature",
      "geometry": {
        "type": "Point",
        "coordinates": [
          14.7252825,
          49.1512711
        ]
      },
      "properties": {
        "@type": "node",
        "@id": 12795856019,
        "@url": "https://www.openstreetmap.org/node/12795856019",
        "amenity": "recycling",
        "name": "Místo sběrného odpadu",
        "recycling_type": "centre"
      }
    },
    {
      "type": "Feature",
      "geometry": {
        "type": "Point",
        "coordinates": [
          16.3098544,
          49.0467467
        ]
      },
      "properties": {
        "@type": "node",
        "@id": 12911319502,
        "@url": "https://www.openstreetmap.org/node/12911319502",
        "amenity": "recycling",
        "opening_hours": "Tu-Fr 08:00-12:00, 14:00-17:00",
        "operator": "Služby města Moravský Krumlov",
        "recycling_type": "centre"
      }
    },
    {
      "type": "Feature",
      "geometry": {
        "type": "Point",
        "coordinates": [
          15.8206156,
          50.6543046
        ]
      },
      "properties": {
        "@type": "node",
        "@id": 13019523391,
        "@url": "https://www.openstreetmap.org/node/13019523391",
        "amenity": "recycling",
        "name": "Očistné centrum",
        "operator": "Obec Horní Maršov",
        "recycling_type": "centre"
      }
    },
    {
      "type": "Feature",
      "geometry": {
        "type": "Point",
        "coordinates": [
          16.2227541,
          49.6293822
        ]
      },
      "properties": {
        "@type": "node",
        "@id": 13047720798,
        "@url": "https://www.openstreetmap.org/node/13047720798",
        "amenity": "recycling",
        "opening_hours": "Mar 31-Oct 31 We 13:00-17:00, Sa 09:00-12:00; ",
        "recycling_type": "centre",
        "url": "https://www.jimramov.cz/index.php/novinky-a-udalosti/kulturni-a-sportovni-akce/2681-sberne-misto-na-cov-jimramov"
      }
    },
    {
      "type": "Feature",
      "geometry": {
        "type": "Point",
        "coordinates": [
          13.9901594,
          50.6916244
        ]
      },
      "properties": {
        "@type": "node",
        "@id": 13098616563,
        "@url": "https://www.openstreetmap.org/node/13098616563",
        "amenity": "recycling",
        "operator": "AVE",
        "operator:wikidata": "Q67808199",
        "recycling_type": "centre"
      }
    },
    {
      "type": "Feature",
      "geometry": {
        "type": "Point",
        "coordinates": [
          14.4781686,
          49.3028354
        ]
      },
      "properties": {
        "@type": "node",
        "@id": 13119255401,
        "@url": "https://www.openstreetmap.org/node/13119255401",
        "amenity": "recycling",
        "name": "Sběrný dvůr Bechyně",
        "opening_hours": "We, Fr 12:00-17:00; Sa 08:00-12:00",
        "recycling_type": "centre"
      }
    },
    {
      "type": "Feature",
      "geometry": {
        "type": "Point",
        "coordinates": [
          18.3157627,
          49.6301418
        ]
      },
      "properties": {
        "@type": "node",
        "@id": 13174912543,
        "@url": "https://www.openstreetmap.org/node/13174912543",
        "amenity": "recycling",
        "opening_hours": "We 15:00-18:00; Sa 08:00-12:00",
        "recycling_type": "centre"
      }
    },
    {
      "type": "Feature",
      "geometry": {
        "type": "Point",
        "coordinates": [
          14.906539,
          49.711991
        ]
      },
      "properties": {
        "@type": "node",
        "@id": 13188429254,
        "@url": "https://www.openstreetmap.org/node/13188429254",
        "addr:city": "Vlašim",
        "addr:postcode": "25801",
        "addr:street": "K Borovičkám",
        "amenity": "recycling",
        "name": "Sběrný dvůr, Vlašim",
        "operator": "TSK Vlašim",
        "operator:type": "government",
        "recycling_type": "centre"
      }
    },
    {
      "type": "Feature",
      "geometry": {
        "type": "Point",
        "coordinates": [
          14.7509943,
          49.9562753
        ]
      },
      "properties": {
        "@type": "node",
        "@id": 13368963301,
        "@url": "https://www.openstreetmap.org/node/13368963301",
        "amenity": "recycling",
        "name": "Sběrný dvůr Struhařov",
        "recycling_type": "centre"
      }
    },
    {
      "type": "Feature",
      "geometry": {
        "type": "Point",
        "coordinates": [
          14.7547957,
          49.9424185
        ]
      },
      "properties": {
        "@type": "node",
        "@id": 13368963501,
        "@url": "https://www.openstreetmap.org/node/13368963501",
        "amenity": "recycling",
        "recycling_type": "centre"
      }
    },
    {
      "type": "Feature",
      "geometry": {
        "type": "Point",
        "coordinates": [
          16.3186785,
          48.9486956
        ]
      },
      "properties": {
        "@type": "node",
        "@id": 13396548801,
        "@url": "https://www.openstreetmap.org/node/13396548801",
        "amenity": "recycling",
        "check_date": "2025-12-23",
        "name": "FCC Česká republika, s.r.o.",
        "recycling_type": "centre",
        "website": "https://www.fcc-group.eu/ceska-republika/sluzby/sberne-dvory/jizni-morava/sd-miroslav"
      }
    },
    {
      "type": "Feature",
      "geometry": {
        "type": "Point",
        "coordinates": [
          13.9473557,
          49.7145914
        ]
      },
      "properties": {
        "@type": "node",
        "@id": 13737189361,
        "@url": "https://www.openstreetmap.org/node/13737189361",
        "amenity": "recycling",
        "recycling_type": "centre"
      }
    },
    {
      "type": "Feature",
      "geometry": {
        "type": "Point",
        "coordinates": [
          16.8145462,
          49.178851
        ]
      },
      "properties": {
        "@type": "node",
        "@id": 13906308121,
        "@url": "https://www.openstreetmap.org/node/13906308121",
        "amenity": "recycling",
        "recycling_type": "centre"
      }
    },
    {
      "type": "Feature",
      "geometry": {
        "type": "Point",
        "coordinates": [
          12.5136505,
          50.3249105
        ]
      },
      "properties": {
        "@type": "node",
        "@id": 13926043597,
        "@url": "https://www.openstreetmap.org/node/13926043597",
        "amenity": "recycling",
        "building": "industrial",
        "name": "PH Kovo Recycling",
        "opening_hours": "Mo 09:00-16:00; Tu off; We 09:00-16:00; Th off; Fr 09:00-16:00; Sa 09:00-12:00; Su off",
        "phone": "+420 737 548 267",
        "recycling_type": "centre"
      }
    },
    {
      "type": "Feature",
      "geometry": {
        "type": "Point",
        "coordinates": [
          15.6864261,
          49.7122371
        ]
      },
      "properties": {
        "@type": "node",
        "@id": 14020836702,
        "@url": "https://www.openstreetmap.org/node/14020836702",
        "amenity": "recycling",
        "name": "Technická a Lesní Správa Chotěboř S.r.o.",
        "opening_hours": "Mo-Fr 06:00-17:00; Sa 08:00-11:30, 12:00-14:00",
        "phone": "+420 569 621 648",
        "recycling_type": "centre",
        "website": "https://www.teles-chotebor.cz/"
      }
    },
    {
      "type": "Feature",
      "geometry": {
        "type": "Point",
        "coordinates": [
          16.5165335,
          49.5025759
        ]
      },
      "properties": {
        "@type": "node",
        "@id": 14028537794,
        "@url": "https://www.openstreetmap.org/node/14028537794",
        "amenity": "recycling",
        "recycling_type": "centre"
      }
    },
    {
      "type": "Feature",
      "geometry": {
        "type": "Point",
        "coordinates": [
          17.5172194,
          49.4534569
        ]
      },
      "properties": {
        "@type": "node",
        "@id": 14087461201,
        "@url": "https://www.openstreetmap.org/node/14087461201",
        "amenity": "recycling",
        "name": "Sběrný dvůr Tučín",
        "recycling_type": "centre"
      }
    },
    {
      "type": "Feature",
      "geometry": {
        "type": "Point",
        "coordinates": [
          14.4641592,
          50.8891939
        ]
      },
      "properties": {
        "@type": "node",
        "@id": 14105175061,
        "@url": "https://www.openstreetmap.org/node/14105175061",
        "amenity": "recycling",
        "name": "Sběrný dvůr Doubice",
        "recycling_type": "centre"
      }
    },
    {
      "type": "Feature",
      "geometry": {
        "type": "Point",
        "coordinates": [
          18.3212266,
          49.8252261
        ]
      },
      "properties": {
        "@type": "node",
        "@id": 14118608442,
        "@url": "https://www.openstreetmap.org/node/14118608442",
        "amenity": "recycling",
        "name": "PARTR spol.",
        "recycling_type": "centre"
      }
    },
    {
      "type": "Feature",
      "geometry": {
        "type": "Point",
        "coordinates": [
          17.2836816,
          49.7262463
        ]
      },
      "properties": {
        "@type": "node",
        "@id": 14128637354,
        "@url": "https://www.openstreetmap.org/node/14128637354",
        "amenity": "recycling",
        "recycling_type": "centre"
      }
    },
    {
      "type": "Feature",
      "geometry": {
        "type": "Point",
        "coordinates": [
          15.0344014,
          50.7738844
        ]
      },
      "properties": {
        "@type": "node",
        "@id": 14167146578,
        "@url": "https://www.openstreetmap.org/node/14167146578",
        "amenity": "recycling",
        "name": "Totalšrot",
        "opening_hours": "Mo-Fr 07:00-17:00; Sa 08:00-17:00",
        "operator": "Totalšrot s.r.o.",
        "operator:type": "private",
        "recycling_type": "centre",
        "website": "https://totalsrot.cz"
      }
    },
    {
      "type": "Feature",
      "geometry": {
        "type": "MultiPolygon",
        "coordinates": [
          [
            [
              [
                15.5380787,
                50.1817381
              ],
              [
                15.5389944,
                50.1811167
              ],
              [
                15.5389033,
                50.1805536
              ],
              [
                15.5401343,
                50.1805884
              ],
              [
                15.5401742,
                50.180673
              ],
              [
                15.5402402,
                50.1808501
              ],
              [
                15.540246,
                50.1808576
              ],
              [
                15.5405292,
                50.181535
              ],
              [
                15.5405781,
                50.1816135
              ],
              [
                15.540622,
                50.1817149
              ],
              [
                15.5407367,
                50.1816929
              ],
              [
                15.5407582,
                50.1816952
              ],
              [
                15.5412308,
                50.1816147
              ],
              [
                15.5413961,
                50.1821451
              ],
              [
                15.5413958,
                50.1822055
              ],
              [
                15.5413796,
                50.1822685
              ],
              [
                15.5413506,
                50.182317
              ],
              [
                15.5412266,
                50.1824866
              ],
              [
                15.5411934,
                50.1825151
              ],
              [
                15.541147,
                50.1825392
              ],
              [
                15.5409571,
                50.1826115
              ],
              [
                15.5407719,
                50.1826408
              ],
              [
                15.540412,
                50.182697
              ],
              [
                15.5396698,
                50.1828461
              ],
              [
                15.5390947,
                50.1829476
              ],
              [
                15.5386914,
                50.1830282
              ],
              [
                15.5385617,
                50.1827844
              ],
              [
                15.5384865,
                50.1826339
              ],
              [
                15.5382048,
                50.1819973
              ],
              [
                15.5381395,
                50.1818781
              ],
              [
                15.5380787,
                50.1817381
              ]
            ]
          ]
        ]
      },
      "properties": {
        "@type": "way",
        "@id": 29724690,
        "@url": "https://www.openstreetmap.org/way/29724690",
        "amenity": "recycling",
        "name": "Sběrný dvůr Stavoka Kosice",
        "recycling_type": "centre"
      }
    },
    {
      "type": "Feature",
      "geometry": {
        "type": "MultiPolygon",
        "coordinates": [
          [
            [
              [
                17.8658168,
                49.9663113
              ],
              [
                17.8658889,
                49.9662136
              ],
              [
                17.8659512,
                49.9662327
              ],
              [
                17.8659543,
                49.9662286
              ],
              [
                17.8660085,
                49.9662453
              ],
              [
                17.8660054,
                49.9662494
              ],
              [
                17.8661952,
                49.9663077
              ],
              [
                17.8661232,
                49.9664053
              ],
              [
                17.8661073,
                49.9664005
              ],
              [
                17.8660464,
                49.966383
              ],
              [
                17.8658168,
                49.9663113
              ]
            ]
          ]
        ]
      },
      "properties": {
        "@type": "way",
        "@id": 52738046,
        "@url": "https://www.openstreetmap.org/way/52738046",
        "amenity": "recycling",
        "building": "civic",
        "building:levels": "1",
        "building:ruian:type": "15",
        "recycling_type": "centre",
        "ref:ruian:building": "23958952",
        "source": "cuzk:ruian"
      }
    },
    {
      "type": "Feature",
      "geometry": {
        "type": "MultiPolygon",
        "coordinates": [
          [
            [
              [
                17.1373203,
                48.859005
              ],
              [
                17.1373793,
                48.858958199999999
              ],
              [
                17.1374004,
                48.8589329
              ],
              [
                17.1374294,
                48.8588991
              ],
              [
                17.137501,
                48.8588259
              ],
              [
                17.1375741,
                48.8587574
              ],
              [
                17.1379547,
                48.858473
              ],
              [
                17.1379722,
                48.85846
              ],
              [
                17.1379912,
                48.8584697
              ],
              [
                17.1380392,
                48.8584925
              ],
              [
                17.1380592,
                48.8584743
              ],
              [
                17.1386828,
                48.8587922
              ],
              [
                17.1390348,
                48.8589842
              ],
              [
                17.1382474,
                48.8595623
              ],
              [
                17.1378289,
                48.8593099
              ],
              [
                17.1373203,
                48.859005
              ]
            ]
          ]
        ]
      },
      "properties": {
        "@type": "way",
        "@id": 173179212,
        "@url": "https://www.openstreetmap.org/way/173179212",
        "amenity": "recycling",
        "name": "Sběrný dvůr",
        "operator": "Tespra Hodonín",
        "operator:type": "private",
        "recycling_type": "centre",
        "website": "https://www.tespra-hodonin.cz/sberny-dvur"
      }
    },
    {
      "type": "Feature",
      "geometry": {
        "type": "MultiPolygon",
        "coordinates": [
          [
            [
              [
                16.6338033,
                49.8843945
              ],
              [
                16.6341184,
                49.8838069
              ],
              [
                16.6348878,
                49.8839856
              ],
              [
                16.6346475,
                49.8845295
              ],
              [
                16.6338033,
                49.8843945
              ]
            ]
          ]
        ]
      },
      "properties": {
        "@type": "way",
        "@id": 318766919,
        "@url": "https://www.openstreetmap.org/way/318766919",
        "amenity": "recycling",
        "name": "Sběrný dvůr",
        "recycling_type": "centre"
      }
    },
    {
      "type": "Feature",
      "geometry": {
        "type": "MultiPolygon",
        "coordinates": [
          [
            [
              [
                15.0335396,
                50.1830087
              ],
              [
                15.0335448,
                50.1828663
              ],
              [
                15.0335982,
                50.1825549
              ],
              [
                15.0336318,
                50.1824569
              ],
              [
                15.0336608,
                50.1823987
              ],
              [
                15.0340616,
                50.1824829
              ],
              [
                15.0340346,
                50.1825406
              ],
              [
                15.0336745,
                50.1830346
              ],
              [
                15.0335895,
                50.1830183
              ],
              [
                15.0335396,
                50.1830087
              ]
            ]
          ]
        ]
      },
      "properties": {
        "@type": "way",
        "@id": 320080255,
        "@url": "https://www.openstreetmap.org/way/320080255",
        "amenity": "recycling",
        "recycling_type": "centre"
      }
    },
    {
      "type": "Feature",
      "geometry": {
        "type": "MultiPolygon",
        "coordinates": [
          [
            [
              [
                16.0389568,
                48.8704384
              ],
              [
                16.0392921,
                48.8703626
              ],
              [
                16.0392762,
                48.8703326
              ],
              [
                16.0393832,
                48.8703092
              ],
              [
                16.0393978,
                48.8703395
              ],
              [
                16.0395259,
                48.8703108
              ],
              [
                16.0397992,
                48.8702947
              ],
              [
                16.0398408,
                48.8703926
              ],
              [
                16.0400647,
                48.8703476
              ],
              [
                16.0400634,
                48.8705029
              ],
              [
                16.0390703,
                48.8707284
              ],
              [
                16.0389729,
                48.870538
              ],
              [
                16.0390041,
                48.8705319
              ],
              [
                16.0389568,
                48.8704384
              ]
            ]
          ]
        ]
      },
      "properties": {
        "@type": "way",
        "@id": 362201049,
        "@url": "https://www.openstreetmap.org/way/362201049",
        "amenity": "recycling",
        "name": "sběrna surovin",
        "recycling_type": "centre",
        "source": "survey"
      }
    },
    {
      "type": "Feature",
      "geometry": {
        "type": "MultiPolygon",
        "coordinates": [
          [
            [
              [
                13.7405466,
                49.7868246
              ],
              [
                13.7405762,
                49.7868244
              ],
              [
                13.7405888,
                49.786728
              ],
              [
                13.7409292,
                49.7866621
              ],
              [
                13.7408463,
                49.7869538
              ],
              [
                13.7407744,
                49.7870734
              ],
              [
                13.7405488,
                49.7869793
              ],
              [
                13.7405491,
                49.7869601
              ],
              [
                13.7405466,
                49.7868246
              ]
            ]
          ]
        ]
      },
      "properties": {
        "@type": "way",
        "@id": 497478781,
        "@url": "https://www.openstreetmap.org/way/497478781",
        "amenity": "recycling",
        "name": "Sběrný dvůr",
        "recycling_type": "centre"
      }
    },
    {
      "type": "Feature",
      "geometry": {
        "type": "MultiPolygon",
        "coordinates": [
          [
            [
              [
                17.0458076,
                49.4728781
              ],
              [
                17.0458253,
                49.4728218
              ],
              [
                17.0458514,
                49.4728127
              ],
              [
                17.0459991,
                49.4728067
              ],
              [
                17.0462892,
                49.4726933
              ],
              [
                17.0465007,
                49.4725428
              ],
              [
                17.046527,
                49.4725322
              ],
              [
                17.0466474,
                49.4726369
              ],
              [
                17.046725,
                49.4726974
              ],
              [
                17.0464308,
                49.4728837
              ],
              [
                17.0463418,
                49.4729334
              ],
              [
                17.045961900000003,
                49.4728617
              ],
              [
                17.0459475,
                49.472896
              ],
              [
                17.0459191,
                49.4728919
              ],
              [
                17.0458076,
                49.4728781
              ]
            ]
          ]
        ]
      },
      "properties": {
        "@type": "way",
        "@id": 862876863,
        "@url": "https://www.openstreetmap.org/way/862876863",
        "amenity": "recycling",
        "name": "sběrný dvůr",
        "recycling_type": "centre"
      }
    },
    {
      "type": "Feature",
      "geometry": {
        "type": "MultiPolygon",
        "coordinates": [
          [
            [
              [
                14.1215788,
                50.2700455
              ],
              [
                14.1216602,
                50.2699388
              ],
              [
                14.1218641,
                50.2700033
              ],
              [
                14.1218466,
                50.2700501
              ],
              [
                14.1217467,
                50.2701482
              ],
              [
                14.1215788,
                50.2700455
              ]
            ]
          ]
        ]
      },
      "properties": {
        "@type": "way",
        "@id": 980135316,
        "@url": "https://www.openstreetmap.org/way/980135316",
        "amenity": "recycling",
        "name": "Sběrný dvůr",
        "opening_hours": "Sa 10:00-11:00",
        "operator": "Beřovice",
        "operator:type": "government",
        "recycling_type": "centre"
      }
    }
  ]
}
